{"type": "FeatureCollection", "features": [{"type": "Feature", "geometry": {"type": "Point", "coordinates": [-121.90032483470944, 37.44676475608313]}, "properties": {"type": "Padmount", "subtype": "Not Available", "voltage": "Not Available", "height": "Not Available", "pole_use": "Not Available", "oh_ug": "Not Available", "material": "Not Available", "owner": "Electric Company", "owner_id": "Not Available", "install_da": "Not Available", "other": "Not Available", "source_dat": "Not Available", "load_date": "2021-04-24"}}, {"type": "Feature", "geometry": {"type": "Point", "coordinates": [-121.90137388460332, 37.44719983305351]}, "properties": {"type": "Subsurface", "subtype": "Not Available", "voltage": "Not Available", "height": "Not Available", "pole_use": "Not Available", "oh_ug": "Not Available", "material": "Unknown", "owner": "Electric Company", "owner_id": "Not Available", "install_da": "Not Available", "other": "Not Available", "source_dat": "Not Available", "load_date": "2021-04-24"}}, {"type": "Feature", "geometry": {"type": "Point", "coordinates": [-121.90108644976354, 37.44707429668404]}, "properties": {"type": "Subsurface", "subtype": "Not Available", "voltage": "Not Available", "height": "Not Available", "pole_use": "Not Available", "oh_ug": "Not Available", "material": "Unknown", "owner": "Electric Company", "owner_id": "Not Available", "install_da": "Not Available", "other": "Not Available", "source_dat": "Not Available", "load_date": "2021-04-24"}}, {"type": "Feature", "geometry": {"type": "Point", "coordinates": [-121.90066163107576, 37.447098141350224]}, "properties": {"type": "Subsurface", "subtype": "Not Available", "voltage": "Not Available", "height": "Not Available", "pole_use": "Not Available", "oh_ug": "Not Available", "material": "Unknown", "owner": "Electric Company", "owner_id": "Not Available", "install_da": "Not Available", "other": "Not Available", "source_dat": "Not Available", "load_date": "2021-04-24"}}, {"type": "Feature", "geometry": {"type": "Point", "coordinates": [-121.90080058517886, 37.44709026777581]}, "properties": {"type": "Subsurface", "subtype": "Not Available", "voltage": "Not Available", "height": "Not Available", "pole_use": "Not Available", "oh_ug": "Not Available", "material": "Unknown", "owner": "Electric Company", "owner_id": "Not Available", "install_da": "Not Available", "other": "Not Available", "source_dat": "Not Available", "load_date": "2021-04-24"}}, {"type": "Feature", "geometry": {"type": "Point", "coordinates": [-121.9010430305926, 37.446914547779805]}, "properties": {"type": "Subsurface", "subtype": "Not Available", "voltage": "Not Available", "height": "Not Available", "pole_use": "Not Available", "oh_ug": "Not Available", "material": "Unknown", "owner": "Electric Company", "owner_id": "Not Available", "install_da": "Not Available", "other": "Not Available", "source_dat": "Not Available", "load_date": "2021-04-24"}}, {"type": "Feature", "geometry": {"type": "Point", "coordinates": [-121.90041130474204, 37.44718687020035]}, "properties": {"type": "Subsurface", "subtype": "Not Available", "voltage": "Not Available", "height": "Not Available", "pole_use": "Not Available", "oh_ug": "Not Available", "material": "Unknown", "owner": "Electric Company", "owner_id": "Not Available", "install_da": "Not Available", "other": "Not Available", "source_dat": "Not Available", "load_date": "2021-04-24"}}, {"type": "Feature", "geometry": {"type": "Point", "coordinates": [-121.90006468619639, 37.44710220508421]}, "properties": {"type": "Subsurface", "subtype": "Not Available", "voltage": "Not Available", "height": "Not Available", "pole_use": "Not Available", "oh_ug": "Not Available", "material": "Unknown", "owner": "Electric Company", "owner_id": "Not Available", "install_da": "Not Available", "other": "Not Available", "source_dat": "Not Available", "load_date": "2021-04-24"}}, {"type": "Feature", "geometry": {"type": "Point", "coordinates": [-121.89998409384069, 37.44737966174206]}, "properties": {"type": "Subsurface", "subtype": "Not Available", "voltage": "Not Available", "height": "Not Available", "pole_use": "Not Available", "oh_ug": "Not Available", "material": "Unknown", "owner": "Electric Company", "owner_id": "Not Available", "install_da": "Not Available", "other": "Not Available", "source_dat": "Not Available", "load_date": "2021-04-24"}}, {"type": "Feature", "geometry": {"type": "Point", "coordinates": [-121.90007556569279, 37.44624391788278]}, "properties": {"type": "Subsurface", "subtype": "Not Available", "voltage": "Not Available", "height": "Not Available", "pole_use": "Not Available", "oh_ug": "Not Available", "material": "Unknown", "owner": "Electric Company", "owner_id": "Not Available", "install_da": "Not Available", "other": "Not Available", "source_dat": "Not Available", "load_date": "2021-04-24"}}, {"type": "Feature", "geometry": {"type": "Point", "coordinates": [-121.90016858354551, 37.44664587233679]}, "properties": {"type": "Subsurface", "subtype": "Not Available", "voltage": "Not Available", "height": "Not Available", "pole_use": "Not Available", "oh_ug": "Not Available", "material": "Unknown", "owner": "Electric Company", "owner_id": "Not Available", "install_da": "Not Available", "other": "Not Available", "source_dat": "Not Available", "load_date": "2021-04-24"}}, {"type": "Feature", "geometry": {"type": "Point", "coordinates": [-121.89971355810802, 37.44686813706933]}, "properties": {"type": "Subsurface", "subtype": "Not Available", "voltage": "Not Available", "height": "Not Available", "pole_use": "Not Available", "oh_ug": "Not Available", "material": "Unknown", "owner": "Electric Company", "owner_id": "Not Available", "install_da": "Not Available", "other": "Not Available", "source_dat": "Not Available", "load_date": "2021-04-24"}}, {"type": "Feature", "geometry": {"type": "Point", "coordinates": [-121.89970959384269, 37.44701455518535]}, "properties": {"type": "Subsurface", "subtype": "Not Available", "voltage": "Not Available", "height": "Not Available", "pole_use": "Not Available", "oh_ug": "Not Available", "material": "Unknown", "owner": "Electric Company", "owner_id": "Not Available", "install_da": "Not Available", "other": "Not Available", "source_dat": "Not Available", "load_date": "2021-04-24"}}, {"type": "Feature", "geometry": {"type": "Point", "coordinates": [-121.89948010303365, 37.44709700595798]}, "properties": {"type": "Subsurface", "subtype": "Not Available", "voltage": "Not Available", "height": "Not Available", "pole_use": "Not Available", "oh_ug": "Not Available", "material": "Unknown", "owner": "Electric Company", "owner_id": "Not Available", "install_da": "Not Available", "other": "Not Available", "source_dat": "Not Available", "load_date": "2021-04-24"}}, {"type": "Feature", "geometry": {"type": "Point", "coordinates": [-121.90052952483008, 37.44641607277813]}, "properties": {"type": "Subsurface", "subtype": "Not Available", "voltage": "Not Available", "height": "Not Available", "pole_use": "Not Available", "oh_ug": "Not Available", "material": "Unknown", "owner": "Electric Company", "owner_id": "Not Available", "install_da": "Not Available", "other": "Not Available", "source_dat": "Not Available", "load_date": "2021-04-24"}}, {"type": "Feature", "geometry": {"type": "Point", "coordinates": [-121.90131086419288, 37.446371946828776]}, "properties": {"type": "Subsurface", "subtype": "Not Available", "voltage": "Not Available", "height": "Not Available", "pole_use": "Not Available", "oh_ug": "Not Available", "material": "Unknown", "owner": "Electric Company", "owner_id": "Not Available", "install_da": "Not Available", "other": "Not Available", "source_dat": "Not Available", "load_date": "2021-04-24"}}, {"type": "Feature", "geometry": {"type": "Point", "coordinates": [-121.90096681572724, 37.44709750019597]}, "properties": {"type": "Subsurface", "subtype": "Not Available", "voltage": "Not Available", "height": "Not Available", "pole_use": "Not Available", "oh_ug": "Not Available", "material": "Unknown", "owner": "Electric Company", "owner_id": "Not Available", "install_da": "Not Available", "other": "Not Available", "source_dat": "Not Available", "load_date": "2021-04-24"}}, {"type": "Feature", "geometry": {"type": "Point", "coordinates": [-121.9000493510562, 37.44638651308056]}, "properties": {"type": "Subsurface", "subtype": "Not Available", "voltage": "Not Available", "height": "Not Available", "pole_use": "Not Available", "oh_ug": "Not Available", "material": "Unknown", "owner": "Electric Company", "owner_id": "Not Available", "install_da": "Not Available", "other": "Not Available", "source_dat": "Not Available", "load_date": "2021-04-24"}}, {"type": "Feature", "geometry": {"type": "Point", "coordinates": [-121.9000493510562, 37.44638651308056]}, "properties": {"type": "Subsurface", "subtype": "Not Available", "voltage": "Not Available", "height": "Not Available", "pole_use": "Not Available", "oh_ug": "Not Available", "material": "Not Available", "owner": "Electric Company", "owner_id": "MH757", "install_da": "Not Available", "other": "Not Available", "source_dat": "Not Available", "load_date": "2021-04-24"}}, {"type": "Feature", "geometry": {"type": "Point", "coordinates": [-121.90071088210954, 37.446172719672695]}, "properties": {"type": "Subsurface", "subtype": "Not Available", "voltage": "Not Available", "height": "Not Available", "pole_use": "Not Available", "oh_ug": "Not Available", "material": "Unknown", "owner": "Electric Company", "owner_id": "Not Available", "install_da": "Not Available", "other": "Not Available", "source_dat": "Not Available", "load_date": "2021-04-24"}}, {"type": "Feature", "geometry": {"type": "Point", "coordinates": [-121.9004833532211, 37.44668448088697]}, "properties": {"type": "Support", "subtype": "Not Available", "voltage": "12.0 kV", "height": "0", "pole_use": "Streetlight", "oh_ug": "Not Available", "material": "Wood", "owner": "Electric Company", "owner_id": "Not Available", "install_da": "Not Available", "other": "Not Available", "source_dat": "Not Available", "load_date": "2021-04-24"}}, {"type": "Feature", "geometry": {"type": "Point", "coordinates": [-121.90033065309753, 37.4463639141359]}, "properties": {"type": "Support", "subtype": "Not Available", "voltage": "12.0 kV", "height": "0", "pole_use": "Streetlight", "oh_ug": "Not Available", "material": "Wood", "owner": "Electric Company", "owner_id": "Not Available", "install_da": "Not Available", "other": "Not Available", "source_dat": "Not Available", "load_date": "2021-04-24"}}, {"type": "Feature", "geometry": {"type": "Point", "coordinates": [-121.89966507603214, 37.44670763388329]}, "properties": {"type": "Support", "subtype": "Not Available", "voltage": "Not Available", "height": "0", "pole_use": "Streetlight", "oh_ug": "Not Available", "material": "Wood", "owner": "Electric Company", "owner_id": "Not Available", "install_da": "Not Available", "other": "Not Available", "source_dat": "Not Available", "load_date": "2021-04-24"}}, {"type": "Feature", "geometry": {"type": "Point", "coordinates": [-121.90035505583222, 37.447169787273225]}, "properties": {"type": "Support", "subtype": "Not Available", "voltage": "12.0 kV", "height": "0", "pole_use": "Streetlight", "oh_ug": "Not Available", "material": "Wood", "owner": "Electric Company", "owner_id": "Not Available", "install_da": "Not Available", "other": "Not Available", "source_dat": "Not Available", "load_date": "2021-04-24"}}, {"type": "Feature", "geometry": {"type": "Point", "coordinates": [-121.9011563764219, 37.44708881786841]}, "properties": {"type": "Support", "subtype": "Not Available", "voltage": "Secondary", "height": "0", "pole_use": "Streetlight", "oh_ug": "Not Available", "material": "Wood", "owner": "Electric Company", "owner_id": "Not Available", "install_da": "Not Available", "other": "Not Available", "source_dat": "Not Available", "load_date": "2021-04-24"}}, {"type": "Feature", "geometry": {"type": "Point", "coordinates": [-121.89986146841449, 37.44640444987818]}, "properties": {"type": "Support", "subtype": "Not Available", "voltage": "12.0 kV", "height": "0", "pole_use": "Streetlight", "oh_ug": "Not Available", "material": "Wood", "owner": "Electric Company", "owner_id": "Not Available", "install_da": "Not Available", "other": "Not Available", "source_dat": "Not Available", "load_date": "2021-04-24"}}, {"type": "Feature", "geometry": {"type": "Point", "coordinates": [-121.89986207208239, 37.446696416120545]}, "properties": {"type": "Support", "subtype": "Not Available", "voltage": "Not Available", "height": "0", "pole_use": "Streetlight", "oh_ug": "Not Available", "material": "Wood", "owner": "Electric Company", "owner_id": "Not Available", "install_da": "Not Available", "other": "Not Available", "source_dat": "Not Available", "load_date": "2021-04-24"}}, {"type": "Feature", "geometry": {"type": "Point", "coordinates": [-121.90114974955004, 37.44633144102289]}, "properties": {"type": "Support", "subtype": "Not Available", "voltage": "12.0 kV", "height": "0", "pole_use": "Streetlight", "oh_ug": "Not Available", "material": "Wood", "owner": "Electric Company", "owner_id": "Not Available", "install_da": "Not Available", "other": "Not Available", "source_dat": "Not Available", "load_date": "2021-04-24"}}, {"type": "Feature", "geometry": {"type": "Point", "coordinates": [-121.899619924011, 37.446419138079634]}, "properties": {"type": "Support", "subtype": "Not Available", "voltage": "12.0 kV", "height": "0", "pole_use": "Streetlight", "oh_ug": "Not Available", "material": "Wood", "owner": "Electric Company", "owner_id": "Not Available", "install_da": "Not Available", "other": "Not Available", "source_dat": "Not Available", "load_date": "2021-04-24"}}, {"type": "Feature", "geometry": {"type": "Point", "coordinates": [-121.89939411359973, 37.44643042934279]}, "properties": {"type": "Support", "subtype": "Not Available", "voltage": "12.0 kV", "height": "0", "pole_use": "Streetlight", "oh_ug": "Not Available", "material": "Wood", "owner": "Electric Company", "owner_id": "Not Available", "install_da": "Not Available", "other": "Not Available", "source_dat": "Not Available", "load_date": "2021-04-24"}}, {"type": "Feature", "geometry": {"type": "Point", "coordinates": [-121.90056705464603, 37.44663904068599]}, "properties": {"type": "Support", "subtype": "Not Available", "voltage": "Not Available", "height": "0", "pole_use": "Streetlight", "oh_ug": "Not Available", "material": "Wood", "owner": "Electric Company", "owner_id": "Not Available", "install_da": "Not Available", "other": "Not Available", "source_dat": "Not Available", "load_date": "2021-04-24"}}, {"type": "Feature", "geometry": {"type": "Point", "coordinates": [-121.89923232522041, 37.447186544274714]}, "properties": {"type": "Support", "subtype": "Not Available", "voltage": "12.0 kV", "height": "0", "pole_use": "Streetlight", "oh_ug": "Not Available", "material": "Wood", "owner": "Electric Company", "owner_id": "Not Available", "install_da": "Not Available", "other": "Not Available", "source_dat": "Not Available", "load_date": "2021-04-24"}}, {"type": "Feature", "geometry": {"type": "Point", "coordinates": [-121.90079922602784, 37.44635125709778]}, "properties": {"type": "Support", "subtype": "Not Available", "voltage": "12.0 kV", "height": "0", "pole_use": "Streetlight", "oh_ug": "Not Available", "material": "Wood", "owner": "Electric Company", "owner_id": "Not Available", "install_da": "Not Available", "other": "Not Available", "source_dat": "Not Available", "load_date": "2021-04-24"}}, {"type": "Feature", "geometry": {"type": "Point", "coordinates": [-121.89996363560839, 37.4472575710689]}, "properties": {"type": "Support", "subtype": "Not Available", "voltage": "12.0 kV", "height": "0", "pole_use": "Streetlight", "oh_ug": "Not Available", "material": "Wood", "owner": "Electric Company", "owner_id": "Not Available", "install_da": "Not Available", "other": "Not Available", "source_dat": "Not Available", "load_date": "2021-04-24"}}, {"type": "Feature", "geometry": {"type": "Point", "coordinates": [-121.9002443654229, 37.44707571378514]}, "properties": {"type": "Support", "subtype": "Not Available", "voltage": "Secondary", "height": "0", "pole_use": "Streetlight", "oh_ug": "Not Available", "material": "Wood", "owner": "Electric Company", "owner_id": "Not Available", "install_da": "Not Available", "other": "Not Available", "source_dat": "Not Available", "load_date": "2021-04-24"}}, {"type": "Feature", "geometry": {"type": "Point", "coordinates": [-121.90156558688159, 37.44630823727342]}, "properties": {"type": "Support", "subtype": "Not Available", "voltage": "12.0 kV", "height": "0", "pole_use": "Streetlight", "oh_ug": "Not Available", "material": "Wood", "owner": "Electric Company", "owner_id": "Not Available", "install_da": "Not Available", "other": "Not Available", "source_dat": "Not Available", "load_date": "2021-04-24"}}, {"type": "Feature", "geometry": {"type": "Point", "coordinates": [-121.89973416635895, 37.44692959818041]}, "properties": {"type": "Support", "subtype": "Not Available", "voltage": "12.0 kV", "height": "0", "pole_use": "Streetlight", "oh_ug": "Not Available", "material": "Wood", "owner": "Electric Company", "owner_id": "Not Available", "install_da": "Not Available", "other": "Not Available", "source_dat": "Not Available", "load_date": "2021-04-24"}}, {"type": "Feature", "geometry": {"type": "Point", "coordinates": [-121.90124606242321, 37.44661365823439]}, "properties": {"type": "Support", "subtype": "Not Available", "voltage": "Not Available", "height": "0", "pole_use": "Streetlight", "oh_ug": "Not Available", "material": "Wood", "owner": "Electric Company", "owner_id": "Not Available", "install_da": "Not Available", "other": "Not Available", "source_dat": "Not Available", "load_date": "2021-04-24"}}, {"type": "Feature", "geometry": {"type": "Point", "coordinates": [-121.90086356965669, 37.4469600997839]}, "properties": {"type": "Support", "subtype": "Not Available", "voltage": "Secondary", "height": "0", "pole_use": "Streetlight", "oh_ug": "Not Available", "material": "Wood", "owner": "Electric Company", "owner_id": "Not Available", "install_da": "Not Available", "other": "Not Available", "source_dat": "Not Available", "load_date": "2021-04-24"}}, {"type": "Feature", "geometry": {"type": "Point", "coordinates": [-121.89973416635895, 37.44692959818041]}, "properties": {"type": "Street Light", "subtype": "Not Available", "voltage": "Not Available", "height": "Not Available", "pole_use": "Streetlight Only", "oh_ug": "Not Available", "material": "Steel Pole", "owner": "Electric Company", "owner_id": "M1094", "install_da": "Not Available", "other": "Not Available", "source_dat": "Not Available", "load_date": "2021-04-24"}}, {"type": "Feature", "geometry": {"type": "Point", "coordinates": [-121.90035505583222, 37.447169787273225]}, "properties": {"type": "Street Light", "subtype": "Not Available", "voltage": "Not Available", "height": "Not Available", "pole_use": "Streetlight Only", "oh_ug": "Not Available", "material": "Galvanized Pole", "owner": "Electric Company", "owner_id": "01", "install_da": "Not Available", "other": "Not Available", "source_dat": "Not Available", "load_date": "2021-04-24"}}, {"type": "Feature", "geometry": {"type": "Point", "coordinates": [-121.90033065309753, 37.4463639141359]}, "properties": {"type": "Street Light", "subtype": "Not Available", "voltage": "Not Available", "height": "Not Available", "pole_use": "Streetlight Only", "oh_ug": "Not Available", "material": "Galvanized Pole", "owner": "Electric Company", "owner_id": "M3229", "install_da": "Not Available", "other": "Not Available", "source_dat": "Not Available", "load_date": "2021-04-24"}}, {"type": "Feature", "geometry": {"type": "Point", "coordinates": [-121.89996363560839, 37.4472575710689]}, "properties": {"type": "Street Light", "subtype": "Not Available", "voltage": "Not Available", "height": "Not Available", "pole_use": "Streetlight Only", "oh_ug": "Not Available", "material": "Galvanized Pole", "owner": "Electric Company", "owner_id": "M3535", "install_da": "Not Available", "other": "Not Available", "source_dat": "Not Available", "load_date": "2021-04-24"}}, {"type": "Feature", "geometry": {"type": "Point", "coordinates": [-121.90124606242321, 37.44661365823439]}, "properties": {"type": "Street Light", "subtype": "Not Available", "voltage": "Not Available", "height": "Not Available", "pole_use": "Streetlight Only", "oh_ug": "Not Available", "material": "Galvanized Pole", "owner": "Electric Company", "owner_id": "M4509", "install_da": "Not Available", "other": "Not Available", "source_dat": "Not Available", "load_date": "2021-04-24"}}, {"type": "Feature", "geometry": {"type": "Point", "coordinates": [-121.9004833532211, 37.44668448088697]}, "properties": {"type": "Street Light", "subtype": "Not Available", "voltage": "Not Available", "height": "Not Available", "pole_use": "Streetlight Only", "oh_ug": "Not Available", "material": "Galvanized Pole", "owner": "Electric Company", "owner_id": "M3232", "install_da": "Not Available", "other": "Not Available", "source_dat": "Not Available", "load_date": "2021-04-24"}}, {"type": "Feature", "geometry": {"type": "Point", "coordinates": [-121.9011563764219, 37.44708881786841]}, "properties": {"type": "Street Light", "subtype": "Not Available", "voltage": "Not Available", "height": "Not Available", "pole_use": "Streetlight Only", "oh_ug": "Not Available", "material": "Galvanized Pole", "owner": "Electric Company", "owner_id": "3", "install_da": "Not Available", "other": "Not Available", "source_dat": "Not Available", "load_date": "2021-04-24"}}, {"type": "Feature", "geometry": {"type": "Point", "coordinates": [-121.89986207208239, 37.446696416120545]}, "properties": {"type": "Street Light", "subtype": "Not Available", "voltage": "Not Available", "height": "Not Available", "pole_use": "Streetlight Only", "oh_ug": "Not Available", "material": "Galvanized Pole", "owner": "Electric Company", "owner_id": "M3231", "install_da": "Not Available", "other": "Not Available", "source_dat": "Not Available", "load_date": "2021-04-24"}}, {"type": "Feature", "geometry": {"type": "Point", "coordinates": [-121.89939411359973, 37.44643042934279]}, "properties": {"type": "Street Light", "subtype": "Not Available", "voltage": "Not Available", "height": "Not Available", "pole_use": "Streetlight Only", "oh_ug": "Not Available", "material": "Steel Pole", "owner": "Electric Company", "owner_id": "M1594", "install_da": "Not Available", "other": "Not Available", "source_dat": "Not Available", "load_date": "2021-04-24"}}, {"type": "Feature", "geometry": {"type": "Point", "coordinates": [-121.9002443654229, 37.44707571378514]}, "properties": {"type": "Street Light", "subtype": "Not Available", "voltage": "Not Available", "height": "Not Available", "pole_use": "Streetlight Only", "oh_ug": "Not Available", "material": "Galvanized Pole", "owner": "Electric Company", "owner_id": "M4511", "install_da": "Not Available", "other": "Not Available", "source_dat": "Not Available", "load_date": "2021-04-24"}}, {"type": "Feature", "geometry": {"type": "Point", "coordinates": [-121.899619924011, 37.446419138079634]}, "properties": {"type": "Street Light", "subtype": "Not Available", "voltage": "Not Available", "height": "Not Available", "pole_use": "Streetlight Only", "oh_ug": "Not Available", "material": "Galvanized Pole", "owner": "Electric Company", "owner_id": "M1593", "install_da": "Not Available", "other": "Not Available", "source_dat": "Not Available", "load_date": "2021-04-24"}}, {"type": "Feature", "geometry": {"type": "Point", "coordinates": [-121.90086356965669, 37.4469600997839]}, "properties": {"type": "Street Light", "subtype": "Not Available", "voltage": "Not Available", "height": "Not Available", "pole_use": "Streetlight Only", "oh_ug": "Not Available", "material": "Galvanized Pole", "owner": "Electric Company", "owner_id": "02", "install_da": "Not Available", "other": "Not Available", "source_dat": "Not Available", "load_date": "2021-04-24"}}, {"type": "Feature", "geometry": {"type": "Point", "coordinates": [-121.89966507603214, 37.44670763388329]}, "properties": {"type": "Street Light", "subtype": "Not Available", "voltage": "Not Available", "height": "Not Available", "pole_use": "Streetlight Only", "oh_ug": "Not Available", "material": "Steel Pole", "owner": "Electric Company", "owner_id": "M3536", "install_da": "Not Available", "other": "Not Available", "source_dat": "Not Available", "load_date": "2021-04-24"}}, {"type": "Feature", "geometry": {"type": "Point", "coordinates": [-121.90156558688159, 37.44630823727342]}, "properties": {"type": "Street Light", "subtype": "Not Available", "voltage": "Not Available", "height": "Not Available", "pole_use": "Streetlight Only", "oh_ug": "Not Available", "material": "Steel Pole", "owner": "Electric Company", "owner_id": "M1442", "install_da": "Not Available", "other": "Not Available", "source_dat": "Not Available", "load_date": "2021-04-24"}}, {"type": "Feature", "geometry": {"type": "Point", "coordinates": [-121.89986146841449, 37.44640444987818]}, "properties": {"type": "Street Light", "subtype": "Not Available", "voltage": "Not Available", "height": "Not Available", "pole_use": "Streetlight Only", "oh_ug": "Not Available", "material": "Galvanized Pole", "owner": "Electric Company", "owner_id": "M3230", "install_da": "Not Available", "other": "Not Available", "source_dat": "Not Available", "load_date": "2021-04-24"}}, {"type": "Feature", "geometry": {"type": "Point", "coordinates": [-121.90114974955004, 37.44633144102289]}, "properties": {"type": "Street Light", "subtype": "Not Available", "voltage": "Not Available", "height": "Not Available", "pole_use": "Streetlight Only", "oh_ug": "Not Available", "material": "Steel Pole", "owner": "Electric Company", "owner_id": "M1443", "install_da": "Not Available", "other": "Not Available", "source_dat": "Not Available", "load_date": "2021-04-24"}}, {"type": "Feature", "geometry": {"type": "Point", "coordinates": [-121.90079922602784, 37.44635125709778]}, "properties": {"type": "Street Light", "subtype": "Not Available", "voltage": "Not Available", "height": "Not Available", "pole_use": "Streetlight Only", "oh_ug": "Not Available", "material": "Steel Pole", "owner": "Electric Company", "owner_id": "M1444", "install_da": "Not Available", "other": "Not Available", "source_dat": "Not Available", "load_date": "2021-04-24"}}, {"type": "Feature", "geometry": {"type": "Point", "coordinates": [-121.89923232522041, 37.447186544274714]}, "properties": {"type": "Street Light", "subtype": "Not Available", "voltage": "Not Available", "height": "Not Available", "pole_use": "Streetlight Only", "oh_ug": "Not Available", "material": "Steel Pole", "owner": "Electric Company", "owner_id": "M1093", "install_da": "Not Available", "other": "Not Available", "source_dat": "Not Available", "load_date": "2021-04-24"}}, {"type": "Feature", "geometry": {"type": "Point", "coordinates": [-121.90056705464603, 37.44663904068599]}, "properties": {"type": "Street Light", "subtype": "Not Available", "voltage": "Not Available", "height": "Not Available", "pole_use": "Streetlight Only", "oh_ug": "Not Available", "material": "Galvanized Pole", "owner": "Electric Company", "owner_id": "M4510", "install_da": "Not Available", "other": "Not Available", "source_dat": "Not Available", "load_date": "2021-04-24"}}, {"type": "Feature", "geometry": {"type": "Point", "coordinates": [-121.89267723954019, 37.447758063754755]}, "properties": {"type": "Padmount", "subtype": "Not Available", "voltage": "Not Available", "height": "Not Available", "pole_use": "Not Available", "oh_ug": "Not Available", "material": "Not Available", "owner": "Electric Company", "owner_id": "Not Available", "install_da": "Not Available", "other": "Not Available", "source_dat": "Not Available", "load_date": "2021-04-24"}}, {"type": "Feature", "geometry": {"type": "Point", "coordinates": [-121.8976618697794, 37.44738337314821]}, "properties": {"type": "Subsurface", "subtype": "Not Available", "voltage": "Not Available", "height": "Not Available", "pole_use": "Not Available", "oh_ug": "Not Available", "material": "Unknown", "owner": "Electric Company", "owner_id": "Not Available", "install_da": "Not Available", "other": "Not Available", "source_dat": "Not Available", "load_date": "2021-04-24"}}, {"type": "Feature", "geometry": {"type": "Point", "coordinates": [-121.89916864275159, 37.44644296227202]}, "properties": {"type": "Subsurface", "subtype": "Not Available", "voltage": "Not Available", "height": "Not Available", "pole_use": "Not Available", "oh_ug": "Not Available", "material": "Unknown", "owner": "Electric Company", "owner_id": "Not Available", "install_da": "Not Available", "other": "Not Available", "source_dat": "Not Available", "load_date": "2021-04-24"}}, {"type": "Feature", "geometry": {"type": "Point", "coordinates": [-121.8971834935344, 37.44729926881717]}, "properties": {"type": "Subsurface", "subtype": "Not Available", "voltage": "Not Available", "height": "Not Available", "pole_use": "Not Available", "oh_ug": "Not Available", "material": "Unknown", "owner": "Electric Company", "owner_id": "Not Available", "install_da": "Not Available", "other": "Not Available", "source_dat": "Not Available", "load_date": "2021-04-24"}}, {"type": "Feature", "geometry": {"type": "Point", "coordinates": [-121.896575134661, 37.44704367174587]}, "properties": {"type": "Subsurface", "subtype": "Not Available", "voltage": "Not Available", "height": "Not Available", "pole_use": "Not Available", "oh_ug": "Not Available", "material": "Unknown", "owner": "Electric Company", "owner_id": "Not Available", "install_da": "Not Available", "other": "Not Available", "source_dat": "Not Available", "load_date": "2021-04-24"}}, {"type": "Feature", "geometry": {"type": "Point", "coordinates": [-121.89608560313683, 37.44763263387275]}, "properties": {"type": "Subsurface", "subtype": "Not Available", "voltage": "Not Available", "height": "Not Available", "pole_use": "Not Available", "oh_ug": "Not Available", "material": "Unknown", "owner": "Electric Company", "owner_id": "Not Available", "install_da": "Not Available", "other": "Not Available", "source_dat": "Not Available", "load_date": "2021-04-24"}}, {"type": "Feature", "geometry": {"type": "Point", "coordinates": [-121.89685314797009, 37.44751101573905]}, "properties": {"type": "Subsurface", "subtype": "Not Available", "voltage": "Not Available", "height": "Not Available", "pole_use": "Not Available", "oh_ug": "Not Available", "material": "Unknown", "owner": "Electric Company", "owner_id": "Not Available", "install_da": "Not Available", "other": "Not Available", "source_dat": "Not Available", "load_date": "2021-04-24"}}, {"type": "Feature", "geometry": {"type": "Point", "coordinates": [-121.89883904548395, 37.44703816665852]}, "properties": {"type": "Subsurface", "subtype": "Not Available", "voltage": "Not Available", "height": "Not Available", "pole_use": "Not Available", "oh_ug": "Not Available", "material": "Unknown", "owner": "Electric Company", "owner_id": "Not Available", "install_da": "Not Available", "other": "Not Available", "source_dat": "Not Available", "load_date": "2021-04-24"}}, {"type": "Feature", "geometry": {"type": "Point", "coordinates": [-121.89846538854655, 37.44709704732279]}, "properties": {"type": "Subsurface", "subtype": "Not Available", "voltage": "Not Available", "height": "Not Available", "pole_use": "Not Available", "oh_ug": "Not Available", "material": "Unknown", "owner": "Electric Company", "owner_id": "Not Available", "install_da": "Not Available", "other": "Not Available", "source_dat": "Not Available", "load_date": "2021-04-24"}}, {"type": "Feature", "geometry": {"type": "Point", "coordinates": [-121.89564046904891, 37.44754248917227]}, "properties": {"type": "Subsurface", "subtype": "Not Available", "voltage": "Not Available", "height": "Not Available", "pole_use": "Not Available", "oh_ug": "Not Available", "material": "Unknown", "owner": "Electric Company", "owner_id": "Not Available", "install_da": "Not Available", "other": "Not Available", "source_dat": "Not Available", "load_date": "2021-04-24"}}, {"type": "Feature", "geometry": {"type": "Point", "coordinates": [-121.89299075786255, 37.44670577388438]}, "properties": {"type": "Subsurface", "subtype": "Not Available", "voltage": "Not Available", "height": "Not Available", "pole_use": "Not Available", "oh_ug": "Not Available", "material": "Unknown", "owner": "Electric Company", "owner_id": "Not Available", "install_da": "Not Available", "other": "Not Available", "source_dat": "Not Available", "load_date": "2021-04-24"}}, {"type": "Feature", "geometry": {"type": "Point", "coordinates": [-121.89334251566997, 37.44680580581742]}, "properties": {"type": "Subsurface", "subtype": "Not Available", "voltage": "Not Available", "height": "Not Available", "pole_use": "Not Available", "oh_ug": "Not Available", "material": "Unknown", "owner": "Electric Company", "owner_id": "Not Available", "install_da": "Not Available", "other": "Not Available", "source_dat": "Not Available", "load_date": "2021-04-24"}}, {"type": "Feature", "geometry": {"type": "Point", "coordinates": [-121.8932724174334, 37.44681780521861]}, "properties": {"type": "Subsurface", "subtype": "Not Available", "voltage": "Not Available", "height": "Not Available", "pole_use": "Not Available", "oh_ug": "Not Available", "material": "Unknown", "owner": "Electric Company", "owner_id": "Not Available", "install_da": "Not Available", "other": "Not Available", "source_dat": "Not Available", "load_date": "2021-04-24"}}, {"type": "Feature", "geometry": {"type": "Point", "coordinates": [-121.89312599563533, 37.44806849670901]}, "properties": {"type": "Subsurface", "subtype": "Not Available", "voltage": "Not Available", "height": "Not Available", "pole_use": "Not Available", "oh_ug": "Not Available", "material": "Unknown", "owner": "Electric Company", "owner_id": "Not Available", "install_da": "Not Available", "other": "Not Available", "source_dat": "Not Available", "load_date": "2021-04-24"}}, {"type": "Feature", "geometry": {"type": "Point", "coordinates": [-121.89533617283124, 37.44670093417832]}, "properties": {"type": "Subsurface", "subtype": "Not Available", "voltage": "Not Available", "height": "Not Available", "pole_use": "Not Available", "oh_ug": "Not Available", "material": "Unknown", "owner": "Electric Company", "owner_id": "Not Available", "install_da": "Not Available", "other": "Not Available", "source_dat": "Not Available", "load_date": "2021-04-24"}}, {"type": "Feature", "geometry": {"type": "Point", "coordinates": [-121.89306651279048, 37.44676334325524]}, "properties": {"type": "Subsurface", "subtype": "Not Available", "voltage": "Not Available", "height": "Not Available", "pole_use": "Not Available", "oh_ug": "Not Available", "material": "Unknown", "owner": "Electric Company", "owner_id": "Not Available", "install_da": "Not Available", "other": "Not Available", "source_dat": "Not Available", "load_date": "2021-04-24"}}, {"type": "Feature", "geometry": {"type": "Point", "coordinates": [-121.89725855496292, 37.44744700476426]}, "properties": {"type": "Subsurface", "subtype": "Not Available", "voltage": "Not Available", "height": "Not Available", "pole_use": "Not Available", "oh_ug": "Not Available", "material": "Unknown", "owner": "Electric Company", "owner_id": "Not Available", "install_da": "Not Available", "other": "Not Available", "source_dat": "Not Available", "load_date": "2021-04-24"}}, {"type": "Feature", "geometry": {"type": "Point", "coordinates": [-121.89318208554337, 37.446822908796904]}, "properties": {"type": "Subsurface", "subtype": "Not Available", "voltage": "Not Available", "height": "Not Available", "pole_use": "Not Available", "oh_ug": "Not Available", "material": "Unknown", "owner": "Electric Company", "owner_id": "Not Available", "install_da": "Not Available", "other": "Not Available", "source_dat": "Not Available", "load_date": "2021-04-24"}}, {"type": "Feature", "geometry": {"type": "Point", "coordinates": [-121.8977118744997, 37.44650741699793]}, "properties": {"type": "Subsurface", "subtype": "Not Available", "voltage": "Not Available", "height": "Not Available", "pole_use": "Not Available", "oh_ug": "Not Available", "material": "Unknown", "owner": "Electric Company", "owner_id": "Not Available", "install_da": "Not Available", "other": "Not Available", "source_dat": "Not Available", "load_date": "2021-04-24"}}, {"type": "Feature", "geometry": {"type": "Point", "coordinates": [-121.89786885868887, 37.44700642913396]}, "properties": {"type": "Subsurface", "subtype": "Not Available", "voltage": "Not Available", "height": "Not Available", "pole_use": "Not Available", "oh_ug": "Not Available", "material": "Unknown", "owner": "Electric Company", "owner_id": "Not Available", "install_da": "Not Available", "other": "Not Available", "source_dat": "Not Available", "load_date": "2021-04-24"}}, {"type": "Feature", "geometry": {"type": "Point", "coordinates": [-121.89908923796868, 37.44715844905139]}, "properties": {"type": "Subsurface", "subtype": "Not Available", "voltage": "Not Available", "height": "Not Available", "pole_use": "Not Available", "oh_ug": "Not Available", "material": "Unknown", "owner": "Electric Company", "owner_id": "Not Available", "install_da": "Not Available", "other": "Not Available", "source_dat": "Not Available", "load_date": "2021-04-24"}}, {"type": "Feature", "geometry": {"type": "Point", "coordinates": [-121.89806930157484, 37.44731911672892]}, "properties": {"type": "Subsurface", "subtype": "Not Available", "voltage": "Not Available", "height": "Not Available", "pole_use": "Not Available", "oh_ug": "Not Available", "material": "Unknown", "owner": "Electric Company", "owner_id": "Not Available", "install_da": "Not Available", "other": "Not Available", "source_dat": "Not Available", "load_date": "2021-04-24"}}, {"type": "Feature", "geometry": {"type": "Point", "coordinates": [-121.89574990810502, 37.44668967504955]}, "properties": {"type": "Subsurface", "subtype": "Not Available", "voltage": "Not Available", "height": "Not Available", "pole_use": "Not Available", "oh_ug": "Not Available", "material": "Unknown", "owner": "Electric Company", "owner_id": "Not Available", "install_da": "Not Available", "other": "Not Available", "source_dat": "Not Available", "load_date": "2021-04-24"}}, {"type": "Feature", "geometry": {"type": "Point", "coordinates": [-121.89278705139714, 37.4481493709143]}, "properties": {"type": "Subsurface", "subtype": "Not Available", "voltage": "Not Available", "height": "Not Available", "pole_use": "Not Available", "oh_ug": "Not Available", "material": "Unknown", "owner": "Electric Company", "owner_id": "Not Available", "install_da": "Not Available", "other": "Not Available", "source_dat": "Not Available", "load_date": "2021-04-24"}}, {"type": "Feature", "geometry": {"type": "Point", "coordinates": [-121.89491474708029, 37.44781813486166]}, "properties": {"type": "Subsurface", "subtype": "Not Available", "voltage": "Not Available", "height": "Not Available", "pole_use": "Not Available", "oh_ug": "Not Available", "material": "Unknown", "owner": "Electric Company", "owner_id": "Not Available", "install_da": "Not Available", "other": "Not Available", "source_dat": "Not Available", "load_date": "2021-04-24"}}, {"type": "Feature", "geometry": {"type": "Point", "coordinates": [-121.8953216659377, 37.44775366272234]}, "properties": {"type": "Subsurface", "subtype": "Not Available", "voltage": "Not Available", "height": "Not Available", "pole_use": "Not Available", "oh_ug": "Not Available", "material": "Unknown", "owner": "Electric Company", "owner_id": "Not Available", "install_da": "Not Available", "other": "Not Available", "source_dat": "Not Available", "load_date": "2021-04-24"}}, {"type": "Feature", "geometry": {"type": "Point", "coordinates": [-121.89572641805864, 37.44768953214083]}, "properties": {"type": "Subsurface", "subtype": "Not Available", "voltage": "Not Available", "height": "Not Available", "pole_use": "Not Available", "oh_ug": "Not Available", "material": "Unknown", "owner": "Electric Company", "owner_id": "Not Available", "install_da": "Not Available", "other": "Not Available", "source_dat": "Not Available", "load_date": "2021-04-24"}}, {"type": "Feature", "geometry": {"type": "Point", "coordinates": [-121.8941128497722, 37.44748744435331]}, "properties": {"type": "Subsurface", "subtype": "Not Available", "voltage": "Not Available", "height": "Not Available", "pole_use": "Not Available", "oh_ug": "Not Available", "material": "Unknown", "owner": "Electric Company", "owner_id": "Not Available", "install_da": "Not Available", "other": "Not Available", "source_dat": "Not Available", "load_date": "2021-04-24"}}, {"type": "Feature", "geometry": {"type": "Point", "coordinates": [-121.89517677756385, 37.44714068573868]}, "properties": {"type": "Subsurface", "subtype": "Not Available", "voltage": "Not Available", "height": "Not Available", "pole_use": "Not Available", "oh_ug": "Not Available", "material": "Unknown", "owner": "Electric Company", "owner_id": "Not Available", "install_da": "Not Available", "other": "Not Available", "source_dat": "Not Available", "load_date": "2021-04-24"}}, {"type": "Feature", "geometry": {"type": "Point", "coordinates": [-121.89480331735749, 37.44748766116073]}, "properties": {"type": "Subsurface", "subtype": "Not Available", "voltage": "Not Available", "height": "Not Available", "pole_use": "Not Available", "oh_ug": "Not Available", "material": "Unknown", "owner": "Electric Company", "owner_id": "Not Available", "install_da": "Not Available", "other": "Not Available", "source_dat": "Not Available", "load_date": "2021-04-24"}}, {"type": "Feature", "geometry": {"type": "Point", "coordinates": [-121.89415895939742, 37.44785282674192]}, "properties": {"type": "Subsurface", "subtype": "Not Available", "voltage": "Not Available", "height": "Not Available", "pole_use": "Not Available", "oh_ug": "Not Available", "material": "Unknown", "owner": "Electric Company", "owner_id": "Not Available", "install_da": "Not Available", "other": "Not Available", "source_dat": "Not Available", "load_date": "2021-04-24"}}, {"type": "Feature", "geometry": {"type": "Point", "coordinates": [-121.89300823548474, 37.44814153881475]}, "properties": {"type": "Subsurface", "subtype": "Not Available", "voltage": "Not Available", "height": "Not Available", "pole_use": "Not Available", "oh_ug": "Not Available", "material": "Unknown", "owner": "Electric Company", "owner_id": "Not Available", "install_da": "Not Available", "other": "Not Available", "source_dat": "Not Available", "load_date": "2021-04-24"}}, {"type": "Feature", "geometry": {"type": "Point", "coordinates": [-121.8941435640701, 37.44718583964776]}, "properties": {"type": "Subsurface", "subtype": "Not Available", "voltage": "Not Available", "height": "Not Available", "pole_use": "Not Available", "oh_ug": "Not Available", "material": "Unknown", "owner": "Electric Company", "owner_id": "Not Available", "install_da": "Not Available", "other": "Not Available", "source_dat": "Not Available", "load_date": "2021-04-24"}}, {"type": "Feature", "geometry": {"type": "Point", "coordinates": [-121.89481465140145, 37.44714203365957]}, "properties": {"type": "Subsurface", "subtype": "Not Available", "voltage": "Not Available", "height": "Not Available", "pole_use": "Not Available", "oh_ug": "Not Available", "material": "Unknown", "owner": "Electric Company", "owner_id": "Not Available", "install_da": "Not Available", "other": "Not Available", "source_dat": "Not Available", "load_date": "2021-04-24"}}, {"type": "Feature", "geometry": {"type": "Point", "coordinates": [-121.89305827973088, 37.447501590323625]}, "properties": {"type": "Subsurface", "subtype": "Not Available", "voltage": "Not Available", "height": "Not Available", "pole_use": "Not Available", "oh_ug": "Not Available", "material": "Unknown", "owner": "Electric Company", "owner_id": "Not Available", "install_da": "Not Available", "other": "Not Available", "source_dat": "Not Available", "load_date": "2021-04-24"}}, {"type": "Feature", "geometry": {"type": "Point", "coordinates": [-121.8930972585294, 37.4479599989044]}, "properties": {"type": "Subsurface", "subtype": "Not Available", "voltage": "Not Available", "height": "Not Available", "pole_use": "Not Available", "oh_ug": "Not Available", "material": "Unknown", "owner": "Electric Company", "owner_id": "Not Available", "install_da": "Not Available", "other": "Not Available", "source_dat": "Not Available", "load_date": "2021-04-24"}}, {"type": "Feature", "geometry": {"type": "Point", "coordinates": [-121.89326952755312, 37.44795191788592]}, "properties": {"type": "Subsurface", "subtype": "Not Available", "voltage": "Not Available", "height": "Not Available", "pole_use": "Not Available", "oh_ug": "Not Available", "material": "Unknown", "owner": "Electric Company", "owner_id": "Not Available", "install_da": "Not Available", "other": "Not Available", "source_dat": "Not Available", "load_date": "2021-04-24"}}, {"type": "Feature", "geometry": {"type": "Point", "coordinates": [-121.89340262194563, 37.447960844020116]}, "properties": {"type": "Subsurface", "subtype": "Not Available", "voltage": "Not Available", "height": "Not Available", "pole_use": "Not Available", "oh_ug": "Not Available", "material": "Unknown", "owner": "Electric Company", "owner_id": "Not Available", "install_da": "Not Available", "other": "Not Available", "source_dat": "Not Available", "load_date": "2021-04-24"}}, {"type": "Feature", "geometry": {"type": "Point", "coordinates": [-121.89325163670591, 37.44811174017171]}, "properties": {"type": "Subsurface", "subtype": "Not Available", "voltage": "Not Available", "height": "Not Available", "pole_use": "Not Available", "oh_ug": "Not Available", "material": "Unknown", "owner": "Electric Company", "owner_id": "Not Available", "install_da": "Not Available", "other": "Not Available", "source_dat": "Not Available", "load_date": "2021-04-24"}}, {"type": "Feature", "geometry": {"type": "Point", "coordinates": [-121.89271080239584, 37.44795591096894]}, "properties": {"type": "Subsurface", "subtype": "Not Available", "voltage": "Not Available", "height": "Not Available", "pole_use": "Not Available", "oh_ug": "Not Available", "material": "Unknown", "owner": "Electric Company", "owner_id": "Not Available", "install_da": "Not Available", "other": "Not Available", "source_dat": "Not Available", "load_date": "2021-04-24"}}, {"type": "Feature", "geometry": {"type": "Point", "coordinates": [-121.89844885595207, 37.44727604183277]}, "properties": {"type": "Subsurface", "subtype": "Not Available", "voltage": "Not Available", "height": "Not Available", "pole_use": "Not Available", "oh_ug": "Not Available", "material": "Unknown", "owner": "Electric Company", "owner_id": "Not Available", "install_da": "Not Available", "other": "Not Available", "source_dat": "Not Available", "load_date": "2021-04-24"}}, {"type": "Feature", "geometry": {"type": "Point", "coordinates": [-121.89389250021954, 37.44734176316845]}, "properties": {"type": "Subsurface", "subtype": "Not Available", "voltage": "Not Available", "height": "Not Available", "pole_use": "Not Available", "oh_ug": "Not Available", "material": "Unknown", "owner": "Electric Company", "owner_id": "Not Available", "install_da": "Not Available", "other": "Not Available", "source_dat": "Not Available", "load_date": "2021-04-24"}}, {"type": "Feature", "geometry": {"type": "Point", "coordinates": [-121.89383727269419, 37.447534251921844]}, "properties": {"type": "Subsurface", "subtype": "Not Available", "voltage": "Not Available", "height": "Not Available", "pole_use": "Not Available", "oh_ug": "Not Available", "material": "Unknown", "owner": "Electric Company", "owner_id": "Not Available", "install_da": "Not Available", "other": "Not Available", "source_dat": "Not Available", "load_date": "2021-04-24"}}, {"type": "Feature", "geometry": {"type": "Point", "coordinates": [-121.89273719220394, 37.447375153709864]}, "properties": {"type": "Subsurface", "subtype": "Not Available", "voltage": "Not Available", "height": "Not Available", "pole_use": "Not Available", "oh_ug": "Not Available", "material": "Unknown", "owner": "Electric Company", "owner_id": "Not Available", "install_da": "Not Available", "other": "Not Available", "source_dat": "Not Available", "load_date": "2021-04-24"}}, {"type": "Feature", "geometry": {"type": "Point", "coordinates": [-121.8934537953741, 37.44747926415145]}, "properties": {"type": "Subsurface", "subtype": "Not Available", "voltage": "Not Available", "height": "Not Available", "pole_use": "Not Available", "oh_ug": "Not Available", "material": "Unknown", "owner": "Electric Company", "owner_id": "Not Available", "install_da": "Not Available", "other": "Not Available", "source_dat": "Not Available", "load_date": "2021-04-24"}}, {"type": "Feature", "geometry": {"type": "Point", "coordinates": [-121.89354331878035, 37.447314506707784]}, "properties": {"type": "Subsurface", "subtype": "Not Available", "voltage": "Not Available", "height": "Not Available", "pole_use": "Not Available", "oh_ug": "Not Available", "material": "Unknown", "owner": "Electric Company", "owner_id": "Not Available", "install_da": "Not Available", "other": "Not Available", "source_dat": "Not Available", "load_date": "2021-04-24"}}, {"type": "Feature", "geometry": {"type": "Point", "coordinates": [-121.89319409691703, 37.447334234800614]}, "properties": {"type": "Subsurface", "subtype": "Not Available", "voltage": "Not Available", "height": "Not Available", "pole_use": "Not Available", "oh_ug": "Not Available", "material": "Unknown", "owner": "Electric Company", "owner_id": "Not Available", "install_da": "Not Available", "other": "Not Available", "source_dat": "Not Available", "load_date": "2021-04-24"}}, {"type": "Feature", "geometry": {"type": "Point", "coordinates": [-121.8926695697243, 37.447542290194505]}, "properties": {"type": "Subsurface", "subtype": "Not Available", "voltage": "Not Available", "height": "Not Available", "pole_use": "Not Available", "oh_ug": "Not Available", "material": "Unknown", "owner": "Electric Company", "owner_id": "Not Available", "install_da": "Not Available", "other": "Not Available", "source_dat": "Not Available", "load_date": "2021-04-24"}}, {"type": "Feature", "geometry": {"type": "Point", "coordinates": [-121.89663337064425, 37.44756264582714]}, "properties": {"type": "Subsurface", "subtype": "Not Available", "voltage": "Not Available", "height": "Not Available", "pole_use": "Not Available", "oh_ug": "Not Available", "material": "Unknown", "owner": "Electric Company", "owner_id": "Not Available", "install_da": "Not Available", "other": "Not Available", "source_dat": "Not Available", "load_date": "2021-04-24"}}, {"type": "Feature", "geometry": {"type": "Point", "coordinates": [-121.89453443542327, 37.44789518028257]}, "properties": {"type": "Subsurface", "subtype": "Not Available", "voltage": "Not Available", "height": "Not Available", "pole_use": "Not Available", "oh_ug": "Not Available", "material": "Unknown", "owner": "Electric Company", "owner_id": "Not Available", "install_da": "Not Available", "other": "Not Available", "source_dat": "Not Available", "load_date": "2021-04-24"}}, {"type": "Feature", "geometry": {"type": "Point", "coordinates": [-121.89671896212452, 37.44720323922539]}, "properties": {"type": "Subsurface", "subtype": "Not Available", "voltage": "Not Available", "height": "Not Available", "pole_use": "Not Available", "oh_ug": "Not Available", "material": "Unknown", "owner": "Electric Company", "owner_id": "Not Available", "install_da": "Not Available", "other": "Not Available", "source_dat": "Not Available", "load_date": "2021-04-24"}}, {"type": "Feature", "geometry": {"type": "Point", "coordinates": [-121.89192268793914, 37.44683765682405]}, "properties": {"type": "Support", "subtype": "Not Available", "voltage": "Not Available", "height": "0", "pole_use": "Streetlight", "oh_ug": "Not Available", "material": "Steel", "owner": "Electric Company", "owner_id": "Not Available", "install_da": "Not Available", "other": "Not Available", "source_dat": "Not Available", "load_date": "2021-04-24"}}, {"type": "Feature", "geometry": {"type": "Point", "coordinates": [-121.89787444171833, 37.44708091576555]}, "properties": {"type": "Support", "subtype": "Not Available", "voltage": "Secondary", "height": "0", "pole_use": "Streetlight", "oh_ug": "Not Available", "material": "Wood", "owner": "Electric Company", "owner_id": "Not Available", "install_da": "Not Available", "other": "Not Available", "source_dat": "Not Available", "load_date": "2021-04-24"}}, {"type": "Feature", "geometry": {"type": "Point", "coordinates": [-121.89744181756906, 37.44725851603842]}, "properties": {"type": "Support", "subtype": "Not Available", "voltage": "Not Available", "height": "0", "pole_use": "Streetlight", "oh_ug": "Not Available", "material": "Wood", "owner": "Electric Company", "owner_id": "Not Available", "install_da": "Not Available", "other": "Not Available", "source_dat": "Not Available", "load_date": "2021-04-24"}}, {"type": "Feature", "geometry": {"type": "Point", "coordinates": [-121.89778421672784, 37.44736406085431]}, "properties": {"type": "Support", "subtype": "Not Available", "voltage": "12.0 kV", "height": "0", "pole_use": "Streetlight", "oh_ug": "Not Available", "material": "Wood", "owner": "Electric Company", "owner_id": "Not Available", "install_da": "Not Available", "other": "Not Available", "source_dat": "Not Available", "load_date": "2021-04-24"}}, {"type": "Feature", "geometry": {"type": "Point", "coordinates": [-121.89632548296208, 37.446600994106696]}, "properties": {"type": "Support", "subtype": "Not Available", "voltage": "12.0 kV", "height": "0", "pole_use": "Streetlight", "oh_ug": "Not Available", "material": "Steel", "owner": "Electric Company", "owner_id": "Not Available", "install_da": "Not Available", "other": "Not Available", "source_dat": "Not Available", "load_date": "2021-04-24"}}, {"type": "Feature", "geometry": {"type": "Point", "coordinates": [-121.89864771690483, 37.44676713314278]}, "properties": {"type": "Support", "subtype": "Not Available", "voltage": "Not Available", "height": "0", "pole_use": "Streetlight", "oh_ug": "Not Available", "material": "Wood", "owner": "Electric Company", "owner_id": "Not Available", "install_da": "Not Available", "other": "Not Available", "source_dat": "Not Available", "load_date": "2021-04-24"}}, {"type": "Feature", "geometry": {"type": "Point", "coordinates": [-121.89896895894204, 37.446747250851516]}, "properties": {"type": "Support", "subtype": "Not Available", "voltage": "Not Available", "height": "0", "pole_use": "Streetlight", "oh_ug": "Not Available", "material": "Wood", "owner": "Electric Company", "owner_id": "Not Available", "install_da": "Not Available", "other": "Not Available", "source_dat": "Not Available", "load_date": "2021-04-24"}}, {"type": "Feature", "geometry": {"type": "Point", "coordinates": [-121.89784096869421, 37.44651675766884]}, "properties": {"type": "Support", "subtype": "Not Available", "voltage": "12.0 kV", "height": "0", "pole_use": "Streetlight", "oh_ug": "Not Available", "material": "Wood", "owner": "Electric Company", "owner_id": "Not Available", "install_da": "Not Available", "other": "Not Available", "source_dat": "Not Available", "load_date": "2021-04-24"}}, {"type": "Feature", "geometry": {"type": "Point", "coordinates": [-121.8960130219568, 37.44690874314406]}, "properties": {"type": "Support", "subtype": "Not Available", "voltage": "Not Available", "height": "0", "pole_use": "Streetlight", "oh_ug": "Not Available", "material": "Steel", "owner": "Electric Company", "owner_id": "Not Available", "install_da": "Not Available", "other": "Not Available", "source_dat": "Not Available", "load_date": "2021-04-24"}}, {"type": "Feature", "geometry": {"type": "Point", "coordinates": [-121.89271761521897, 37.44801350219947]}, "properties": {"type": "Support", "subtype": "Not Available", "voltage": "12.0 kV", "height": "0", "pole_use": "Streetlight", "oh_ug": "Not Available", "material": "Wood", "owner": "Electric Company", "owner_id": "Not Available", "install_da": "Not Available", "other": "Not Available", "source_dat": "Not Available", "load_date": "2021-04-24"}}, {"type": "Feature", "geometry": {"type": "Point", "coordinates": [-121.89263039958463, 37.447710080292026]}, "properties": {"type": "Support", "subtype": "Not Available", "voltage": "12.0 kV", "height": "0", "pole_use": "Streetlight", "oh_ug": "Not Available", "material": "Wood", "owner": "Electric Company", "owner_id": "Not Available", "install_da": "Not Available", "other": "Not Available", "source_dat": "Not Available", "load_date": "2021-04-24"}}, {"type": "Feature", "geometry": {"type": "Point", "coordinates": [-121.89642647246465, 37.446881271142864]}, "properties": {"type": "Support", "subtype": "Not Available", "voltage": "Not Available", "height": "0", "pole_use": "Streetlight", "oh_ug": "Not Available", "material": "Wood", "owner": "Electric Company", "owner_id": "Not Available", "install_da": "Not Available", "other": "Not Available", "source_dat": "Not Available", "load_date": "2021-04-24"}}, {"type": "Feature", "geometry": {"type": "Point", "coordinates": [-121.89563470455971, 37.44690243499724]}, "properties": {"type": "Support", "subtype": "Not Available", "voltage": "Not Available", "height": "0", "pole_use": "Streetlight", "oh_ug": "Not Available", "material": "Wood", "owner": "Electric Company", "owner_id": "Not Available", "install_da": "Not Available", "other": "Not Available", "source_dat": "Not Available", "load_date": "2021-04-24"}}, {"type": "Feature", "geometry": {"type": "Point", "coordinates": [-121.89539116859123, 37.44694363727811]}, "properties": {"type": "Support", "subtype": "Not Available", "voltage": "Not Available", "height": "0", "pole_use": "Streetlight", "oh_ug": "Not Available", "material": "Wood", "owner": "Electric Company", "owner_id": "Not Available", "install_da": "Not Available", "other": "Not Available", "source_dat": "Not Available", "load_date": "2021-04-24"}}, {"type": "Feature", "geometry": {"type": "Point", "coordinates": [-121.89511981718829, 37.44707057527792]}, "properties": {"type": "Support", "subtype": "Not Available", "voltage": "Not Available", "height": "0", "pole_use": "Streetlight", "oh_ug": "Not Available", "material": "Wood", "owner": "Electric Company", "owner_id": "Not Available", "install_da": "Not Available", "other": "Not Available", "source_dat": "Not Available", "load_date": "2021-04-24"}}, {"type": "Feature", "geometry": {"type": "Point", "coordinates": [-121.89560929211864, 37.446660663903394]}, "properties": {"type": "Support", "subtype": "Not Available", "voltage": "12.0 kV", "height": "0", "pole_use": "Streetlight", "oh_ug": "Not Available", "material": "Wood", "owner": "Electric Company", "owner_id": "Not Available", "install_da": "Not Available", "other": "Not Available", "source_dat": "Not Available", "load_date": "2021-04-24"}}, {"type": "Feature", "geometry": {"type": "Point", "coordinates": [-121.89584557958109, 37.44664718888615]}, "properties": {"type": "Support", "subtype": "Not Available", "voltage": "12.0 kV", "height": "0", "pole_use": "Streetlight", "oh_ug": "Not Available", "material": "Wood", "owner": "Electric Company", "owner_id": "Not Available", "install_da": "Not Available", "other": "Not Available", "source_dat": "Not Available", "load_date": "2021-04-24"}}, {"type": "Feature", "geometry": {"type": "Point", "coordinates": [-121.8934696174012, 37.44805809716421]}, "properties": {"type": "Support", "subtype": "Not Available", "voltage": "12.0 kV", "height": "0", "pole_use": "Streetlight", "oh_ug": "Not Available", "material": "Wood", "owner": "Electric Company", "owner_id": "Not Available", "install_da": "Not Available", "other": "Not Available", "source_dat": "Not Available", "load_date": "2021-04-24"}}, {"type": "Feature", "geometry": {"type": "Point", "coordinates": [-121.89355653838808, 37.44742072183674]}, "properties": {"type": "Support", "subtype": "Not Available", "voltage": "Secondary", "height": "0", "pole_use": "Streetlight", "oh_ug": "Not Available", "material": "Wood", "owner": "Electric Company", "owner_id": "Not Available", "install_da": "Not Available", "other": "Not Available", "source_dat": "Not Available", "load_date": "2021-04-24"}}, {"type": "Feature", "geometry": {"type": "Point", "coordinates": [-121.89387233483802, 37.446758728920706]}, "properties": {"type": "Support", "subtype": "Not Available", "voltage": "12.0 kV", "height": "0", "pole_use": "Streetlight", "oh_ug": "Not Available", "material": "Wood", "owner": "Electric Company", "owner_id": "Not Available", "install_da": "Not Available", "other": "Not Available", "source_dat": "Not Available", "load_date": "2021-04-24"}}, {"type": "Feature", "geometry": {"type": "Point", "coordinates": [-121.89741983938733, 37.44654017174514]}, "properties": {"type": "Support", "subtype": "Not Available", "voltage": "12.0 kV", "height": "0", "pole_use": "Streetlight", "oh_ug": "Not Available", "material": "Wood", "owner": "Electric Company", "owner_id": "Not Available", "install_da": "Not Available", "other": "Not Available", "source_dat": "Not Available", "load_date": "2021-04-24"}}, {"type": "Feature", "geometry": {"type": "Point", "coordinates": [-121.89715289062761, 37.446844810817886]}, "properties": {"type": "Support", "subtype": "Not Available", "voltage": "Not Available", "height": "0", "pole_use": "Streetlight", "oh_ug": "Not Available", "material": "Wood", "owner": "Electric Company", "owner_id": "Not Available", "install_da": "Not Available", "other": "Not Available", "source_dat": "Not Available", "load_date": "2021-04-24"}}, {"type": "Feature", "geometry": {"type": "Point", "coordinates": [-121.8981557383698, 37.446793543247544]}, "properties": {"type": "Support", "subtype": "Not Available", "voltage": "Not Available", "height": "0", "pole_use": "Streetlight", "oh_ug": "Not Available", "material": "Wood", "owner": "Electric Company", "owner_id": "Not Available", "install_da": "Not Available", "other": "Not Available", "source_dat": "Not Available", "load_date": "2021-04-24"}}, {"type": "Feature", "geometry": {"type": "Point", "coordinates": [-121.8929660694636, 37.44734382926168]}, "properties": {"type": "Support", "subtype": "Not Available", "voltage": "Secondary", "height": "0", "pole_use": "Streetlight", "oh_ug": "Not Available", "material": "Wood", "owner": "Electric Company", "owner_id": "Not Available", "install_da": "Not Available", "other": "Not Available", "source_dat": "Not Available", "load_date": "2021-04-24"}}, {"type": "Feature", "geometry": {"type": "Point", "coordinates": [-121.89384364085122, 37.44742116401018]}, "properties": {"type": "Support", "subtype": "Not Available", "voltage": "Secondary", "height": "0", "pole_use": "Streetlight", "oh_ug": "Not Available", "material": "Wood", "owner": "Electric Company", "owner_id": "Not Available", "install_da": "Not Available", "other": "Not Available", "source_dat": "Not Available", "load_date": "2021-04-24"}}, {"type": "Feature", "geometry": {"type": "Point", "coordinates": [-121.89365761592556, 37.44783050281407]}, "properties": {"type": "Support", "subtype": "Not Available", "voltage": "Not Available", "height": "0", "pole_use": "Streetlight", "oh_ug": "Not Available", "material": "Wood", "owner": "Electric Company", "owner_id": "Not Available", "install_da": "Not Available", "other": "Not Available", "source_dat": "Not Available", "load_date": "2021-04-24"}}, {"type": "Feature", "geometry": {"type": "Point", "coordinates": [-121.8941431598282, 37.447009428798125]}, "properties": {"type": "Support", "subtype": "Not Available", "voltage": "Not Available", "height": "0", "pole_use": "Streetlight", "oh_ug": "Not Available", "material": "Wood", "owner": "Electric Company", "owner_id": "Not Available", "install_da": "Not Available", "other": "Not Available", "source_dat": "Not Available", "load_date": "2021-04-24"}}, {"type": "Feature", "geometry": {"type": "Point", "coordinates": [-121.8940526761229, 37.44741670590327]}, "properties": {"type": "Support", "subtype": "Not Available", "voltage": "Secondary", "height": "0", "pole_use": "Streetlight", "oh_ug": "Not Available", "material": "Wood", "owner": "Electric Company", "owner_id": "Not Available", "install_da": "Not Available", "other": "Not Available", "source_dat": "Not Available", "load_date": "2021-04-24"}}, {"type": "Feature", "geometry": {"type": "Point", "coordinates": [-121.89527785959287, 37.446605908704214]}, "properties": {"type": "Support", "subtype": "Not Available", "voltage": "Not Available", "height": "0", "pole_use": "Streetlight", "oh_ug": "Not Available", "material": "Wood", "owner": "Electric Company", "owner_id": "Not Available", "install_da": "Not Available", "other": "Not Available", "source_dat": "Not Available", "load_date": "2021-04-24"}}, {"type": "Feature", "geometry": {"type": "Point", "coordinates": [-121.89664550149384, 37.44691057888956]}, "properties": {"type": "Support", "subtype": "Not Available", "voltage": "Secondary", "height": "0", "pole_use": "Streetlight", "oh_ug": "Not Available", "material": "Wood", "owner": "Electric Company", "owner_id": "Not Available", "install_da": "Not Available", "other": "Not Available", "source_dat": "Not Available", "load_date": "2021-04-24"}}, {"type": "Feature", "geometry": {"type": "Point", "coordinates": [-121.89831535013117, 37.44712071225889]}, "properties": {"type": "Support", "subtype": "Not Available", "voltage": "Not Available", "height": "0", "pole_use": "Streetlight", "oh_ug": "Not Available", "material": "Wood", "owner": "Electric Company", "owner_id": "Not Available", "install_da": "Not Available", "other": "Not Available", "source_dat": "Not Available", "load_date": "2021-04-24"}}, {"type": "Feature", "geometry": {"type": "Point", "coordinates": [-121.89674866312278, 37.44752757225996]}, "properties": {"type": "Support", "subtype": "Not Available", "voltage": "12.0 kV", "height": "0", "pole_use": "Streetlight", "oh_ug": "Not Available", "material": "Wood", "owner": "Electric Company", "owner_id": "Not Available", "install_da": "Not Available", "other": "Not Available", "source_dat": "Not Available", "load_date": "2021-04-24"}}, {"type": "Feature", "geometry": {"type": "Point", "coordinates": [-121.89596659792122, 37.44757000372157]}, "properties": {"type": "Support", "subtype": "Not Available", "voltage": "12.0 kV", "height": "0", "pole_use": "Streetlight", "oh_ug": "Not Available", "material": "Wood", "owner": "Electric Company", "owner_id": "Not Available", "install_da": "Not Available", "other": "Not Available", "source_dat": "Not Available", "load_date": "2021-04-24"}}, {"type": "Feature", "geometry": {"type": "Point", "coordinates": [-121.89350951607453, 37.44710931412202]}, "properties": {"type": "Support", "subtype": "Not Available", "voltage": "Not Available", "height": "0", "pole_use": "Streetlight", "oh_ug": "Not Available", "material": "Wood", "owner": "Electric Company", "owner_id": "Not Available", "install_da": "Not Available", "other": "Not Available", "source_dat": "Not Available", "load_date": "2021-04-24"}}, {"type": "Feature", "geometry": {"type": "Point", "coordinates": [-121.89433951088807, 37.44673800078444]}, "properties": {"type": "Support", "subtype": "Not Available", "voltage": "Not Available", "height": "0", "pole_use": "Streetlight", "oh_ug": "Not Available", "material": "Wood", "owner": "Electric Company", "owner_id": "Not Available", "install_da": "Not Available", "other": "Not Available", "source_dat": "Not Available", "load_date": "2021-04-24"}}, {"type": "Feature", "geometry": {"type": "Point", "coordinates": [-121.89496526923018, 37.44667120770686]}, "properties": {"type": "Support", "subtype": "Not Available", "voltage": "12.0 kV", "height": "0", "pole_use": "Streetlight", "oh_ug": "Not Available", "material": "Wood", "owner": "Electric Company", "owner_id": "Not Available", "install_da": "Not Available", "other": "Not Available", "source_dat": "Not Available", "load_date": "2021-04-24"}}, {"type": "Feature", "geometry": {"type": "Point", "coordinates": [-121.89466744178088, 37.4469842261954]}, "properties": {"type": "Support", "subtype": "Not Available", "voltage": "Not Available", "height": "0", "pole_use": "Streetlight", "oh_ug": "Not Available", "material": "Wood", "owner": "Electric Company", "owner_id": "Not Available", "install_da": "Not Available", "other": "Not Available", "source_dat": "Not Available", "load_date": "2021-04-24"}}, {"type": "Feature", "geometry": {"type": "Point", "coordinates": [-121.89436536889353, 37.4477641243561]}, "properties": {"type": "Support", "subtype": "Not Available", "voltage": "Not Available", "height": "0", "pole_use": "Streetlight", "oh_ug": "Not Available", "material": "Wood", "owner": "Electric Company", "owner_id": "Not Available", "install_da": "Not Available", "other": "Not Available", "source_dat": "Not Available", "load_date": "2021-04-24"}}, {"type": "Feature", "geometry": {"type": "Point", "coordinates": [-121.8933491299654, 37.44672246965549]}, "properties": {"type": "Support", "subtype": "Not Available", "voltage": "12.0 kV", "height": "0", "pole_use": "Streetlight", "oh_ug": "Not Available", "material": "Wood", "owner": "Electric Company", "owner_id": "Not Available", "install_da": "Not Available", "other": "Not Available", "source_dat": "Not Available", "load_date": "2021-04-24"}}, {"type": "Feature", "geometry": {"type": "Point", "coordinates": [-121.89390542338322, 37.447078048043764]}, "properties": {"type": "Support", "subtype": "Not Available", "voltage": "Not Available", "height": "0", "pole_use": "Streetlight", "oh_ug": "Not Available", "material": "Wood", "owner": "Electric Company", "owner_id": "Not Available", "install_da": "Not Available", "other": "Not Available", "source_dat": "Not Available", "load_date": "2021-04-24"}}, {"type": "Feature", "geometry": {"type": "Point", "coordinates": [-121.8936529940934, 37.44718483690932]}, "properties": {"type": "Support", "subtype": "Not Available", "voltage": "Secondary", "height": "0", "pole_use": "Streetlight", "oh_ug": "Not Available", "material": "Wood", "owner": "Electric Company", "owner_id": "Not Available", "install_da": "Not Available", "other": "Not Available", "source_dat": "Not Available", "load_date": "2021-04-24"}}, {"type": "Feature", "geometry": {"type": "Point", "coordinates": [-121.89230808855227, 37.44717395084929]}, "properties": {"type": "Support", "subtype": "Not Available", "voltage": "Not Available", "height": "0", "pole_use": "Streetlight", "oh_ug": "Not Available", "material": "Wood", "owner": "Electric Company", "owner_id": "Not Available", "install_da": "Not Available", "other": "Not Available", "source_dat": "Not Available", "load_date": "2021-04-24"}}, {"type": "Feature", "geometry": {"type": "Point", "coordinates": [-121.89292677355981, 37.44707653608888]}, "properties": {"type": "Support", "subtype": "Not Available", "voltage": "Not Available", "height": "0", "pole_use": "Streetlight", "oh_ug": "Not Available", "material": "Wood", "owner": "Electric Company", "owner_id": "Not Available", "install_da": "Not Available", "other": "Not Available", "source_dat": "Not Available", "load_date": "2021-04-24"}}, {"type": "Feature", "geometry": {"type": "Point", "coordinates": [-121.89824729466356, 37.44649418015918]}, "properties": {"type": "Support", "subtype": "Not Available", "voltage": "12.0 kV", "height": "0", "pole_use": "Streetlight", "oh_ug": "Not Available", "material": "Wood", "owner": "Electric Company", "owner_id": "Not Available", "install_da": "Not Available", "other": "Not Available", "source_dat": "Not Available", "load_date": "2021-04-24"}}, {"type": "Feature", "geometry": {"type": "Point", "coordinates": [-121.8970200486617, 37.446562399064]}, "properties": {"type": "Support", "subtype": "Not Available", "voltage": "12.0 kV", "height": "0", "pole_use": "Streetlight", "oh_ug": "Not Available", "material": "Wood", "owner": "Electric Company", "owner_id": "Not Available", "install_da": "Not Available", "other": "Not Available", "source_dat": "Not Available", "load_date": "2021-04-24"}}, {"type": "Feature", "geometry": {"type": "Point", "coordinates": [-121.89897272647634, 37.44645385913632]}, "properties": {"type": "Support", "subtype": "Not Available", "voltage": "12.0 kV", "height": "0", "pole_use": "Streetlight", "oh_ug": "Not Available", "material": "Wood", "owner": "Electric Company", "owner_id": "Not Available", "install_da": "Not Available", "other": "Not Available", "source_dat": "Not Available", "load_date": "2021-04-24"}}, {"type": "Feature", "geometry": {"type": "Point", "coordinates": [-121.89490614121986, 37.44777503172562]}, "properties": {"type": "Support", "subtype": "Not Available", "voltage": "Not Available", "height": "Not Available", "pole_use": "Streetlight", "oh_ug": "Not Available", "material": "Unknown", "owner": "Electric Company", "owner_id": "Not Available", "install_da": "Not Available", "other": "Not Available", "source_dat": "Not Available", "load_date": "2021-04-24"}}, {"type": "Feature", "geometry": {"type": "Point", "coordinates": [-121.89540092070197, 37.44761868405205]}, "properties": {"type": "Support", "subtype": "Not Available", "voltage": "Not Available", "height": "Not Available", "pole_use": "Streetlight", "oh_ug": "Not Available", "material": "Unknown", "owner": "Electric Company", "owner_id": "Not Available", "install_da": "Not Available", "other": "Not Available", "source_dat": "Not Available", "load_date": "2021-04-24"}}, {"type": "Feature", "geometry": {"type": "Point", "coordinates": [-121.89490614121986, 37.44777503172562]}, "properties": {"type": "Street Light", "subtype": "Not Available", "voltage": "Not Available", "height": "Not Available", "pole_use": "Streetlight Only", "oh_ug": "Not Available", "material": "Steel Pole", "owner": "Electric Company", "owner_id": "M1082", "install_da": "Not Available", "other": "Not Available", "source_dat": "Not Available", "load_date": "2021-04-24"}}, {"type": "Feature", "geometry": {"type": "Point", "coordinates": [-121.8970200486617, 37.446562399064]}, "properties": {"type": "Street Light", "subtype": "Not Available", "voltage": "Not Available", "height": "Not Available", "pole_use": "Streetlight Only", "oh_ug": "Not Available", "material": "Steel Pole", "owner": "Electric Company", "owner_id": "M1599", "install_da": "Not Available", "other": "Not Available", "source_dat": "Not Available", "load_date": "2021-04-24"}}, {"type": "Feature", "geometry": {"type": "Point", "coordinates": [-121.89674866312278, 37.44752757225996]}, "properties": {"type": "Street Light", "subtype": "Not Available", "voltage": "Not Available", "height": "Not Available", "pole_use": "Streetlight Only", "oh_ug": "Not Available", "material": "Unknown Pole Type", "owner": "Electric Company", "owner_id": "M1086", "install_da": "Not Available", "other": "Not Available", "source_dat": "Not Available", "load_date": "2021-04-24"}}, {"type": "Feature", "geometry": {"type": "Point", "coordinates": [-121.89387233483802, 37.446758728920706]}, "properties": {"type": "Street Light", "subtype": "Not Available", "voltage": "Not Available", "height": "Not Available", "pole_use": "Streetlight Only", "oh_ug": "Not Available", "material": "Galvanized Pole", "owner": "Electric Company", "owner_id": "M3553", "install_da": "Not Available", "other": "Not Available", "source_dat": "Not Available", "load_date": "2021-04-24"}}, {"type": "Feature", "geometry": {"type": "Point", "coordinates": [-121.89741983938733, 37.44654017174514]}, "properties": {"type": "Street Light", "subtype": "Not Available", "voltage": "Not Available", "height": "Not Available", "pole_use": "Streetlight Only", "oh_ug": "Not Available", "material": "Steel Pole", "owner": "Electric Company", "owner_id": "M1598", "install_da": "Not Available", "other": "Not Available", "source_dat": "Not Available", "load_date": "2021-04-24"}}, {"type": "Feature", "geometry": {"type": "Point", "coordinates": [-121.8981557383698, 37.446793543247544]}, "properties": {"type": "Street Light", "subtype": "Not Available", "voltage": "Not Available", "height": "Not Available", "pole_use": "Streetlight Only", "oh_ug": "Not Available", "material": "Steel Pole", "owner": "Electric Company", "owner_id": "M3539", "install_da": "Not Available", "other": "Not Available", "source_dat": "Not Available", "load_date": "2021-04-24"}}, {"type": "Feature", "geometry": {"type": "Point", "coordinates": [-121.89896895894204, 37.446747250851516]}, "properties": {"type": "Street Light", "subtype": "Not Available", "voltage": "Not Available", "height": "Not Available", "pole_use": "Streetlight Only", "oh_ug": "Not Available", "material": "Steel Pole", "owner": "Electric Company", "owner_id": "M3537", "install_da": "Not Available", "other": "Not Available", "source_dat": "Not Available", "load_date": "2021-04-24"}}, {"type": "Feature", "geometry": {"type": "Point", "coordinates": [-121.8960130219568, 37.44690874314406]}, "properties": {"type": "Street Light", "subtype": "Not Available", "voltage": "Not Available", "height": "Not Available", "pole_use": "Streetlight Only", "oh_ug": "Not Available", "material": "Galvanized Pole", "owner": "Electric Company", "owner_id": "M3542", "install_da": "Not Available", "other": "Not Available", "source_dat": "Not Available", "load_date": "2021-04-24"}}, {"type": "Feature", "geometry": {"type": "Point", "coordinates": [-121.89824729466356, 37.44649418015918]}, "properties": {"type": "Street Light", "subtype": "Not Available", "voltage": "Not Available", "height": "Not Available", "pole_use": "Streetlight Only", "oh_ug": "Not Available", "material": "Galvanized Pole", "owner": "Electric Company", "owner_id": "M1596", "install_da": "Not Available", "other": "Not Available", "source_dat": "Not Available", "load_date": "2021-04-24"}}, {"type": "Feature", "geometry": {"type": "Point", "coordinates": [-121.8940526761229, 37.44741670590327]}, "properties": {"type": "Street Light", "subtype": "Not Available", "voltage": "Not Available", "height": "Not Available", "pole_use": "Streetlight Only", "oh_ug": "Not Available", "material": "Steel Pole", "owner": "Electric Company", "owner_id": "M1080", "install_da": "Not Available", "other": "Not Available", "source_dat": "Not Available", "load_date": "2021-04-24"}}, {"type": "Feature", "geometry": {"type": "Point", "coordinates": [-121.89864771690483, 37.44676713314278]}, "properties": {"type": "Street Light", "subtype": "Not Available", "voltage": "Not Available", "height": "Not Available", "pole_use": "Streetlight Only", "oh_ug": "Not Available", "material": "Steel Pole", "owner": "Electric Company", "owner_id": "M3538", "install_da": "Not Available", "other": "Not Available", "source_dat": "Not Available", "load_date": "2021-04-24"}}, {"type": "Feature", "geometry": {"type": "Point", "coordinates": [-121.89744181756906, 37.44725851603842]}, "properties": {"type": "Street Light", "subtype": "Not Available", "voltage": "Not Available", "height": "Not Available", "pole_use": "Streetlight Only", "oh_ug": "Not Available", "material": "Steel Pole", "owner": "Electric Company", "owner_id": "M1088", "install_da": "Not Available", "other": "Not Available", "source_dat": "Not Available", "load_date": "2021-04-24"}}, {"type": "Feature", "geometry": {"type": "Point", "coordinates": [-121.89715289062761, 37.446844810817886]}, "properties": {"type": "Street Light", "subtype": "Not Available", "voltage": "Not Available", "height": "Not Available", "pole_use": "Streetlight Only", "oh_ug": "Not Available", "material": "Steel Pole", "owner": "Electric Company", "owner_id": "M3540", "install_da": "Not Available", "other": "Not Available", "source_dat": "Not Available", "load_date": "2021-04-24"}}, {"type": "Feature", "geometry": {"type": "Point", "coordinates": [-121.89787444171833, 37.44708091576555]}, "properties": {"type": "Street Light", "subtype": "Not Available", "voltage": "Not Available", "height": "Not Available", "pole_use": "Streetlight Only", "oh_ug": "Not Available", "material": "Galvanized Pole", "owner": "Electric Company", "owner_id": "M1090", "install_da": "Not Available", "other": "Not Available", "source_dat": "Not Available", "load_date": "2021-04-24"}}, {"type": "Feature", "geometry": {"type": "Point", "coordinates": [-121.89778421672784, 37.44736406085431]}, "properties": {"type": "Street Light", "subtype": "Not Available", "voltage": "Not Available", "height": "Not Available", "pole_use": "Streetlight Only", "oh_ug": "Not Available", "material": "Steel Pole", "owner": "Electric Company", "owner_id": "M1089", "install_da": "Not Available", "other": "Not Available", "source_dat": "Not Available", "load_date": "2021-04-24"}}, {"type": "Feature", "geometry": {"type": "Point", "coordinates": [-121.89784096869421, 37.44651675766884]}, "properties": {"type": "Street Light", "subtype": "Not Available", "voltage": "Not Available", "height": "Not Available", "pole_use": "Streetlight Only", "oh_ug": "Not Available", "material": "Steel Pole", "owner": "Electric Company", "owner_id": "M1597", "install_da": "Not Available", "other": "Not Available", "source_dat": "Not Available", "load_date": "2021-04-24"}}, {"type": "Feature", "geometry": {"type": "Point", "coordinates": [-121.89632548296208, 37.446600994106696]}, "properties": {"type": "Street Light", "subtype": "Not Available", "voltage": "Not Available", "height": "Not Available", "pole_use": "Streetlight Only", "oh_ug": "Not Available", "material": "Steel Pole", "owner": "Electric Company", "owner_id": "M1600", "install_da": "Not Available", "other": "Not Available", "source_dat": "Not Available", "load_date": "2021-04-24"}}, {"type": "Feature", "geometry": {"type": "Point", "coordinates": [-121.89831535013117, 37.44712071225889]}, "properties": {"type": "Street Light", "subtype": "Not Available", "voltage": "Not Available", "height": "Not Available", "pole_use": "Streetlight Only", "oh_ug": "Not Available", "material": "Galvanized Pole", "owner": "Electric Company", "owner_id": "M1091", "install_da": "Not Available", "other": "Not Available", "source_dat": "Not Available", "load_date": "2021-04-24"}}, {"type": "Feature", "geometry": {"type": "Point", "coordinates": [-121.89897272647634, 37.44645385913632]}, "properties": {"type": "Street Light", "subtype": "Not Available", "voltage": "Not Available", "height": "Not Available", "pole_use": "Streetlight Only", "oh_ug": "Not Available", "material": "Galvanized Pole", "owner": "Electric Company", "owner_id": "M1595", "install_da": "Not Available", "other": "Not Available", "source_dat": "Not Available", "load_date": "2021-04-24"}}, {"type": "Feature", "geometry": {"type": "Point", "coordinates": [-121.89384364085122, 37.44742116401018]}, "properties": {"type": "Street Light", "subtype": "Not Available", "voltage": "Not Available", "height": "Not Available", "pole_use": "Streetlight Only", "oh_ug": "Not Available", "material": "Galvanized Pole", "owner": "Electric Company", "owner_id": "M5008", "install_da": "Not Available", "other": "Not Available", "source_dat": "Not Available", "load_date": "2021-04-24"}}, {"type": "Feature", "geometry": {"type": "Point", "coordinates": [-121.89642647246465, 37.446881271142864]}, "properties": {"type": "Street Light", "subtype": "Not Available", "voltage": "Not Available", "height": "Not Available", "pole_use": "Streetlight Only", "oh_ug": "Not Available", "material": "Galvanized Pole", "owner": "Electric Company", "owner_id": "M3541", "install_da": "Not Available", "other": "Not Available", "source_dat": "Not Available", "load_date": "2021-04-24"}}, {"type": "Feature", "geometry": {"type": "Point", "coordinates": [-121.89540092070197, 37.44761868405205]}, "properties": {"type": "Street Light", "subtype": "Not Available", "voltage": "Not Available", "height": "Not Available", "pole_use": "Streetlight Only", "oh_ug": "Not Available", "material": "Steel Pole", "owner": "Electric Company", "owner_id": "M1084", "install_da": "Not Available", "other": "Not Available", "source_dat": "Not Available", "load_date": "2021-04-24"}}, {"type": "Feature", "geometry": {"type": "Point", "coordinates": [-121.89664550149384, 37.44691057888956]}, "properties": {"type": "Street Light", "subtype": "Not Available", "voltage": "Not Available", "height": "Not Available", "pole_use": "Streetlight Only", "oh_ug": "Not Available", "material": "Steel Pole", "owner": "Electric Company", "owner_id": "M1087", "install_da": "Not Available", "other": "Not Available", "source_dat": "Not Available", "load_date": "2021-04-24"}}, {"type": "Feature", "geometry": {"type": "Point", "coordinates": [-121.89596659792122, 37.44757000372157]}, "properties": {"type": "Street Light", "subtype": "Not Available", "voltage": "Not Available", "height": "Not Available", "pole_use": "Streetlight Only", "oh_ug": "Not Available", "material": "Steel Pole", "owner": "Electric Company", "owner_id": "M1085", "install_da": "Not Available", "other": "Not Available", "source_dat": "Not Available", "load_date": "2021-04-24"}}, {"type": "Feature", "geometry": {"type": "Point", "coordinates": [-121.89433951088807, 37.44673800078444]}, "properties": {"type": "Street Light", "subtype": "Not Available", "voltage": "Not Available", "height": "Not Available", "pole_use": "Streetlight Only", "oh_ug": "Not Available", "material": "Steel Pole", "owner": "Electric Company", "owner_id": "M3554", "install_da": "Not Available", "other": "Not Available", "source_dat": "Not Available", "load_date": "2021-04-24"}}, {"type": "Feature", "geometry": {"type": "Point", "coordinates": [-121.89192268793914, 37.44683765682405]}, "properties": {"type": "Street Light", "subtype": "Not Available", "voltage": "Not Available", "height": "Not Available", "pole_use": "Streetlight Only", "oh_ug": "Not Available", "material": "Galvanized Pole", "owner": "Electric Company", "owner_id": "08534", "install_da": "Not Available", "other": "Not Available", "source_dat": "Not Available", "load_date": "2021-04-24"}}, {"type": "Feature", "geometry": {"type": "Point", "coordinates": [-121.89466744178088, 37.4469842261954]}, "properties": {"type": "Street Light", "subtype": "Not Available", "voltage": "Not Available", "height": "Not Available", "pole_use": "Streetlight Only", "oh_ug": "Not Available", "material": "Steel Pole", "owner": "Electric Company", "owner_id": "M3544", "install_da": "Not Available", "other": "Not Available", "source_dat": "Not Available", "load_date": "2021-04-24"}}, {"type": "Feature", "geometry": {"type": "Point", "coordinates": [-121.89539116859123, 37.44694363727811]}, "properties": {"type": "Street Light", "subtype": "Not Available", "voltage": "Not Available", "height": "Not Available", "pole_use": "Streetlight Only", "oh_ug": "Not Available", "material": "Steel Pole", "owner": "Electric Company", "owner_id": "M3543", "install_da": "Not Available", "other": "Not Available", "source_dat": "Not Available", "load_date": "2021-04-24"}}, {"type": "Feature", "geometry": {"type": "Point", "coordinates": [-121.89496526923018, 37.44667120770686]}, "properties": {"type": "Street Light", "subtype": "Not Available", "voltage": "Not Available", "height": "Not Available", "pole_use": "Streetlight Only", "oh_ug": "Not Available", "material": "Steel Pole", "owner": "Electric Company", "owner_id": "M3555", "install_da": "Not Available", "other": "Not Available", "source_dat": "Not Available", "load_date": "2021-04-24"}}, {"type": "Feature", "geometry": {"type": "Point", "coordinates": [-121.89584557958109, 37.44664718888615]}, "properties": {"type": "Street Light", "subtype": "Not Available", "voltage": "Not Available", "height": "Not Available", "pole_use": "Streetlight Only", "oh_ug": "Not Available", "material": "Steel Pole", "owner": "Electric Company", "owner_id": "M1601", "install_da": "Not Available", "other": "Not Available", "source_dat": "Not Available", "load_date": "2021-04-24"}}, {"type": "Feature", "geometry": {"type": "Point", "coordinates": [-121.89511981718829, 37.44707057527792]}, "properties": {"type": "Street Light", "subtype": "Not Available", "voltage": "Not Available", "height": "Not Available", "pole_use": "Streetlight Only", "oh_ug": "Not Available", "material": "Steel Pole", "owner": "Electric Company", "owner_id": "M1083", "install_da": "Not Available", "other": "Not Available", "source_dat": "Not Available", "load_date": "2021-04-24"}}, {"type": "Feature", "geometry": {"type": "Point", "coordinates": [-121.89527785959287, 37.446605908704214]}, "properties": {"type": "Street Light", "subtype": "Not Available", "voltage": "Not Available", "height": "Not Available", "pole_use": "Streetlight Only", "oh_ug": "Not Available", "material": "Steel Pole", "owner": "Electric Company", "owner_id": "M1602", "install_da": "Not Available", "other": "Not Available", "source_dat": "Not Available", "load_date": "2021-04-24"}}, {"type": "Feature", "geometry": {"type": "Point", "coordinates": [-121.8929660694636, 37.44734382926168]}, "properties": {"type": "Street Light", "subtype": "Not Available", "voltage": "Not Available", "height": "Not Available", "pole_use": "Streetlight Only", "oh_ug": "Not Available", "material": "Galvanized Pole", "owner": "Electric Company", "owner_id": "M5006", "install_da": "Not Available", "other": "Not Available", "source_dat": "Not Available", "load_date": "2021-04-24"}}, {"type": "Feature", "geometry": {"type": "Point", "coordinates": [-121.89365761592556, 37.44783050281407]}, "properties": {"type": "Street Light", "subtype": "Not Available", "voltage": "Not Available", "height": "Not Available", "pole_use": "Streetlight Only", "oh_ug": "Not Available", "material": "Steel Pole", "owner": "Electric Company", "owner_id": "M5009", "install_da": "Not Available", "other": "Not Available", "source_dat": "Not Available", "load_date": "2021-04-24"}}, {"type": "Feature", "geometry": {"type": "Point", "coordinates": [-121.8941431598282, 37.447009428798125]}, "properties": {"type": "Street Light", "subtype": "Not Available", "voltage": "Not Available", "height": "Not Available", "pole_use": "Streetlight Only", "oh_ug": "Not Available", "material": "Galvanized Pole", "owner": "Electric Company", "owner_id": "31140", "install_da": "Not Available", "other": "Not Available", "source_dat": "Not Available", "load_date": "2021-04-24"}}, {"type": "Feature", "geometry": {"type": "Point", "coordinates": [-121.89292677355981, 37.44707653608888]}, "properties": {"type": "Street Light", "subtype": "Not Available", "voltage": "Not Available", "height": "Not Available", "pole_use": "Streetlight Only", "oh_ug": "Not Available", "material": "Galvanized Pole", "owner": "Electric Company", "owner_id": "M5012", "install_da": "Not Available", "other": "Not Available", "source_dat": "Not Available", "load_date": "2021-04-24"}}, {"type": "Feature", "geometry": {"type": "Point", "coordinates": [-121.89563470455971, 37.44690243499724]}, "properties": {"type": "Street Light", "subtype": "Not Available", "voltage": "Not Available", "height": "Not Available", "pole_use": "Streetlight Only", "oh_ug": "Not Available", "material": "Galvanized Pole", "owner": "Electric Company", "owner_id": "M1658", "install_da": "Not Available", "other": "Not Available", "source_dat": "Not Available", "load_date": "2021-04-24"}}, {"type": "Feature", "geometry": {"type": "Point", "coordinates": [-121.89350951607453, 37.44710931412202]}, "properties": {"type": "Street Light", "subtype": "Not Available", "voltage": "Not Available", "height": "Not Available", "pole_use": "Streetlight Only", "oh_ug": "Not Available", "material": "Galvanized Pole", "owner": "Electric Company", "owner_id": "M5011", "install_da": "Not Available", "other": "Not Available", "source_dat": "Not Available", "load_date": "2021-04-24"}}, {"type": "Feature", "geometry": {"type": "Point", "coordinates": [-121.89230808855227, 37.44717395084929]}, "properties": {"type": "Street Light", "subtype": "Not Available", "voltage": "Not Available", "height": "Not Available", "pole_use": "Streetlight Only", "oh_ug": "Not Available", "material": "Galvanized Pole", "owner": "Electric Company", "owner_id": "08554", "install_da": "Not Available", "other": "Not Available", "source_dat": "Not Available", "load_date": "2021-04-24"}}, {"type": "Feature", "geometry": {"type": "Point", "coordinates": [-121.89436536889353, 37.4477641243561]}, "properties": {"type": "Street Light", "subtype": "Not Available", "voltage": "Not Available", "height": "Not Available", "pole_use": "Streetlight Only", "oh_ug": "Not Available", "material": "Steel Pole", "owner": "Electric Company", "owner_id": "M1081", "install_da": "Not Available", "other": "Not Available", "source_dat": "Not Available", "load_date": "2021-04-24"}}, {"type": "Feature", "geometry": {"type": "Point", "coordinates": [-121.89271761521897, 37.44801350219947]}, "properties": {"type": "Street Light", "subtype": "Not Available", "voltage": "Not Available", "height": "Not Available", "pole_use": "Streetlight Only", "oh_ug": "Not Available", "material": "Galvanized Pole", "owner": "Electric Company", "owner_id": "M5004", "install_da": "Not Available", "other": "Not Available", "source_dat": "Not Available", "load_date": "2021-04-24"}}, {"type": "Feature", "geometry": {"type": "Point", "coordinates": [-121.89263039958463, 37.447710080292026]}, "properties": {"type": "Street Light", "subtype": "Not Available", "voltage": "Not Available", "height": "Not Available", "pole_use": "Streetlight Only", "oh_ug": "Not Available", "material": "Steel Pole", "owner": "Electric Company", "owner_id": "M5005", "install_da": "Not Available", "other": "Not Available", "source_dat": "Not Available", "load_date": "2021-04-24"}}, {"type": "Feature", "geometry": {"type": "Point", "coordinates": [-121.8934696174012, 37.44805809716421]}, "properties": {"type": "Street Light", "subtype": "Not Available", "voltage": "Not Available", "height": "Not Available", "pole_use": "Streetlight Only", "oh_ug": "Not Available", "material": "Galvanized Pole", "owner": "Electric Company", "owner_id": "M5003", "install_da": "Not Available", "other": "Not Available", "source_dat": "Not Available", "load_date": "2021-04-24"}}, {"type": "Feature", "geometry": {"type": "Point", "coordinates": [-121.89560929211864, 37.446660663903394]}, "properties": {"type": "Street Light", "subtype": "Not Available", "voltage": "Not Available", "height": "Not Available", "pole_use": "Streetlight Only", "oh_ug": "Not Available", "material": "Galvanized Pole", "owner": "Electric Company", "owner_id": "M1659", "install_da": "Not Available", "other": "Not Available", "source_dat": "Not Available", "load_date": "2021-04-24"}}, {"type": "Feature", "geometry": {"type": "Point", "coordinates": [-121.8933491299654, 37.44672246965549]}, "properties": {"type": "Street Light", "subtype": "Not Available", "voltage": "Not Available", "height": "Not Available", "pole_use": "Streetlight Only", "oh_ug": "Not Available", "material": "Galvanized Pole", "owner": "Electric Company", "owner_id": "M3552", "install_da": "Not Available", "other": "Not Available", "source_dat": "Not Available", "load_date": "2021-04-24"}}, {"type": "Feature", "geometry": {"type": "Point", "coordinates": [-121.89355653838808, 37.44742072183674]}, "properties": {"type": "Street Light", "subtype": "Not Available", "voltage": "Not Available", "height": "Not Available", "pole_use": "Streetlight Only", "oh_ug": "Not Available", "material": "Steel Pole", "owner": "Electric Company", "owner_id": "M5007", "install_da": "Not Available", "other": "Not Available", "source_dat": "Not Available", "load_date": "2021-04-24"}}, {"type": "Feature", "geometry": {"type": "Point", "coordinates": [-121.89390542338322, 37.447078048043764]}, "properties": {"type": "Street Light", "subtype": "Not Available", "voltage": "Not Available", "height": "Not Available", "pole_use": "Streetlight Only", "oh_ug": "Not Available", "material": "Galvanized Pole", "owner": "Electric Company", "owner_id": "M5012", "install_da": "Not Available", "other": "Not Available", "source_dat": "Not Available", "load_date": "2021-04-24"}}]}