{"type": "FeatureCollection", "features": [{"type": "Feature", "geometry": {"type": "LineString", "coordinates": [[-121.90137388460332, 37.44719983305351], [-121.90151278750245, 37.44714253788178]]}, "properties": {"type": "Secondary Underground Conductor", "subtype": "Not Available", "voltage_di": "Not Available", "phases": 0, "direct_bur": "No", "joint_tren": "Yes", "owner": "Electric Company", "owner_id": "Not Available", "other_1": "Not Available", "other_2": "Not Available", "load_date": "2021-04-23", "Shape_Leng": 17.4250490537}}, {"type": "Feature", "geometry": {"type": "LineString", "coordinates": [[-121.90137388460332, 37.44719983305351], [-121.90151456616671, 37.44720255171499]]}, "properties": {"type": "Secondary Underground Conductor", "subtype": "Not Available", "voltage_di": "Not Available", "phases": 0, "direct_bur": "No", "joint_tren": "Yes", "owner": "Electric Company", "owner_id": "Not Available", "other_1": "Not Available", "other_2": "Not Available", "load_date": "2021-04-23", "Shape_Leng": 15.6652387717}}, {"type": "Feature", "geometry": {"type": "LineString", "coordinates": [[-121.90137388460332, 37.44719983305351], [-121.90134184618871, 37.44718917378852], [-121.90133541604791, 37.44711734174255], [-121.90133543670915, 37.447108372716556], [-121.90133716147452, 37.44709920185786], [-121.90134036486681, 37.44709081478957], [-121.9013456236045, 37.44707815502172], [-121.90135093713941, 37.44705925415757], [-121.90151173018536, 37.44705014034773]]}, "properties": {"type": "Secondary Underground Conductor", "subtype": "Not Available", "voltage_di": "Not Available", "phases": 0, "direct_bur": "No", "joint_tren": "Yes", "owner": "Electric Company", "owner_id": "Not Available", "other_1": "Not Available", "other_2": "Not Available", "load_date": "2021-04-23", "Shape_Leng": 40.280548108}}, {"type": "Feature", "geometry": {"type": "LineString", "coordinates": [[-121.90140933736096, 37.44612267865108], [-121.9014052151455, 37.44612767427107]]}, "properties": {"type": "Secondary Underground Conductor", "subtype": "Not Available", "voltage_di": "Not Available", "phases": 0, "direct_bur": "No", "joint_tren": "No", "owner": "Electric Company", "owner_id": "Not Available", "other_1": "Not Available", "other_2": "Not Available", "load_date": "2021-04-23", "Shape_Leng": 14.2121553064}}, {"type": "Feature", "geometry": {"type": "LineString", "coordinates": [[-121.90154088321128, 37.446120190712406], [-121.901535874823, 37.44611429834016]]}, "properties": {"type": "Secondary Underground Conductor", "subtype": "Not Available", "voltage_di": "Not Available", "phases": 0, "direct_bur": "No", "joint_tren": "No", "owner": "Electric Company", "owner_id": "Not Available", "other_1": "Not Available", "other_2": "Not Available", "load_date": "2021-04-23", "Shape_Leng": 13.0759602977}}, {"type": "Feature", "geometry": {"type": "LineString", "coordinates": [[-121.89222794755875, 37.44668711968027], [-121.89223273606959, 37.44669729833644]]}, "properties": {"type": "Secondary Underground Conductor", "subtype": "Not Available", "voltage_di": "Not Available", "phases": 0, "direct_bur": "No", "joint_tren": "No", "owner": "Electric Company", "owner_id": "Not Available", "other_1": "Not Available", "other_2": "Not Available", "load_date": "2021-04-23", "Shape_Leng": 56.1033623324}}, {"type": "Feature", "geometry": {"type": "LineString", "coordinates": [[-121.89663337064425, 37.44756264582714], [-121.89591852547711, 37.44738317916237]]}, "properties": {"type": "Secondary Underground Conductor", "subtype": "Not Available", "voltage_di": "Not Available", "phases": 3, "direct_bur": "Not Available", "joint_tren": "Not Available", "owner": "Electric Company", "owner_id": "Not Available", "other_1": "Not Available", "other_2": "Not Available", "load_date": "2021-04-23", "Shape_Leng": 83.4602214708}}, {"type": "Feature", "geometry": {"type": "LineString", "coordinates": [[-121.8953216659377, 37.44775366272234], [-121.89533110902798, 37.447737867214464], [-121.89529717157484, 37.447613370139536], [-121.89531358918498, 37.447579086801234]]}, "properties": {"type": "Secondary Underground Conductor", "subtype": "Not Available", "voltage_di": "Not Available", "phases": 0, "direct_bur": "No", "joint_tren": "No", "owner": "Electric Company", "owner_id": "Not Available", "other_1": "Not Available", "other_2": "Not Available", "load_date": "2021-04-23", "Shape_Leng": 25.4551204583}}, {"type": "Feature", "geometry": {"type": "LineString", "coordinates": [[-121.89572641805864, 37.44768953214083], [-121.8957233170743, 37.44764832813124], [-121.89585426449324, 37.44762815366992]]}, "properties": {"type": "Secondary Underground Conductor", "subtype": "Not Available", "voltage_di": "Not Available", "phases": 0, "direct_bur": "Not Available", "joint_tren": "Not Available", "owner": "Electric Company", "owner_id": "Not Available", "other_1": "Not Available", "other_2": "Not Available", "load_date": "2021-04-23", "Shape_Leng": 20.6367441406}}, {"type": "Feature", "geometry": {"type": "LineString", "coordinates": [[-121.89826253188009, 37.446331084680345], [-121.89826973907094, 37.44634131803709]]}, "properties": {"type": "Secondary Underground Conductor", "subtype": "Not Available", "voltage_di": "Not Available", "phases": 0, "direct_bur": "No", "joint_tren": "No", "owner": "Electric Company", "owner_id": "Not Available", "other_1": "Not Available", "other_2": "Not Available", "load_date": "2021-04-23", "Shape_Leng": 10.8696717683}}, {"type": "Feature", "geometry": {"type": "LineString", "coordinates": [[-121.89816242654953, 37.44633771442744], [-121.89815660165078, 37.44634396897639]]}, "properties": {"type": "Secondary Underground Conductor", "subtype": "Not Available", "voltage_di": "Not Available", "phases": 0, "direct_bur": "No", "joint_tren": "No", "owner": "Electric Company", "owner_id": "Not Available", "other_1": "Not Available", "other_2": "Not Available", "load_date": "2021-04-23", "Shape_Leng": 12.2612458219}}, {"type": "Feature", "geometry": {"type": "LineString", "coordinates": [[-121.896575134661, 37.44704367174587], [-121.89647926914883, 37.446994794201586]]}, "properties": {"type": "Secondary Underground Conductor", "subtype": "Not Available", "voltage_di": "Not Available", "phases": 0, "direct_bur": "No", "joint_tren": "No", "owner": "Electric Company", "owner_id": "Not Available", "other_1": "Not Available", "other_2": "Not Available", "load_date": "2021-04-23", "Shape_Leng": 12.6828337693}}, {"type": "Feature", "geometry": {"type": "LineString", "coordinates": [[-121.8941435640701, 37.44718583964776], [-121.89425696379828, 37.44712675579541]]}, "properties": {"type": "Secondary Underground Conductor", "subtype": "Not Available", "voltage_di": "Not Available", "phases": 0, "direct_bur": "No", "joint_tren": "No", "owner": "Electric Company", "owner_id": "Not Available", "other_1": "Not Available", "other_2": "Not Available", "load_date": "2021-04-23", "Shape_Leng": 15.0992786988}}, {"type": "Feature", "geometry": {"type": "LineString", "coordinates": [[-121.896575134661, 37.44704367174587], [-121.89648937699243, 37.44709017791438]]}, "properties": {"type": "Secondary Underground Conductor", "subtype": "Not Available", "voltage_di": "Not Available", "phases": 0, "direct_bur": "No", "joint_tren": "No", "owner": "Electric Company", "owner_id": "Not Available", "other_1": "Not Available", "other_2": "Not Available", "load_date": "2021-04-23", "Shape_Leng": 11.5610466246}}, {"type": "Feature", "geometry": {"type": "LineString", "coordinates": [[-121.89354331878035, 37.447314506707784], [-121.89346520218159, 37.44723289915925]]}, "properties": {"type": "Secondary Underground Conductor", "subtype": "Not Available", "voltage_di": "Not Available", "phases": 0, "direct_bur": "No", "joint_tren": "Yes", "owner": "Electric Company", "owner_id": "Not Available", "other_1": "Not Available", "other_2": "Not Available", "load_date": "2021-04-23", "Shape_Leng": 14.3719887297}}, {"type": "Feature", "geometry": {"type": "LineString", "coordinates": [[-121.89844885595207, 37.44727604183277], [-121.89863729554924, 37.44736652419017]]}, "properties": {"type": "Secondary Underground Conductor", "subtype": "Not Available", "voltage_di": "Not Available", "phases": 3, "direct_bur": "Not Available", "joint_tren": "Not Available", "owner": "Electric Company", "owner_id": "Not Available", "other_1": "Not Available", "other_2": "Not Available", "load_date": "2021-04-23", "Shape_Leng": 24.5152408804}}, {"type": "Feature", "geometry": {"type": "LineString", "coordinates": [[-121.89908923796868, 37.44715844905139], [-121.89908610913656, 37.44712305293479], [-121.8990709949819, 37.44706996835641]]}, "properties": {"type": "Secondary Underground Conductor", "subtype": "Not Available", "voltage_di": "Not Available", "phases": 0, "direct_bur": "No", "joint_tren": "No", "owner": "Electric Company", "owner_id": "Not Available", "other_1": "Not Available", "other_2": "Not Available", "load_date": "2021-04-23", "Shape_Leng": 12.606395587}}, {"type": "Feature", "geometry": {"type": "LineString", "coordinates": [[-121.90080058517886, 37.44709026777581], [-121.90080820019753, 37.44706505806841], [-121.90089216842208, 37.447060363162464], [-121.90091682987158, 37.4471595402252]]}, "properties": {"type": "Secondary Underground Conductor", "subtype": "Not Available", "voltage_di": "Not Available", "phases": 0, "direct_bur": "No", "joint_tren": "Yes", "owner": "Electric Company", "owner_id": "Not Available", "other_1": "Not Available", "other_2": "Not Available", "load_date": "2021-04-23", "Shape_Leng": 27.180069663}}, {"type": "Feature", "geometry": {"type": "LineString", "coordinates": [[-121.89786885868887, 37.44700642913396], [-121.89796370371488, 37.44704133605979]]}, "properties": {"type": "Secondary Underground Conductor", "subtype": "Not Available", "voltage_di": "Not Available", "phases": 0, "direct_bur": "No", "joint_tren": "Yes", "owner": "Electric Company", "owner_id": "Not Available", "other_1": "Not Available", "other_2": "Not Available", "load_date": "2021-04-23", "Shape_Leng": 11.6374226478}}, {"type": "Feature", "geometry": {"type": "LineString", "coordinates": [[-121.90066163107576, 37.447098141350224], [-121.90066757522801, 37.447184838335666]]}, "properties": {"type": "Secondary Underground Conductor", "subtype": "Not Available", "voltage_di": "Not Available", "phases": 0, "direct_bur": "No", "joint_tren": "Yes", "owner": "Electric Company", "owner_id": "Not Available", "other_1": "Not Available", "other_2": "Not Available", "load_date": "2021-04-23", "Shape_Leng": 12.1742957259}}, {"type": "Feature", "geometry": {"type": "LineString", "coordinates": [[-121.90066163107576, 37.447098141350224], [-121.90061406797642, 37.44684835393807]]}, "properties": {"type": "Secondary Underground Conductor", "subtype": "Not Available", "voltage_di": "Not Available", "phases": 0, "direct_bur": "No", "joint_tren": "Yes", "owner": "Electric Company", "owner_id": "Not Available", "other_1": "Not Available", "other_2": "Not Available", "load_date": "2021-04-23", "Shape_Leng": 35.4220472203}}, {"type": "Feature", "geometry": {"type": "LineString", "coordinates": [[-121.896575134661, 37.44704367174587], [-121.89666543241508, 37.447038177356305]]}, "properties": {"type": "Secondary Underground Conductor", "subtype": "Not Available", "voltage_di": "Not Available", "phases": 0, "direct_bur": "No", "joint_tren": "No", "owner": "Electric Company", "owner_id": "Not Available", "other_1": "Not Available", "other_2": "Not Available", "load_date": "2021-04-23", "Shape_Leng": 10.0813793599}}, {"type": "Feature", "geometry": {"type": "LineString", "coordinates": [[-121.89846538854655, 37.44709704732279], [-121.89839944771312, 37.447014781978716]]}, "properties": {"type": "Secondary Underground Conductor", "subtype": "Not Available", "voltage_di": "Not Available", "phases": 0, "direct_bur": "No", "joint_tren": "No", "owner": "Electric Company", "owner_id": "Not Available", "other_1": "Not Available", "other_2": "Not Available", "load_date": "2021-04-23", "Shape_Leng": 13.6724854469}}, {"type": "Feature", "geometry": {"type": "LineString", "coordinates": [[-121.89968282714084, 37.44623702171036], [-121.8997861967802, 37.44625221375722]]}, "properties": {"type": "Secondary Underground Conductor", "subtype": "Not Available", "voltage_di": "Not Available", "phases": 3, "direct_bur": "Not Available", "joint_tren": "Not Available", "owner": "Electric Company", "owner_id": "Not Available", "other_1": "Not Available", "other_2": "Not Available", "load_date": "2021-04-23", "Shape_Leng": 97.6494156555}}, {"type": "Feature", "geometry": {"type": "LineString", "coordinates": [[-121.89481465140145, 37.44714203365957], [-121.89471839961367, 37.44719928033506]]}, "properties": {"type": "Secondary Underground Conductor", "subtype": "Not Available", "voltage_di": "Not Available", "phases": 0, "direct_bur": "No", "joint_tren": "No", "owner": "Electric Company", "owner_id": "Not Available", "other_1": "Not Available", "other_2": "Not Available", "load_date": "2021-04-23", "Shape_Leng": 13.3879019925}}, {"type": "Feature", "geometry": {"type": "LineString", "coordinates": [[-121.89786885868887, 37.44700642913396], [-121.89785571184467, 37.447015304031524], [-121.89769822819221, 37.44702272901936], [-121.89762781374866, 37.44706555515934]]}, "properties": {"type": "Secondary Underground Conductor", "subtype": "Not Available", "voltage_di": "Not Available", "phases": 0, "direct_bur": "No", "joint_tren": "No", "owner": "Electric Company", "owner_id": "Not Available", "other_1": "Not Available", "other_2": "Not Available", "load_date": "2021-04-23", "Shape_Leng": 29.3571729286}}, {"type": "Feature", "geometry": {"type": "LineString", "coordinates": [[-121.89908923796868, 37.44715844905139], [-121.89916370111922, 37.44722598269306]]}, "properties": {"type": "Secondary Underground Conductor", "subtype": "Not Available", "voltage_di": "Not Available", "phases": 0, "direct_bur": "No", "joint_tren": "No", "owner": "Electric Company", "owner_id": "Not Available", "other_1": "Not Available", "other_2": "Not Available", "load_date": "2021-04-23", "Shape_Leng": 12.584851178}}, {"type": "Feature", "geometry": {"type": "LineString", "coordinates": [[-121.89908923796868, 37.44715844905139], [-121.89906700197048, 37.447136323182], [-121.89894075094378, 37.44715611978759], [-121.89893957055752, 37.447202088144664]]}, "properties": {"type": "Secondary Underground Conductor", "subtype": "Not Available", "voltage_di": "Not Available", "phases": 0, "direct_bur": "No", "joint_tren": "No", "owner": "Electric Company", "owner_id": "Not Available", "other_1": "Not Available", "other_2": "Not Available", "load_date": "2021-04-23", "Shape_Leng": 24.7414149584}}, {"type": "Feature", "geometry": {"type": "LineString", "coordinates": [[-121.89908923796868, 37.44715844905139], [-121.89903798009857, 37.447256576176486]]}, "properties": {"type": "Secondary Underground Conductor", "subtype": "Not Available", "voltage_di": "Not Available", "phases": 0, "direct_bur": "No", "joint_tren": "No", "owner": "Electric Company", "owner_id": "Not Available", "other_1": "Not Available", "other_2": "Not Available", "load_date": "2021-04-23", "Shape_Leng": 14.8952514948}}, {"type": "Feature", "geometry": {"type": "LineString", "coordinates": [[-121.8969672690455, 37.44700302223998], [-121.89692308091666, 37.447058018205524], [-121.89666313093133, 37.447103471702576], [-121.89666756860882, 37.44710718383558], [-121.89668397903243, 37.4471169958474], [-121.89670446601079, 37.4471254520918], [-121.89671919299157, 37.44713151274436], [-121.89673453891156, 37.44714062012562], [-121.89674782409631, 37.44715159533869], [-121.89675869191461, 37.44716414668995], [-121.89676696809332, 37.44717813296795], [-121.89677336589479, 37.44719727129266], [-121.89671896212452, 37.44720323922539]]}, "properties": {"type": "Secondary Underground Conductor", "subtype": "Not Available", "voltage_di": "Not Available", "phases": 0, "direct_bur": "No", "joint_tren": "No", "owner": "Electric Company", "owner_id": "Not Available", "other_1": "Not Available", "other_2": "Not Available", "load_date": "2021-04-23", "Shape_Leng": 63.6588106318}}, {"type": "Feature", "geometry": {"type": "LineString", "coordinates": [[-121.89572641805864, 37.44768953214083], [-121.89582313158046, 37.44778715292508]]}, "properties": {"type": "Secondary Underground Conductor", "subtype": "Not Available", "voltage_di": "Not Available", "phases": 0, "direct_bur": "No", "joint_tren": "No", "owner": "Electric Company", "owner_id": "Not Available", "other_1": "Not Available", "other_2": "Not Available", "load_date": "2021-04-23", "Shape_Leng": 17.414734879}}, {"type": "Feature", "geometry": {"type": "LineString", "coordinates": [[-121.89970959384269, 37.44701455518535], [-121.89976160360268, 37.44709885097034]]}, "properties": {"type": "Secondary Underground Conductor", "subtype": "Not Available", "voltage_di": "Not Available", "phases": 0, "direct_bur": "No", "joint_tren": "No", "owner": "Electric Company", "owner_id": "Not Available", "other_1": "Not Available", "other_2": "Not Available", "load_date": "2021-04-23", "Shape_Leng": 13.1614425603}}, {"type": "Feature", "geometry": {"type": "LineString", "coordinates": [[-121.89916864275159, 37.44644296227202], [-121.89913452024552, 37.4464734170032]]}, "properties": {"type": "Secondary Underground Conductor", "subtype": "Not Available", "voltage_di": "Not Available", "phases": 0, "direct_bur": "No", "joint_tren": "No", "owner": "Electric Company", "owner_id": "Not Available", "other_1": "Not Available", "other_2": "Not Available", "load_date": "2021-04-23", "Shape_Leng": 5.71517368765}}, {"type": "Feature", "geometry": {"type": "LineString", "coordinates": [[-121.89517677756385, 37.44714068573868], [-121.89525975674326, 37.447078940239756]]}, "properties": {"type": "Secondary Underground Conductor", "subtype": "Not Available", "voltage_di": "Not Available", "phases": 0, "direct_bur": "No", "joint_tren": "No", "owner": "Electric Company", "owner_id": "Not Available", "other_1": "Not Available", "other_2": "Not Available", "load_date": "2021-04-23", "Shape_Leng": 12.660238269}}, {"type": "Feature", "geometry": {"type": "LineString", "coordinates": [[-121.89608560313683, 37.44763263387275], [-121.89603836073603, 37.44771152804787]]}, "properties": {"type": "Secondary Underground Conductor", "subtype": "Not Available", "voltage_di": "Not Available", "phases": 0, "direct_bur": "No", "joint_tren": "No", "owner": "Electric Company", "owner_id": "Not Available", "other_1": "Not Available", "other_2": "Not Available", "load_date": "2021-04-23", "Shape_Leng": 12.2487371747}}, {"type": "Feature", "geometry": {"type": "LineString", "coordinates": [[-121.89971355810802, 37.44686813706933], [-121.89965999066932, 37.4468775076491], [-121.89964974358686, 37.44686712576841], [-121.89963276812294, 37.44685502011008], [-121.89961341481846, 37.44684544769516], [-121.89959227206991, 37.44683869807929], [-121.89956998037614, 37.44683497523512], [-121.8995472017955, 37.44683439184687], [-121.89952496489896, 37.4468369136816], [-121.89951427315044, 37.446839677287116], [-121.89946361804988, 37.44676862584775]]}, "properties": {"type": "Secondary Underground Conductor", "subtype": "Not Available", "voltage_di": "Not Available", "phases": 0, "direct_bur": "No", "joint_tren": "No", "owner": "Electric Company", "owner_id": "Not Available", "other_1": "Not Available", "other_2": "Not Available", "load_date": "2021-04-23", "Shape_Leng": 35.8433739632}}, {"type": "Feature", "geometry": {"type": "LineString", "coordinates": [[-121.89608560313683, 37.44763263387275], [-121.89615598793597, 37.447689686187815]]}, "properties": {"type": "Secondary Underground Conductor", "subtype": "Not Available", "voltage_di": "Not Available", "phases": 0, "direct_bur": "No", "joint_tren": "No", "owner": "Electric Company", "owner_id": "Not Available", "other_1": "Not Available", "other_2": "Not Available", "load_date": "2021-04-23", "Shape_Leng": 11.1975693423}}, {"type": "Feature", "geometry": {"type": "LineString", "coordinates": [[-121.89685314797009, 37.44751101573905], [-121.89693201556047, 37.447581349012786]]}, "properties": {"type": "Secondary Underground Conductor", "subtype": "Not Available", "voltage_di": "Not Available", "phases": 0, "direct_bur": "No", "joint_tren": "No", "owner": "Electric Company", "owner_id": "Not Available", "other_1": "Not Available", "other_2": "Not Available", "load_date": "2021-04-23", "Shape_Leng": 13.2036620583}}, {"type": "Feature", "geometry": {"type": "LineString", "coordinates": [[-121.8953216659377, 37.44775366272234], [-121.89531782743649, 37.447849217343666]]}, "properties": {"type": "Secondary Underground Conductor", "subtype": "Not Available", "voltage_di": "Not Available", "phases": 0, "direct_bur": "No", "joint_tren": "No", "owner": "Electric Company", "owner_id": "Not Available", "other_1": "Not Available", "other_2": "Not Available", "load_date": "2021-04-23", "Shape_Leng": 13.4052119672}}, {"type": "Feature", "geometry": {"type": "LineString", "coordinates": [[-121.89725855496292, 37.44744700476426], [-121.89720542320711, 37.44753180000247]]}, "properties": {"type": "Secondary Underground Conductor", "subtype": "Not Available", "voltage_di": "Not Available", "phases": 0, "direct_bur": "No", "joint_tren": "No", "owner": "Electric Company", "owner_id": "Not Available", "other_1": "Not Available", "other_2": "Not Available", "load_date": "2021-04-23", "Shape_Leng": 13.2795880637}}, {"type": "Feature", "geometry": {"type": "LineString", "coordinates": [[-121.9010430305926, 37.446914547779805], [-121.90107477795304, 37.44683225798665]]}, "properties": {"type": "Secondary Underground Conductor", "subtype": "Not Available", "voltage_di": "Not Available", "phases": 0, "direct_bur": "No", "joint_tren": "Yes", "owner": "Electric Company", "owner_id": "Not Available", "other_1": "Not Available", "other_2": "Not Available", "load_date": "2021-04-23", "Shape_Leng": 12.0674036023}}, {"type": "Feature", "geometry": {"type": "LineString", "coordinates": [[-121.89564032981, 37.447543173826794], [-121.89556225722868, 37.44744554131329]]}, "properties": {"type": "Secondary Underground Conductor", "subtype": "Not Available", "voltage_di": "Not Available", "phases": 0, "direct_bur": "No", "joint_tren": "No", "owner": "Electric Company", "owner_id": "Not Available", "other_1": "Not Available", "other_2": "Not Available", "load_date": "2021-04-23", "Shape_Leng": 16.2154669092}}, {"type": "Feature", "geometry": {"type": "LineString", "coordinates": [[-121.89846538854655, 37.44709704732279], [-121.89848294072891, 37.44712774926317], [-121.89856802735599, 37.44711468726474]]}, "properties": {"type": "Secondary Underground Conductor", "subtype": "Not Available", "voltage_di": "Not Available", "phases": 0, "direct_bur": "No", "joint_tren": "No", "owner": "Electric Company", "owner_id": "Not Available", "other_1": "Not Available", "other_2": "Not Available", "load_date": "2021-04-23", "Shape_Leng": 14.3748146063}}, {"type": "Feature", "geometry": {"type": "LineString", "coordinates": [[-121.89663337064425, 37.44756264582714], [-121.89660269587225, 37.447550177985]]}, "properties": {"type": "Secondary Underground Conductor", "subtype": "Not Available", "voltage_di": "Not Available", "phases": 3, "direct_bur": "Not Available", "joint_tren": "Not Available", "owner": "Electric Company", "owner_id": "Not Available", "other_1": "Not Available", "other_2": "Not Available", "load_date": "2021-04-23", "Shape_Leng": 3.83619333781}}, {"type": "Feature", "geometry": {"type": "LineString", "coordinates": [[-121.90041130474204, 37.44718687020035], [-121.90040321990449, 37.4471510761396], [-121.90039329172397, 37.44714847301233], [-121.90037310208795, 37.44714011376379], [-121.90035613111561, 37.447129972263184], [-121.90034133945613, 37.447117785344176], [-121.90032914662281, 37.44710389034273], [-121.90031985983939, 37.44708863315322], [-121.90031371176957, 37.44707239889531], [-121.90025739638443, 37.44722174566188]]}, "properties": {"type": "Secondary Underground Conductor", "subtype": "Not Available", "voltage_di": "Not Available", "phases": 0, "direct_bur": "No", "joint_tren": "Yes", "owner": "Electric Company", "owner_id": "Not Available", "other_1": "Not Available", "other_2": "Not Available", "load_date": "2021-04-23", "Shape_Leng": 42.5217066181}}, {"type": "Feature", "geometry": {"type": "LineString", "coordinates": [[-121.9010430305926, 37.446914547779805], [-121.9010299484271, 37.446901015040076], [-121.9010241524969, 37.44681308176957]]}, "properties": {"type": "Secondary Underground Conductor", "subtype": "Not Available", "voltage_di": "Not Available", "phases": 0, "direct_bur": "No", "joint_tren": "Yes", "owner": "Electric Company", "owner_id": "Not Available", "other_1": "Not Available", "other_2": "Not Available", "load_date": "2021-04-23", "Shape_Leng": 14.7383971528}}, {"type": "Feature", "geometry": {"type": "LineString", "coordinates": [[-121.89971355810802, 37.44686813706933], [-121.89975631881386, 37.44676458135177]]}, "properties": {"type": "Secondary Underground Conductor", "subtype": "Not Available", "voltage_di": "Not Available", "phases": 0, "direct_bur": "No", "joint_tren": "No", "owner": "Electric Company", "owner_id": "Not Available", "other_1": "Not Available", "other_2": "Not Available", "load_date": "2021-04-23", "Shape_Leng": 15.280440306}}, {"type": "Feature", "geometry": {"type": "LineString", "coordinates": [[-121.89948010303365, 37.44709700595798], [-121.89942402390541, 37.4471931162761]]}, "properties": {"type": "Secondary Underground Conductor", "subtype": "Not Available", "voltage_di": "Not Available", "phases": 0, "direct_bur": "No", "joint_tren": "No", "owner": "Electric Company", "owner_id": "Not Available", "other_1": "Not Available", "other_2": "Not Available", "load_date": "2021-04-23", "Shape_Leng": 14.8519113157}}, {"type": "Feature", "geometry": {"type": "LineString", "coordinates": [[-121.9010430305926, 37.446914547779805], [-121.90104975717743, 37.4469497050773], [-121.90106714856132, 37.4469487330028], [-121.90107666621178, 37.44694819597263], [-121.90108921208304, 37.44694673964379], [-121.90110210200902, 37.44694361516931], [-121.90111286292785, 37.44693951505411], [-121.90113434254458, 37.44693130626484], [-121.90115563351513, 37.44692605934319], [-121.9011776602059, 37.44692335921455], [-121.9011999815441, 37.44692326364738], [-121.90122093744304, 37.44692558792613], [-121.90124131752188, 37.44693022792512], [-121.90126068699605, 37.446937090216394], [-121.90127866677645, 37.446946042146415], [-121.90128672196963, 37.4469514281382], [-121.90138603162258, 37.44683537176795]]}, "properties": {"type": "Secondary Underground Conductor", "subtype": "Not Available", "voltage_di": "Not Available", "phases": 0, "direct_bur": "No", "joint_tren": "Yes", "owner": "Electric Company", "owner_id": "Not Available", "other_1": "Not Available", "other_2": "Not Available", "load_date": "2021-04-23", "Shape_Leng": 52.6153290725}}, {"type": "Feature", "geometry": {"type": "LineString", "coordinates": [[-121.89864477768803, 37.446305769409335], [-121.89865497169907, 37.446315814241636]]}, "properties": {"type": "Secondary Underground Conductor", "subtype": "Not Available", "voltage_di": "Not Available", "phases": 0, "direct_bur": "No", "joint_tren": "No", "owner": "Electric Company", "owner_id": "Not Available", "other_1": "Not Available", "other_2": "Not Available", "load_date": "2021-04-23", "Shape_Leng": 11.5560223326}}, {"type": "Feature", "geometry": {"type": "LineString", "coordinates": [[-121.89786885868887, 37.44700642913396], [-121.8978544910342, 37.446998850809365], [-121.89769700648343, 37.44700627508557], [-121.89760679496764, 37.44695948073725]]}, "properties": {"type": "Secondary Underground Conductor", "subtype": "Not Available", "voltage_di": "Not Available", "phases": 0, "direct_bur": "No", "joint_tren": "No", "owner": "Electric Company", "owner_id": "Not Available", "other_1": "Not Available", "other_2": "Not Available", "load_date": "2021-04-23", "Shape_Leng": 31.4779561537}}, {"type": "Feature", "geometry": {"type": "LineString", "coordinates": [[-121.8953216659377, 37.44775366272234], [-121.8953089484882, 37.44774299997037], [-121.89528332045148, 37.44762774002497], [-121.89524457521496, 37.4476346279267], [-121.89519629256506, 37.44759430323944]]}, "properties": {"type": "Secondary Underground Conductor", "subtype": "Not Available", "voltage_di": "Not Available", "phases": 0, "direct_bur": "No", "joint_tren": "No", "owner": "Electric Company", "owner_id": "Not Available", "other_1": "Not Available", "other_2": "Not Available", "load_date": "2021-04-23", "Shape_Leng": 30.6913776402}}, {"type": "Feature", "geometry": {"type": "LineString", "coordinates": [[-121.89671896212452, 37.44720323922539], [-121.89663059485002, 37.447259140788056]]}, "properties": {"type": "Secondary Underground Conductor", "subtype": "Not Available", "voltage_di": "Not Available", "phases": 0, "direct_bur": "No", "joint_tren": "No", "owner": "Electric Company", "owner_id": "Not Available", "other_1": "Not Available", "other_2": "Not Available", "load_date": "2021-04-23", "Shape_Leng": 12.5779774142}}, {"type": "Feature", "geometry": {"type": "LineString", "coordinates": [[-121.89685314797009, 37.44751101573905], [-121.8967962019676, 37.44760584465185]]}, "properties": {"type": "Secondary Underground Conductor", "subtype": "Not Available", "voltage_di": "Not Available", "phases": 0, "direct_bur": "No", "joint_tren": "No", "owner": "Electric Company", "owner_id": "Not Available", "other_1": "Not Available", "other_2": "Not Available", "load_date": "2021-04-23", "Shape_Leng": 14.7304116768}}, {"type": "Feature", "geometry": {"type": "LineString", "coordinates": [[-121.89970959384269, 37.44701455518535], [-121.89982017196257, 37.44699881229725]]}, "properties": {"type": "Secondary Underground Conductor", "subtype": "Not Available", "voltage_di": "Not Available", "phases": 0, "direct_bur": "No", "joint_tren": "No", "owner": "Electric Company", "owner_id": "Not Available", "other_1": "Not Available", "other_2": "Not Available", "load_date": "2021-04-23", "Shape_Leng": 12.505854829}}, {"type": "Feature", "geometry": {"type": "LineString", "coordinates": [[-121.89883904548395, 37.44703816665852], [-121.89876096661438, 37.44696344819849]]}, "properties": {"type": "Secondary Underground Conductor", "subtype": "Not Available", "voltage_di": "Not Available", "phases": 0, "direct_bur": "No", "joint_tren": "No", "owner": "Electric Company", "owner_id": "Not Available", "other_1": "Not Available", "other_2": "Not Available", "load_date": "2021-04-23", "Shape_Leng": 13.6127474007}}, {"type": "Feature", "geometry": {"type": "LineString", "coordinates": [[-121.90041130474204, 37.44718687020035], [-121.90042799544004, 37.44716406324726], [-121.90043061582571, 37.44716442126634], [-121.90045090697136, 37.44716488911596], [-121.90047105977644, 37.44716308974916], [-121.9004848040003, 37.44716022274366], [-121.90048365505504, 37.447260065075135]]}, "properties": {"type": "Secondary Underground Conductor", "subtype": "Not Available", "voltage_di": "Not Available", "phases": 0, "direct_bur": "No", "joint_tren": "Yes", "owner": "Electric Company", "owner_id": "Not Available", "other_1": "Not Available", "other_2": "Not Available", "load_date": "2021-04-23", "Shape_Leng": 24.0937742918}}, {"type": "Feature", "geometry": {"type": "LineString", "coordinates": [[-121.89517677756385, 37.44714068573868], [-121.89516882208368, 37.447148010154905], [-121.89510525459922, 37.447177250757726]]}, "properties": {"type": "Secondary Underground Conductor", "subtype": "Not Available", "voltage_di": "Not Available", "phases": 0, "direct_bur": "No", "joint_tren": "No", "owner": "Electric Company", "owner_id": "Not Available", "other_1": "Not Available", "other_2": "Not Available", "load_date": "2021-04-23", "Shape_Leng": 9.53436857792}}, {"type": "Feature", "geometry": {"type": "LineString", "coordinates": [[-121.89948010303365, 37.44709700595798], [-121.8995549255103, 37.44717139407983]]}, "properties": {"type": "Secondary Underground Conductor", "subtype": "Not Available", "voltage_di": "Not Available", "phases": 0, "direct_bur": "No", "joint_tren": "No", "owner": "Electric Company", "owner_id": "Not Available", "other_1": "Not Available", "other_2": "Not Available", "load_date": "2021-04-23", "Shape_Leng": 13.3479892408}}, {"type": "Feature", "geometry": {"type": "LineString", "coordinates": [[-121.90066163107576, 37.447098141350224], [-121.90066619092416, 37.44685589804492]]}, "properties": {"type": "Secondary Underground Conductor", "subtype": "Not Available", "voltage_di": "Not Available", "phases": 0, "direct_bur": "No", "joint_tren": "Yes", "owner": "Electric Company", "owner_id": "Not Available", "other_1": "Not Available", "other_2": "Not Available", "load_date": "2021-04-23", "Shape_Leng": 33.9700926356}}, {"type": "Feature", "geometry": {"type": "LineString", "coordinates": [[-121.90066163107576, 37.447098141350224], [-121.90060474346376, 37.44724354629383]]}, "properties": {"type": "Secondary Underground Conductor", "subtype": "Not Available", "voltage_di": "Not Available", "phases": 0, "direct_bur": "No", "joint_tren": "Yes", "owner": "Electric Company", "owner_id": "Not Available", "other_1": "Not Available", "other_2": "Not Available", "load_date": "2021-04-23", "Shape_Leng": 21.3489510473}}, {"type": "Feature", "geometry": {"type": "LineString", "coordinates": [[-121.89725855496292, 37.44744700476426], [-121.89732128342088, 37.44750958794847]]}, "properties": {"type": "Secondary Underground Conductor", "subtype": "Not Available", "voltage_di": "Not Available", "phases": 0, "direct_bur": "No", "joint_tren": "No", "owner": "Electric Company", "owner_id": "Not Available", "other_1": "Not Available", "other_2": "Not Available", "load_date": "2021-04-23", "Shape_Leng": 11.2145007679}}, {"type": "Feature", "geometry": {"type": "LineString", "coordinates": [[-121.89846538854655, 37.44709704732279], [-121.89852707046722, 37.447005384315126]]}, "properties": {"type": "Secondary Underground Conductor", "subtype": "Not Available", "voltage_di": "Not Available", "phases": 0, "direct_bur": "No", "joint_tren": "No", "owner": "Electric Company", "owner_id": "Not Available", "other_1": "Not Available", "other_2": "Not Available", "load_date": "2021-04-23", "Shape_Leng": 14.5717801164}}, {"type": "Feature", "geometry": {"type": "LineString", "coordinates": [[-121.89806930157484, 37.44731911672892], [-121.89814822665738, 37.4473853073014]]}, "properties": {"type": "Secondary Underground Conductor", "subtype": "Not Available", "voltage_di": "Not Available", "phases": 0, "direct_bur": "No", "joint_tren": "No", "owner": "Electric Company", "owner_id": "Not Available", "other_1": "Not Available", "other_2": "Not Available", "load_date": "2021-04-23", "Shape_Leng": 12.7800234694}}, {"type": "Feature", "geometry": {"type": "LineString", "coordinates": [[-121.8941435640701, 37.44718583964776], [-121.89426062622971, 37.44724118066023]]}, "properties": {"type": "Secondary Underground Conductor", "subtype": "Not Available", "voltage_di": "Not Available", "phases": 0, "direct_bur": "No", "joint_tren": "No", "owner": "Electric Company", "owner_id": "Not Available", "other_1": "Not Available", "other_2": "Not Available", "load_date": "2021-04-23", "Shape_Leng": 15.166664882}}, {"type": "Feature", "geometry": {"type": "LineString", "coordinates": [[-121.89663337064425, 37.44756264582714], [-121.8965393808144, 37.447634757725645]]}, "properties": {"type": "Secondary Underground Conductor", "subtype": "Not Available", "voltage_di": "Not Available", "phases": 3, "direct_bur": "No", "joint_tren": "Not Available", "owner": "Electric Company", "owner_id": "Not Available", "other_1": "Not Available", "other_2": "Not Available", "load_date": "2021-04-23", "Shape_Leng": 14.5502805497}}, {"type": "Feature", "geometry": {"type": "LineString", "coordinates": [[-121.89564032981, 37.447543173826794], [-121.895720942827, 37.44744134066684]]}, "properties": {"type": "Secondary Underground Conductor", "subtype": "Not Available", "voltage_di": "Not Available", "phases": 0, "direct_bur": "No", "joint_tren": "No", "owner": "Electric Company", "owner_id": "Not Available", "other_1": "Not Available", "other_2": "Not Available", "load_date": "2021-04-23", "Shape_Leng": 16.8644703495}}, {"type": "Feature", "geometry": {"type": "LineString", "coordinates": [[-121.89786885868887, 37.44700642913396], [-121.89782896810036, 37.44699243497887], [-121.89782001549023, 37.44690870677151]]}, "properties": {"type": "Secondary Underground Conductor", "subtype": "Not Available", "voltage_di": "Not Available", "phases": 0, "direct_bur": "No", "joint_tren": "No", "owner": "Electric Company", "owner_id": "Not Available", "other_1": "Not Available", "other_2": "Not Available", "load_date": "2021-04-23", "Shape_Leng": 16.6370320268}}, {"type": "Feature", "geometry": {"type": "LineString", "coordinates": [[-121.8971834935344, 37.44729926881717], [-121.8972341351602, 37.44721183167831]]}, "properties": {"type": "Secondary Underground Conductor", "subtype": "Not Available", "voltage_di": "Not Available", "phases": 0, "direct_bur": "No", "joint_tren": "No", "owner": "Electric Company", "owner_id": "Not Available", "other_1": "Not Available", "other_2": "Not Available", "load_date": "2021-04-23", "Shape_Leng": 13.4940850276}}, {"type": "Feature", "geometry": {"type": "LineString", "coordinates": [[-121.8971834935344, 37.44729926881717], [-121.8971055476155, 37.44722651330258]]}, "properties": {"type": "Secondary Underground Conductor", "subtype": "Not Available", "voltage_di": "Not Available", "phases": 0, "direct_bur": "No", "joint_tren": "No", "owner": "Electric Company", "owner_id": "Not Available", "other_1": "Not Available", "other_2": "Not Available", "load_date": "2021-04-23", "Shape_Leng": 13.392505212}}, {"type": "Feature", "geometry": {"type": "LineString", "coordinates": [[-121.89608560313683, 37.44763263387275], [-121.89606588511633, 37.447552294708366]]}, "properties": {"type": "Secondary Underground Conductor", "subtype": "Not Available", "voltage_di": "Not Available", "phases": 0, "direct_bur": "No", "joint_tren": "No", "owner": "Electric Company", "owner_id": "Not Available", "other_1": "Not Available", "other_2": "Not Available", "load_date": "2021-04-23", "Shape_Leng": 11.4767589931}}, {"type": "Feature", "geometry": {"type": "LineString", "coordinates": [[-121.89971355810802, 37.44686813706933], [-121.89969653772835, 37.44687771019451], [-121.89961810941413, 37.44691623090301]]}, "properties": {"type": "Secondary Underground Conductor", "subtype": "Not Available", "voltage_di": "Not Available", "phases": 0, "direct_bur": "No", "joint_tren": "No", "owner": "Electric Company", "owner_id": "Not Available", "other_1": "Not Available", "other_2": "Not Available", "load_date": "2021-04-23", "Shape_Leng": 12.5882661232}}, {"type": "Feature", "geometry": {"type": "LineString", "coordinates": [[-121.89844885595207, 37.44727604183277], [-121.89842667654769, 37.447395612799546]]}, "properties": {"type": "Secondary Underground Conductor", "subtype": "Not Available", "voltage_di": "Not Available", "phases": 3, "direct_bur": "Not Available", "joint_tren": "Not Available", "owner": "Electric Company", "owner_id": "Not Available", "other_1": "Not Available", "other_2": "Not Available", "load_date": "2021-04-23", "Shape_Leng": 16.9466223955}}, {"type": "Feature", "geometry": {"type": "LineString", "coordinates": [[-121.89517677756385, 37.44714068573868], [-121.89526942710731, 37.447178854711424]]}, "properties": {"type": "Secondary Underground Conductor", "subtype": "Not Available", "voltage_di": "Not Available", "phases": 0, "direct_bur": "No", "joint_tren": "No", "owner": "Electric Company", "owner_id": "Not Available", "other_1": "Not Available", "other_2": "Not Available", "load_date": "2021-04-23", "Shape_Leng": 11.6196059029}}, {"type": "Feature", "geometry": {"type": "LineString", "coordinates": [[-121.89564032981, 37.447543173826794], [-121.89564549871618, 37.44757635103713], [-121.89560034220345, 37.44758352992165]]}, "properties": {"type": "Secondary Underground Conductor", "subtype": "Not Available", "voltage_di": "Not Available", "phases": 0, "direct_bur": "No", "joint_tren": "No", "owner": "Electric Company", "owner_id": "Not Available", "other_1": "Not Available", "other_2": "Not Available", "load_date": "2021-04-23", "Shape_Leng": 9.8140437668}}, {"type": "Feature", "geometry": {"type": "LineString", "coordinates": [[-121.8953216659377, 37.44775366272234], [-121.89538577510628, 37.447834222042836]]}, "properties": {"type": "Secondary Underground Conductor", "subtype": "Not Available", "voltage_di": "Not Available", "phases": 0, "direct_bur": "No", "joint_tren": "No", "owner": "Electric Company", "owner_id": "Not Available", "other_1": "Not Available", "other_2": "Not Available", "load_date": "2021-04-23", "Shape_Leng": 13.3613680884}}, {"type": "Feature", "geometry": {"type": "LineString", "coordinates": [[-121.89481465140145, 37.44714203365957], [-121.89467879199448, 37.44710512415449]]}, "properties": {"type": "Secondary Underground Conductor", "subtype": "Not Available", "voltage_di": "Not Available", "phases": 0, "direct_bur": "No", "joint_tren": "No", "owner": "Electric Company", "owner_id": "Not Available", "other_1": "Not Available", "other_2": "Not Available", "load_date": "2021-04-23", "Shape_Leng": 15.9847757761}}, {"type": "Feature", "geometry": {"type": "LineString", "coordinates": [[-121.89883904548395, 37.44703816665852], [-121.89888723201412, 37.44695615514444]]}, "properties": {"type": "Secondary Underground Conductor", "subtype": "Not Available", "voltage_di": "Not Available", "phases": 0, "direct_bur": "No", "joint_tren": "No", "owner": "Electric Company", "owner_id": "Not Available", "other_1": "Not Available", "other_2": "Not Available", "load_date": "2021-04-23", "Shape_Leng": 12.6888718722}}, {"type": "Feature", "geometry": {"type": "LineString", "coordinates": [[-121.8976618697794, 37.44738337314821], [-121.8976063053858, 37.447482954157145]]}, "properties": {"type": "Secondary Underground Conductor", "subtype": "Not Available", "voltage_di": "Not Available", "phases": 0, "direct_bur": "No", "joint_tren": "No", "owner": "Electric Company", "owner_id": "Not Available", "other_1": "Not Available", "other_2": "Not Available", "load_date": "2021-04-23", "Shape_Leng": 15.2715994424}}, {"type": "Feature", "geometry": {"type": "LineString", "coordinates": [[-121.8976618697794, 37.44738337314821], [-121.89774084247266, 37.447454916099765]]}, "properties": {"type": "Secondary Underground Conductor", "subtype": "Not Available", "voltage_di": "Not Available", "phases": 0, "direct_bur": "No", "joint_tren": "No", "owner": "Electric Company", "owner_id": "Not Available", "other_1": "Not Available", "other_2": "Not Available", "load_date": "2021-04-23", "Shape_Leng": 13.3385227683}}, {"type": "Feature", "geometry": {"type": "LineString", "coordinates": [[-121.8941435640701, 37.44718583964776], [-121.89410181756219, 37.447182745137006], [-121.8940944055628, 37.44710276564837], [-121.89409431123968, 37.447095702253904]]}, "properties": {"type": "Secondary Underground Conductor", "subtype": "Not Available", "voltage_di": "Not Available", "phases": 0, "direct_bur": "No", "joint_tren": "No", "owner": "Electric Company", "owner_id": "Not Available", "other_1": "Not Available", "other_2": "Not Available", "load_date": "2021-04-23", "Shape_Leng": 16.9025803162}}, {"type": "Feature", "geometry": {"type": "LineString", "coordinates": [[-121.89665097762384, 37.446949170899885], [-121.89663484208468, 37.44696340683362], [-121.89662189017494, 37.44697957978105], [-121.89661248122064, 37.44699724114626], [-121.89660687573327, 37.4470159016821], [-121.89660605287646, 37.447025472648804], [-121.896575134661, 37.44704367174587]]}, "properties": {"type": "Secondary Underground Conductor", "subtype": "Not Available", "voltage_di": "Not Available", "phases": 0, "direct_bur": "No", "joint_tren": "No", "owner": "Electric Company", "owner_id": "Not Available", "other_1": "Not Available", "other_2": "Not Available", "load_date": "2021-04-23", "Shape_Leng": 16.3809011858}}, {"type": "Feature", "geometry": {"type": "LineString", "coordinates": [[-121.89786885868887, 37.44700642913396], [-121.89795761852713, 37.44694316586115]]}, "properties": {"type": "Secondary Underground Conductor", "subtype": "Not Available", "voltage_di": "Not Available", "phases": 0, "direct_bur": "No", "joint_tren": "No", "owner": "Electric Company", "owner_id": "Not Available", "other_1": "Not Available", "other_2": "Not Available", "load_date": "2021-04-23", "Shape_Leng": 13.2783283098}}, {"type": "Feature", "geometry": {"type": "LineString", "coordinates": [[-121.89572641805864, 37.44768953214083], [-121.89568551596713, 37.44781286589363]]}, "properties": {"type": "Secondary Underground Conductor", "subtype": "Not Available", "voltage_di": "Not Available", "phases": 0, "direct_bur": "No", "joint_tren": "No", "owner": "Electric Company", "owner_id": "Not Available", "other_1": "Not Available", "other_2": "Not Available", "load_date": "2021-04-23", "Shape_Leng": 17.8828625353}}, {"type": "Feature", "geometry": {"type": "LineString", "coordinates": [[-121.8971834935344, 37.44729926881717], [-121.89721168536295, 37.44732385298333], [-121.89731019102373, 37.447307831305345]]}, "properties": {"type": "Secondary Underground Conductor", "subtype": "Not Available", "voltage_di": "Not Available", "phases": 0, "direct_bur": "No", "joint_tren": "No", "owner": "Electric Company", "owner_id": "Not Available", "other_1": "Not Available", "other_2": "Not Available", "load_date": "2021-04-23", "Shape_Leng": 15.8550504248}}, {"type": "Feature", "geometry": {"type": "LineString", "coordinates": [[-121.90108644976354, 37.44707429668404], [-121.90108402341394, 37.447168505679144]]}, "properties": {"type": "Secondary Underground Conductor", "subtype": "Not Available", "voltage_di": "Not Available", "phases": 0, "direct_bur": "No", "joint_tren": "Yes", "owner": "Electric Company", "owner_id": "Not Available", "other_1": "Not Available", "other_2": "Not Available", "load_date": "2021-04-23", "Shape_Leng": 13.2123611142}}, {"type": "Feature", "geometry": {"type": "LineString", "coordinates": [[-121.89685314797009, 37.44751101573905], [-121.89686418377336, 37.447484060303026], [-121.89692058988838, 37.44747519972474], [-121.89693640562726, 37.44748423004045]]}, "properties": {"type": "Secondary Underground Conductor", "subtype": "Not Available", "voltage_di": "Not Available", "phases": 0, "direct_bur": "No", "joint_tren": "No", "owner": "Electric Company", "owner_id": "Not Available", "other_1": "Not Available", "other_2": "Not Available", "load_date": "2021-04-23", "Shape_Leng": 12.5437072597}}, {"type": "Feature", "geometry": {"type": "LineString", "coordinates": [[-121.89806930157484, 37.44731911672892], [-121.898013252091, 37.44741298808018]]}, "properties": {"type": "Secondary Underground Conductor", "subtype": "Not Available", "voltage_di": "Not Available", "phases": 0, "direct_bur": "No", "joint_tren": "No", "owner": "Electric Company", "owner_id": "Not Available", "other_1": "Not Available", "other_2": "Not Available", "load_date": "2021-04-23", "Shape_Leng": 14.566271101}}, {"type": "Feature", "geometry": {"type": "LineString", "coordinates": [[-121.9010430305926, 37.446914547779805], [-121.90105439607758, 37.446941183913005], [-121.90106642272258, 37.4469405128035], [-121.90107555499577, 37.446939997168926], [-121.90108695102346, 37.44693867420598], [-121.9010983488478, 37.44693591131729], [-121.9011084000975, 37.44693208221298], [-121.90113056153557, 37.44692361096983], [-121.90115330957352, 37.44691800602734], [-121.90117684184067, 37.446915121182776], [-121.9012006687553, 37.44691501991014], [-121.90122307992499, 37.446917504656355], [-121.90124485239254, 37.446922462024396], [-121.9012671907987, 37.446930376981335], [-121.90134556521399, 37.44682524734253]]}, "properties": {"type": "Secondary Underground Conductor", "subtype": "Not Available", "voltage_di": "Not Available", "phases": 0, "direct_bur": "No", "joint_tren": "Yes", "owner": "Electric Company", "owner_id": "Not Available", "other_1": "Not Available", "other_2": "Not Available", "load_date": "2021-04-23", "Shape_Leng": 45.7396399612}}, {"type": "Feature", "geometry": {"type": "LineString", "coordinates": [[-121.90096681572724, 37.44709750019597], [-121.90084486942743, 37.44721095232122]]}, "properties": {"type": "Secondary Underground Conductor", "subtype": "Not Available", "voltage_di": "Not Available", "phases": 3, "direct_bur": "Not Available", "joint_tren": "Not Available", "owner": "Electric Company", "owner_id": "Not Available", "other_1": "Not Available", "other_2": "Not Available", "load_date": "2021-04-23", "Shape_Leng": 20.912645115}}, {"type": "Feature", "geometry": {"type": "LineString", "coordinates": [[-121.90096681572724, 37.44709750019597], [-121.90090475471753, 37.44680779276148]]}, "properties": {"type": "Secondary Underground Conductor", "subtype": "Not Available", "voltage_di": "Not Available", "phases": 0, "direct_bur": "No", "joint_tren": "Yes", "owner": "Electric Company", "owner_id": "Not Available", "other_1": "Not Available", "other_2": "Not Available", "load_date": "2021-04-23", "Shape_Leng": 41.2047936073}}, {"type": "Feature", "geometry": {"type": "LineString", "coordinates": [[-121.90087454609703, 37.44615809674518], [-121.90086362625057, 37.44618121310991]]}, "properties": {"type": "Secondary Underground Conductor", "subtype": "Not Available", "voltage_di": "Not Available", "phases": 0, "direct_bur": "No", "joint_tren": "No", "owner": "Electric Company", "owner_id": "Not Available", "other_1": "Not Available", "other_2": "Not Available", "load_date": "2021-04-23", "Shape_Leng": 14.3765386528}}, {"type": "Feature", "geometry": {"type": "LineString", "coordinates": [[-121.90106444788111, 37.44614551995365], [-121.90106254559382, 37.44615012993493]]}, "properties": {"type": "Secondary Underground Conductor", "subtype": "Not Available", "voltage_di": "Not Available", "phases": 0, "direct_bur": "No", "joint_tren": "No", "owner": "Electric Company", "owner_id": "Not Available", "other_1": "Not Available", "other_2": "Not Available", "load_date": "2021-04-23", "Shape_Leng": 12.6853294973}}, {"type": "Feature", "geometry": {"type": "LineString", "coordinates": [[-121.90071088210954, 37.446172719672695], [-121.90062328918282, 37.446241614265496]]}, "properties": {"type": "Secondary Underground Conductor", "subtype": "Not Available", "voltage_di": "Not Available", "phases": 0, "direct_bur": "No", "joint_tren": "No", "owner": "Electric Company", "owner_id": "Not Available", "other_1": "Not Available", "other_2": "Not Available", "load_date": "2021-04-23", "Shape_Leng": 13.725658474}}, {"type": "Feature", "geometry": {"type": "LineString", "coordinates": [[-121.89855860248551, 37.44631147659788], [-121.89854783143177, 37.446332109285116]]}, "properties": {"type": "Secondary Underground Conductor", "subtype": "Not Available", "voltage_di": "Not Available", "phases": 0, "direct_bur": "No", "joint_tren": "No", "owner": "Electric Company", "owner_id": "Not Available", "other_1": "Not Available", "other_2": "Not Available", "load_date": "2021-04-23", "Shape_Leng": 12.2141216614}}, {"type": "Feature", "geometry": {"type": "LineString", "coordinates": [[-121.8930972585294, 37.4479599989044], [-121.89302337119894, 37.4478731366466]]}, "properties": {"type": "Secondary Underground Conductor", "subtype": "Not Available", "voltage_di": "Not Available", "phases": 0, "direct_bur": "No", "joint_tren": "Yes", "owner": "Electric Company", "owner_id": "Not Available", "other_1": "Not Available", "other_2": "Not Available", "load_date": "2021-04-23", "Shape_Leng": 14.6967658415}}, {"type": "Feature", "geometry": {"type": "LineString", "coordinates": [[-121.89273719220394, 37.447375153709864], [-121.89262018663817, 37.44737613505026]]}, "properties": {"type": "Secondary Underground Conductor", "subtype": "Not Available", "voltage_di": "Not Available", "phases": 0, "direct_bur": "No", "joint_tren": "Yes", "owner": "Electric Company", "owner_id": "Not Available", "other_1": "Not Available", "other_2": "Not Available", "load_date": "2021-04-23", "Shape_Leng": 13.0257268039}}, {"type": "Feature", "geometry": {"type": "LineString", "coordinates": [[-121.89383727269419, 37.447534251921844], [-121.8937923659131, 37.44763700210601]]}, "properties": {"type": "Secondary Underground Conductor", "subtype": "Not Available", "voltage_di": "Not Available", "phases": 0, "direct_bur": "No", "joint_tren": "Yes", "owner": "Electric Company", "owner_id": "Not Available", "other_1": "Not Available", "other_2": "Not Available", "load_date": "2021-04-23", "Shape_Leng": 15.2499276847}}, {"type": "Feature", "geometry": {"type": "LineString", "coordinates": [[-121.89326952755312, 37.44795191788592], [-121.89335115386973, 37.44789391296448]]}, "properties": {"type": "Secondary Underground Conductor", "subtype": "Not Available", "voltage_di": "Not Available", "phases": 0, "direct_bur": "No", "joint_tren": "Yes", "owner": "Electric Company", "owner_id": "Not Available", "other_1": "Not Available", "other_2": "Not Available", "load_date": "2021-04-23", "Shape_Leng": 12.1949525788}}, {"type": "Feature", "geometry": {"type": "LineString", "coordinates": [[-121.89480331735749, 37.44748766116073], [-121.89465371193008, 37.4474469940665]]}, "properties": {"type": "Secondary Underground Conductor", "subtype": "Not Available", "voltage_di": "Not Available", "phases": 0, "direct_bur": "No", "joint_tren": "No", "owner": "Electric Company", "owner_id": "Not Available", "other_1": "Not Available", "other_2": "Not Available", "load_date": "2021-04-23", "Shape_Leng": 17.6031474699}}, {"type": "Feature", "geometry": {"type": "LineString", "coordinates": [[-121.89325163670591, 37.44811174017171], [-121.89332894751591, 37.44819086205775]]}, "properties": {"type": "Secondary Underground Conductor", "subtype": "Not Available", "voltage_di": "Not Available", "phases": 0, "direct_bur": "No", "joint_tren": "Yes", "owner": "Electric Company", "owner_id": "Not Available", "other_1": "Not Available", "other_2": "Not Available", "load_date": "2021-04-23", "Shape_Leng": 14.041017448}}, {"type": "Feature", "geometry": {"type": "LineString", "coordinates": [[-121.89300823548474, 37.44814153881475], [-121.8929760317801, 37.448262305105786]]}, "properties": {"type": "Secondary Underground Conductor", "subtype": "Not Available", "voltage_di": "Not Available", "phases": 0, "direct_bur": "No", "joint_tren": "Yes", "owner": "Electric Company", "owner_id": "Not Available", "other_1": "Not Available", "other_2": "Not Available", "load_date": "2021-04-23", "Shape_Leng": 17.3089086026}}, {"type": "Feature", "geometry": {"type": "LineString", "coordinates": [[-121.89453443542327, 37.44789518028257], [-121.89462781619538, 37.447936608807346]]}, "properties": {"type": "Secondary Underground Conductor", "subtype": "Not Available", "voltage_di": "Not Available", "phases": 0, "direct_bur": "No", "joint_tren": "No", "owner": "Electric Company", "owner_id": "Not Available", "other_1": "Not Available", "other_2": "Not Available", "load_date": "2021-04-23", "Shape_Leng": 11.9080890591}}, {"type": "Feature", "geometry": {"type": "LineString", "coordinates": [[-121.89273719220394, 37.447375153709864], [-121.89273873461129, 37.44728408726504]]}, "properties": {"type": "Secondary Underground Conductor", "subtype": "Not Available", "voltage_di": "Not Available", "phases": 0, "direct_bur": "No", "joint_tren": "Yes", "owner": "Electric Company", "owner_id": "Not Available", "other_1": "Not Available", "other_2": "Not Available", "load_date": "2021-04-23", "Shape_Leng": 12.7701543347}}, {"type": "Feature", "geometry": {"type": "LineString", "coordinates": [[-121.89278705139714, 37.4481493709143], [-121.89264729240355, 37.44817055009976]]}, "properties": {"type": "Secondary Underground Conductor", "subtype": "Not Available", "voltage_di": "Not Available", "phases": 0, "direct_bur": "No", "joint_tren": "Yes", "owner": "Electric Company", "owner_id": "Not Available", "other_1": "Not Available", "other_2": "Not Available", "load_date": "2021-04-23", "Shape_Leng": 15.8387932121}}, {"type": "Feature", "geometry": {"type": "LineString", "coordinates": [[-121.89273719220394, 37.447375153709864], [-121.89276602902287, 37.44743029489116]]}, "properties": {"type": "Secondary Underground Conductor", "subtype": "Not Available", "voltage_di": "Not Available", "phases": 0, "direct_bur": "No", "joint_tren": "No", "owner": "Electric Company", "owner_id": "Not Available", "other_1": "Not Available", "other_2": "Not Available", "load_date": "2021-04-23", "Shape_Leng": 8.37161435694}}, {"type": "Feature", "geometry": {"type": "LineString", "coordinates": [[-121.89267723954019, 37.447758063754755], [-121.89276635780627, 37.4477393306597]]}, "properties": {"type": "Secondary Underground Conductor", "subtype": "Not Available", "voltage_di": "Not Available", "phases": 0, "direct_bur": "No", "joint_tren": "No", "owner": "Electric Company", "owner_id": "Not Available", "other_1": "Not Available", "other_2": "Not Available", "load_date": "2021-04-23", "Shape_Leng": 10.2624488919}}, {"type": "Feature", "geometry": {"type": "LineString", "coordinates": [[-121.89305827973088, 37.447501590323625], [-121.89297532660262, 37.44757944196564]]}, "properties": {"type": "Secondary Underground Conductor", "subtype": "Not Available", "voltage_di": "Not Available", "phases": 0, "direct_bur": "No", "joint_tren": "Yes", "owner": "Electric Company", "owner_id": "Not Available", "other_1": "Not Available", "other_2": "Not Available", "load_date": "2021-04-23", "Shape_Leng": 14.2980255888}}, {"type": "Feature", "geometry": {"type": "LineString", "coordinates": [[-121.8926695697243, 37.447542290194505], [-121.89259804675969, 37.447485565117844]]}, "properties": {"type": "Secondary Underground Conductor", "subtype": "Not Available", "voltage_di": "Not Available", "phases": 0, "direct_bur": "No", "joint_tren": "Yes", "owner": "Electric Company", "owner_id": "Not Available", "other_1": "Not Available", "other_2": "Not Available", "load_date": "2021-04-23", "Shape_Leng": 11.2541008494}}, {"type": "Feature", "geometry": {"type": "LineString", "coordinates": [[-121.8926695697243, 37.447542290194505], [-121.89270170964852, 37.44755264987284], [-121.89271442440308, 37.44768028219033], [-121.89271666300473, 37.447702751651796], [-121.89266244518576, 37.44771139610953]]}, "properties": {"type": "Secondary Underground Conductor", "subtype": "Not Available", "voltage_di": "Not Available", "phases": 0, "direct_bur": "No", "joint_tren": "Yes", "owner": "Electric Company", "owner_id": "Not Available", "other_1": "Not Available", "other_2": "Not Available", "load_date": "2021-04-23", "Shape_Leng": 31.1299708188}}, {"type": "Feature", "geometry": {"type": "LineString", "coordinates": [[-121.8941128497722, 37.44748744435331], [-121.8942276347026, 37.447454376220506]]}, "properties": {"type": "Secondary Underground Conductor", "subtype": "Not Available", "voltage_di": "Not Available", "phases": 0, "direct_bur": "No", "joint_tren": "No", "owner": "Electric Company", "owner_id": "Not Available", "other_1": "Not Available", "other_2": "Not Available", "load_date": "2021-04-23", "Shape_Leng": 13.5930555726}}, {"type": "Feature", "geometry": {"type": "LineString", "coordinates": [[-121.89415895939742, 37.44785282674192], [-121.8941037157024, 37.44789180908796]]}, "properties": {"type": "Secondary Underground Conductor", "subtype": "Not Available", "voltage_di": "Not Available", "phases": 0, "direct_bur": "No", "joint_tren": "No", "owner": "Electric Company", "owner_id": "Not Available", "other_1": "Not Available", "other_2": "Not Available", "load_date": "2021-04-23", "Shape_Leng": 8.22775583362}}, {"type": "Feature", "geometry": {"type": "LineString", "coordinates": [[-121.8934537953741, 37.44747926415145], [-121.89352538391572, 37.4475544663467]]}, "properties": {"type": "Secondary Underground Conductor", "subtype": "Not Available", "voltage_di": "Not Available", "phases": 0, "direct_bur": "No", "joint_tren": "Yes", "owner": "Electric Company", "owner_id": "Not Available", "other_1": "Not Available", "other_2": "Not Available", "load_date": "2021-04-23", "Shape_Leng": 13.2172893524}}, {"type": "Feature", "geometry": {"type": "LineString", "coordinates": [[-121.89491474708029, 37.44781813486166], [-121.89498355892935, 37.447915721245515]]}, "properties": {"type": "Secondary Underground Conductor", "subtype": "Not Available", "voltage_di": "Not Available", "phases": 0, "direct_bur": "No", "joint_tren": "No", "owner": "Electric Company", "owner_id": "Not Available", "other_1": "Not Available", "other_2": "Not Available", "load_date": "2021-04-23", "Shape_Leng": 15.6815123875}}, {"type": "Feature", "geometry": {"type": "LineString", "coordinates": [[-121.89271080239584, 37.44795591096894], [-121.89263557208405, 37.44802809665879]]}, "properties": {"type": "Secondary Underground Conductor", "subtype": "Not Available", "voltage_di": "Not Available", "phases": 0, "direct_bur": "No", "joint_tren": "Yes", "owner": "Electric Company", "owner_id": "Not Available", "other_1": "Not Available", "other_2": "Not Available", "load_date": "2021-04-23", "Shape_Leng": 13.1370748642}}, {"type": "Feature", "geometry": {"type": "LineString", "coordinates": [[-121.89415895939742, 37.44785282674192], [-121.89416942836377, 37.44791253904407]]}, "properties": {"type": "Secondary Underground Conductor", "subtype": "Not Available", "voltage_di": "Not Available", "phases": 0, "direct_bur": "No", "joint_tren": "No", "owner": "Electric Company", "owner_id": "Not Available", "other_1": "Not Available", "other_2": "Not Available", "load_date": "2021-04-23", "Shape_Leng": 8.45341720412}}, {"type": "Feature", "geometry": {"type": "LineString", "coordinates": [[-121.8941128497722, 37.44748744435331], [-121.89403256643693, 37.447471789286155]]}, "properties": {"type": "Secondary Underground Conductor", "subtype": "Not Available", "voltage_di": "Not Available", "phases": 0, "direct_bur": "No", "joint_tren": "No", "owner": "Electric Company", "owner_id": "Not Available", "other_1": "Not Available", "other_2": "Not Available", "load_date": "2021-04-23", "Shape_Leng": 9.20272896704}}, {"type": "Feature", "geometry": {"type": "LineString", "coordinates": [[-121.89278705139714, 37.4481493709143], [-121.89281362446158, 37.44811977267693], [-121.89276973187847, 37.44811866226141]]}, "properties": {"type": "Secondary Underground Conductor", "subtype": "Not Available", "voltage_di": "Not Available", "phases": 0, "direct_bur": "No", "joint_tren": "No", "owner": "Electric Company", "owner_id": "Not Available", "other_1": "Not Available", "other_2": "Not Available", "load_date": "2021-04-23", "Shape_Leng": 9.98510009055}}, {"type": "Feature", "geometry": {"type": "LineString", "coordinates": [[-121.89383095304613, 37.447960697105465], [-121.89380768308702, 37.44792940000324], [-121.89388949086333, 37.4478180307375], [-121.89390051948006, 37.44780560572866], [-121.89391436790848, 37.44779461920066], [-121.89393037049697, 37.447785685914845], [-121.89394805383334, 37.44777906618249], [-121.89396689869136, 37.44777495826814], [-121.89398634721726, 37.447773481273174], [-121.89400582538757, 37.447774680841256], [-121.89402475917882, 37.447778521313346], [-121.89404197000134, 37.447784668207696], [-121.89410363665066, 37.44780917091197], [-121.89415026640043, 37.447823706217264], [-121.89415895939742, 37.44785282674192]]}, "properties": {"type": "Secondary Underground Conductor", "subtype": "Not Available", "voltage_di": "Not Available", "phases": 0, "direct_bur": "No", "joint_tren": "No", "owner": "Electric Company", "owner_id": "Not Available", "other_1": "Not Available", "other_2": "Not Available", "load_date": "2021-04-23", "Shape_Leng": 60.0887315684}}, {"type": "Feature", "geometry": {"type": "LineString", "coordinates": [[-121.8934537953741, 37.44747926415145], [-121.89349701422074, 37.44744834982684]]}, "properties": {"type": "Secondary Underground Conductor", "subtype": "Not Available", "voltage_di": "Not Available", "phases": 0, "direct_bur": "No", "joint_tren": "No", "owner": "Electric Company", "owner_id": "Not Available", "other_1": "Not Available", "other_2": "Not Available", "load_date": "2021-04-23", "Shape_Leng": 6.47582483806}}, {"type": "Feature", "geometry": {"type": "LineString", "coordinates": [[-121.8934537953741, 37.44747926415145], [-121.89337825065195, 37.44756090423763]]}, "properties": {"type": "Secondary Underground Conductor", "subtype": "Not Available", "voltage_di": "Not Available", "phases": 0, "direct_bur": "No", "joint_tren": "Yes", "owner": "Electric Company", "owner_id": "Not Available", "other_1": "Not Available", "other_2": "Not Available", "load_date": "2021-04-23", "Shape_Leng": 14.2042968678}}, {"type": "Feature", "geometry": {"type": "LineString", "coordinates": [[-121.89491474708029, 37.44781813486166], [-121.89491047289617, 37.44791645795867]]}, "properties": {"type": "Secondary Underground Conductor", "subtype": "Not Available", "voltage_di": "Not Available", "phases": 0, "direct_bur": "No", "joint_tren": "No", "owner": "Electric Company", "owner_id": "Not Available", "other_1": "Not Available", "other_2": "Not Available", "load_date": "2021-04-23", "Shape_Leng": 13.7948079085}}, {"type": "Feature", "geometry": {"type": "LineString", "coordinates": [[-121.89453443542327, 37.44789518028257], [-121.89454525113929, 37.44793782834183]]}, "properties": {"type": "Secondary Underground Conductor", "subtype": "Not Available", "voltage_di": "Not Available", "phases": 3, "direct_bur": "Not Available", "joint_tren": "Not Available", "owner": "Electric Company", "owner_id": "Not Available", "other_1": "Not Available", "other_2": "Not Available", "load_date": "2021-04-23", "Shape_Leng": 6.10000131555}}, {"type": "Feature", "geometry": {"type": "LineString", "coordinates": [[-121.89305827973088, 37.447501590323625], [-121.89314654908902, 37.44757675327147]]}, "properties": {"type": "Secondary Underground Conductor", "subtype": "Not Available", "voltage_di": "Not Available", "phases": 0, "direct_bur": "No", "joint_tren": "Yes", "owner": "Electric Company", "owner_id": "Not Available", "other_1": "Not Available", "other_2": "Not Available", "load_date": "2021-04-23", "Shape_Leng": 14.409193946}}, {"type": "Feature", "geometry": {"type": "LineString", "coordinates": [[-121.89290814789072, 37.447300472672], [-121.8928894979671, 37.44737621706636], [-121.89288056871318, 37.447376722713386], [-121.89286987516803, 37.44737683468316], [-121.89285953286416, 37.44737600097179], [-121.89284311615235, 37.44737468300881], [-121.89281975815834, 37.44737540974273], [-121.89279699484904, 37.44737915894784], [-121.89277531221303, 37.44738583719657], [-121.8927701046793, 37.44738828912075], [-121.89273719220394, 37.447375153709864]]}, "properties": {"type": "Secondary Underground Conductor", "subtype": "Not Available", "voltage_di": "Not Available", "phases": 0, "direct_bur": "No", "joint_tren": "Yes", "owner": "Electric Company", "owner_id": "Not Available", "other_1": "Not Available", "other_2": "Not Available", "load_date": "2021-04-23", "Shape_Leng": 28.5564808958}}, {"type": "Feature", "geometry": {"type": "LineString", "coordinates": [[-121.89453443542327, 37.44789518028257], [-121.8944620931951, 37.447960426811086]]}, "properties": {"type": "Secondary Underground Conductor", "subtype": "Not Available", "voltage_di": "Not Available", "phases": 0, "direct_bur": "No", "joint_tren": "No", "owner": "Electric Company", "owner_id": "Not Available", "other_1": "Not Available", "other_2": "Not Available", "load_date": "2021-04-23", "Shape_Leng": 12.1881553689}}, {"type": "Feature", "geometry": {"type": "LineString", "coordinates": [[-121.8941128497722, 37.44748744435331], [-121.89420564484274, 37.44755577218238]]}, "properties": {"type": "Secondary Underground Conductor", "subtype": "Not Available", "voltage_di": "Not Available", "phases": 0, "direct_bur": "No", "joint_tren": "No", "owner": "Electric Company", "owner_id": "Not Available", "other_1": "Not Available", "other_2": "Not Available", "load_date": "2021-04-23", "Shape_Leng": 14.0888837938}}, {"type": "Feature", "geometry": {"type": "LineString", "coordinates": [[-121.8930972585294, 37.4479599989044], [-121.89320056838035, 37.44787629602797]]}, "properties": {"type": "Secondary Underground Conductor", "subtype": "Not Available", "voltage_di": "Not Available", "phases": 0, "direct_bur": "No", "joint_tren": "Yes", "owner": "Electric Company", "owner_id": "Not Available", "other_1": "Not Available", "other_2": "Not Available", "load_date": "2021-04-23", "Shape_Leng": 16.4318891137}}, {"type": "Feature", "geometry": {"type": "LineString", "coordinates": [[-121.89319409691703, 37.447334234800614], [-121.8932959577854, 37.447250820063864]]}, "properties": {"type": "Secondary Underground Conductor", "subtype": "Not Available", "voltage_di": "Not Available", "phases": 0, "direct_bur": "No", "joint_tren": "Yes", "owner": "Electric Company", "owner_id": "Not Available", "other_1": "Not Available", "other_2": "Not Available", "load_date": "2021-04-23", "Shape_Leng": 16.2903021436}}, {"type": "Feature", "geometry": {"type": "LineString", "coordinates": [[-121.89381502501784, 37.44807570621291], [-121.8937421653601, 37.44800228320618], [-121.893880796968, 37.44781355981703], [-121.89389259723758, 37.44780026472868], [-121.89390770869728, 37.447788276895956], [-121.8939251710481, 37.447778527018755], [-121.89394446865703, 37.447771303935795], [-121.8939650328905, 37.447766820888475], [-121.89398625469079, 37.44776520981555], [-121.89400751062705, 37.447766519213474], [-121.89402817098028, 37.44777070985713], [-121.89404639061084, 37.447777216194666], [-121.89410783357965, 37.44780162975394], [-121.89416035448106, 37.44781800221034], [-121.89415895939742, 37.44785282674192]]}, "properties": {"type": "Secondary Underground Conductor", "subtype": "Not Available", "voltage_di": "Not Available", "phases": 0, "direct_bur": "No", "joint_tren": "No", "owner": "Electric Company", "owner_id": "Not Available", "other_1": "Not Available", "other_2": "Not Available", "load_date": "2021-04-23", "Shape_Leng": 83.6832316208}}, {"type": "Feature", "geometry": {"type": "LineString", "coordinates": [[-121.89271080239584, 37.44795591096894], [-121.89262327145285, 37.447911561276655]]}, "properties": {"type": "Secondary Underground Conductor", "subtype": "Not Available", "voltage_di": "Not Available", "phases": 0, "direct_bur": "No", "joint_tren": "Yes", "owner": "Electric Company", "owner_id": "Not Available", "other_1": "Not Available", "other_2": "Not Available", "load_date": "2021-04-23", "Shape_Leng": 11.5591770104}}, {"type": "Feature", "geometry": {"type": "LineString", "coordinates": [[-121.89389250021954, 37.44734176316845], [-121.89389333205948, 37.44723456230608]]}, "properties": {"type": "Secondary Underground Conductor", "subtype": "Not Available", "voltage_di": "Not Available", "phases": 0, "direct_bur": "No", "joint_tren": "Yes", "owner": "Electric Company", "owner_id": "Not Available", "other_1": "Not Available", "other_2": "Not Available", "load_date": "2021-04-23", "Shape_Leng": 15.0315852283}}, {"type": "Feature", "geometry": {"type": "LineString", "coordinates": [[-121.89453443542327, 37.44789518028257], [-121.89482564408556, 37.44796440420372]]}, "properties": {"type": "Secondary Underground Conductor", "subtype": "Not Available", "voltage_di": "Not Available", "phases": 3, "direct_bur": "Not Available", "joint_tren": "Not Available", "owner": "Electric Company", "owner_id": "Not Available", "other_1": "Not Available", "other_2": "Not Available", "load_date": "2021-04-23", "Shape_Leng": 33.8391645395}}, {"type": "Feature", "geometry": {"type": "LineString", "coordinates": [[-121.89325163670591, 37.44811174017171], [-121.89317119706381, 37.448185734324746]]}, "properties": {"type": "Secondary Underground Conductor", "subtype": "Not Available", "voltage_di": "Not Available", "phases": 0, "direct_bur": "No", "joint_tren": "Yes", "owner": "Electric Company", "owner_id": "Not Available", "other_1": "Not Available", "other_2": "Not Available", "load_date": "2021-04-23", "Shape_Leng": 13.705105628}}, {"type": "Feature", "geometry": {"type": "LineString", "coordinates": [[-121.89325163670591, 37.44811174017171], [-121.89326803904468, 37.448075308260286], [-121.89329735376735, 37.44809543624456]]}, "properties": {"type": "Secondary Underground Conductor", "subtype": "Not Available", "voltage_di": "Not Available", "phases": 0, "direct_bur": "No", "joint_tren": "No", "owner": "Electric Company", "owner_id": "Not Available", "other_1": "Not Available", "other_2": "Not Available", "load_date": "2021-04-23", "Shape_Leng": 9.73936412941}}, {"type": "Feature", "geometry": {"type": "LineString", "coordinates": [[-121.89389250021954, 37.44734176316845], [-121.89383952207564, 37.44737292715126]]}, "properties": {"type": "Secondary Underground Conductor", "subtype": "Not Available", "voltage_di": "Not Available", "phases": 0, "direct_bur": "No", "joint_tren": "No", "owner": "Electric Company", "owner_id": "Not Available", "other_1": "Not Available", "other_2": "Not Available", "load_date": "2021-04-23", "Shape_Leng": 7.33994443765}}, {"type": "Feature", "geometry": {"type": "LineString", "coordinates": [[-121.89319409691703, 37.447334234800614], [-121.89318840339475, 37.44733620818014], [-121.89311332579655, 37.44724908987802]]}, "properties": {"type": "Secondary Underground Conductor", "subtype": "Not Available", "voltage_di": "Not Available", "phases": 0, "direct_bur": "No", "joint_tren": "Yes", "owner": "Electric Company", "owner_id": "Not Available", "other_1": "Not Available", "other_2": "Not Available", "load_date": "2021-04-23", "Shape_Leng": 15.4924279089}}, {"type": "Feature", "geometry": {"type": "LineString", "coordinates": [[-121.89354331878035, 37.447314506707784], [-121.89362771639962, 37.447241717688314]]}, "properties": {"type": "Secondary Underground Conductor", "subtype": "Not Available", "voltage_di": "Not Available", "phases": 0, "direct_bur": "No", "joint_tren": "Yes", "owner": "Electric Company", "owner_id": "Not Available", "other_1": "Not Available", "other_2": "Not Available", "load_date": "2021-04-23", "Shape_Leng": 13.8720734769}}, {"type": "Feature", "geometry": {"type": "LineString", "coordinates": [[-121.89480331735749, 37.44748766116073], [-121.89467866443373, 37.447568011805444]]}, "properties": {"type": "Secondary Underground Conductor", "subtype": "Not Available", "voltage_di": "Not Available", "phases": 0, "direct_bur": "No", "joint_tren": "No", "owner": "Electric Company", "owner_id": "Not Available", "other_1": "Not Available", "other_2": "Not Available", "load_date": "2021-04-23", "Shape_Leng": 17.8741635845}}, {"type": "Feature", "geometry": {"type": "LineString", "coordinates": [[-121.89340262194563, 37.447960844020116], [-121.89349798260461, 37.44791504586572]]}, "properties": {"type": "Secondary Underground Conductor", "subtype": "Not Available", "voltage_di": "Not Available", "phases": 0, "direct_bur": "No", "joint_tren": "Yes", "owner": "Electric Company", "owner_id": "Not Available", "other_1": "Not Available", "other_2": "Not Available", "load_date": "2021-04-23", "Shape_Leng": 12.4067349065}}, {"type": "Feature", "geometry": {"type": "LineString", "coordinates": [[-121.8926695697243, 37.447542290194505], [-121.89268020398062, 37.4476561702669], [-121.89265640940539, 37.44766603212945]]}, "properties": {"type": "Secondary Underground Conductor", "subtype": "Not Available", "voltage_di": "Not Available", "phases": 0, "direct_bur": "No", "joint_tren": "Yes", "owner": "Electric Company", "owner_id": "Not Available", "other_1": "Not Available", "other_2": "Not Available", "load_date": "2021-04-23", "Shape_Leng": 18.9997434125}}, {"type": "Feature", "geometry": {"type": "LineString", "coordinates": [[-121.89278705139714, 37.4481493709143], [-121.89279841778045, 37.448237992967734]]}, "properties": {"type": "Secondary Underground Conductor", "subtype": "Not Available", "voltage_di": "Not Available", "phases": 0, "direct_bur": "No", "joint_tren": "Yes", "owner": "Electric Company", "owner_id": "Not Available", "other_1": "Not Available", "other_2": "Not Available", "load_date": "2021-04-23", "Shape_Leng": 12.4906525456}}]}