{"type": "FeatureCollection", "features": [{"type": "Feature", "geometry": {"type": "Polygon", "coordinates": [[[-121.89998292243757, 37.44636181520868], [-121.9001090351237, 37.44635962784553], [-121.90010143537633, 37.446407527304494], [-121.90004319220662, 37.446433262143024], [-121.89998547275461, 37.446396976331904], [-121.89998292243757, 37.44636181520868]]]}, "properties": {"type": "Vault", "subtype": "Not Available", "owner": "Electric Company", "owner_id": "Not Available", "sue_qualit": "Not Available", "location_d": "Not Available", "install_da": "Not Available", "other": "Not Available", "transfer_i": "Not Available", "load_date": "2021-04-15", "Shape_Leng": 41.3655146219, "Shape_Area": 106.711199632}}]}