{"type": "FeatureCollection", "features": [{"type": "Feature", "geometry": {"type": "LineString", "coordinates": [[-121.90156834239309, 37.44635812545529], [-121.90132808759184, 37.446371688652896]]}, "properties": {"type": "Primary Underground Conductor", "subtype": "Not Available", "voltage_di": "Not Available", "phases": 3, "direct_bur": "No", "joint_tren": "No", "owner": "Electric Company", "owner_id": "Not Available", "other_1": "Not Available", "other_2": "Not Available", "load_date": "2021-04-23", "symbol": "Not Available", "Shape_Leng": 193.871775466}}, {"type": "Feature", "geometry": {"type": "LineString", "coordinates": [[-121.89319409691704, 37.447334234800614], [-121.89318670737549, 37.44736769880334], [-121.89301982914179, 37.44737710497967], [-121.89288100349779, 37.44738495998109], [-121.89286942241712, 37.447385081935494], [-121.89285849351333, 37.44738420115405], [-121.89284279814873, 37.447382940245944], [-121.8928210140031, 37.44738361777009], [-121.89279992245854, 37.44738709168599], [-121.89277983253551, 37.44739327997721], [-121.89276871857884, 37.44739851188926], [-121.89273719220395, 37.447375153709864]]}, "properties": {"type": "Secondary Underground Conductor", "subtype": "Not Available", "voltage_di": "Not Available", "phases": 0, "direct_bur": "No", "joint_tren": "Yes", "owner": "Electric Company", "owner_id": "Not Available", "other_1": "Not Available", "other_2": "Not Available", "load_date": "2021-04-23", "symbol": "Not Available", "Shape_Leng": 56.6111038526}}, {"type": "Feature", "geometry": {"type": "LineString", "coordinates": [[-121.89725855496292, 37.447447004764285], [-121.8972499320345, 37.44740292221393], [-121.89720746867101, 37.4473796531839], [-121.89718349353441, 37.44729926881717]]}, "properties": {"type": "Secondary Underground Conductor", "subtype": "Not Available", "voltage_di": "Not Available", "phases": 0, "direct_bur": "No", "joint_tren": "No", "owner": "Electric Company", "owner_id": "Not Available", "other_1": "Not Available", "other_2": "Not Available", "load_date": "2021-04-23", "symbol": "Not Available", "Shape_Leng": 23.5817341341}}, {"type": "Feature", "geometry": {"type": "LineString", "coordinates": [[-121.89490614121986, 37.44777503172564], [-121.89491474708032, 37.44781813486166]]}, "properties": {"type": "Secondary Underground Conductor", "subtype": "Not Available", "voltage_di": "Not Available", "phases": 0, "direct_bur": "No", "joint_tren": "No", "owner": "Electric Company", "owner_id": "Not Available", "other_1": "Not Available", "other_2": "Not Available", "load_date": "2021-04-23", "symbol": "Not Available", "Shape_Leng": 6.11925505984}}, {"type": "Feature", "geometry": {"type": "LineString", "coordinates": [[-121.89663337064428, 37.44756264582714], [-121.89661986806722, 37.44749793383837], [-121.89684376686358, 37.447462087864196], [-121.89697434956658, 37.447441456915634], [-121.89706090314247, 37.447427798751036], [-121.89713532946213, 37.44741604977489], [-121.89726367895328, 37.447395788955816], [-121.89736991551541, 37.44737902772207], [-121.89746643500115, 37.44736380125553], [-121.89760134039727, 37.447342517003655], [-121.89766918476077, 37.44733181282842], [-121.89777505121701, 37.44731510007687], [-121.89779699705937, 37.447311636142146], [-121.89787194260524, 37.44729982296129], [-121.89797754675341, 37.44728317581555], [-121.89807472200928, 37.44726785732868], [-121.89820777418097, 37.44724686331563], [-121.89827743493798, 37.44723587100008], [-121.89830198499641, 37.447231999120014], [-121.89840724149654, 37.447215398316224], [-121.89841763680101, 37.44725031370277], [-121.89844885595207, 37.44727604183277]]}, "properties": {"type": "Primary Underground Conductor", "subtype": "Not Available", "voltage_di": "Not Available", "phases": 2, "direct_bur": "No", "joint_tren": "No", "owner": "Electric Company", "owner_id": "Not Available", "other_1": "Not Available", "other_2": "Not Available", "load_date": "2021-04-23", "symbol": "Not Available", "Shape_Leng": 222.112295532}}, {"type": "Feature", "geometry": {"type": "LineString", "coordinates": [[-121.8948146514014, 37.44714203365959], [-121.89485737437802, 37.4471442538064], [-121.89486018969814, 37.447155383066985], [-121.89486801402423, 37.44717199386871], [-121.89487987717587, 37.44718862178321], [-121.89488802220056, 37.44720023885577], [-121.89489411367653, 37.44721408605595], [-121.89489713291421, 37.447228560142996], [-121.89489699367533, 37.44724323177939], [-121.89489369955318, 37.44725766806201], [-121.89488779582513, 37.44727046687047], [-121.89487208339253, 37.44730014318093], [-121.8948598249821, 37.447329614082655], [-121.89484775611629, 37.447371403791415], [-121.89484146072277, 37.44741387100074], [-121.89484098012412, 37.447456632730415], [-121.89484343072819, 37.44747618106379], [-121.89480331735749, 37.44748766116076]]}, "properties": {"type": "Secondary Underground Conductor", "subtype": "Not Available", "voltage_di": "Not Available", "phases": 0, "direct_bur": "No", "joint_tren": "No", "owner": "Electric Company", "owner_id": "Not Available", "other_1": "Not Available", "other_2": "Not Available", "load_date": "2021-04-23", "symbol": "Not Available", "Shape_Leng": 57.8977078241}}, {"type": "Feature", "geometry": {"type": "LineString", "coordinates": [[-121.90080058517889, 37.44709026777579], [-121.90078738174084, 37.4470579611506], [-121.90076244091523, 37.44705935471687], [-121.90066899636281, 37.44706467223461], [-121.90066163107574, 37.447098141350196]]}, "properties": {"type": "Secondary Underground Conductor", "subtype": "Not Available", "voltage_di": "Not Available", "phases": 0, "direct_bur": "No", "joint_tren": "No", "owner": "Electric Company", "owner_id": "Not Available", "other_1": "Not Available", "other_2": "Not Available", "load_date": "2021-04-23", "symbol": "Not Available", "Shape_Leng": 22.7385233255}}, {"type": "Feature", "geometry": {"type": "LineString", "coordinates": [[-121.90071088210951, 37.446172719672695], [-121.90070715724009, 37.44616918255158]]}, "properties": {"type": "Secondary Underground Conductor", "subtype": "Not Available", "voltage_di": "Not Available", "phases": 0, "direct_bur": "No", "joint_tren": "No", "owner": "Electric Company", "owner_id": "Not Available", "other_1": "Not Available", "other_2": "Not Available", "load_date": "2021-04-23", "symbol": "Not Available", "Shape_Leng": 18.1278910155}}, {"type": "Feature", "geometry": {"type": "LineString", "coordinates": [[-121.90071088210951, 37.446172719672695], [-121.90072556260706, 37.446167963603564]]}, "properties": {"type": "Secondary Underground Conductor", "subtype": "Not Available", "voltage_di": "Not Available", "phases": 0, "direct_bur": "No", "joint_tren": "No", "owner": "Electric Company", "owner_id": "Not Available", "other_1": "Not Available", "other_2": "Not Available", "load_date": "2021-04-23", "symbol": "Not Available", "Shape_Leng": 34.995130397}}, {"type": "Feature", "geometry": {"type": "LineString", "coordinates": [[-121.89844885595207, 37.44727604183277], [-121.89844294863077, 37.447209767007806], [-121.89847516940335, 37.44719966117587], [-121.89846538854654, 37.44709704732279]]}, "properties": {"type": "Secondary Underground Conductor", "subtype": "Not Available", "voltage_di": "Not Available", "phases": 0, "direct_bur": "No", "joint_tren": "No", "owner": "Electric Company", "owner_id": "Not Available", "other_1": "Not Available", "other_2": "Not Available", "load_date": "2021-04-23", "symbol": "Not Available", "Shape_Leng": 27.6018321038}}, {"type": "Feature", "geometry": {"type": "LineString", "coordinates": [[-121.90003028790753, 37.44731130665116], [-121.89999459065479, 37.44730278909397], [-121.90001309055972, 37.44725536233644], [-121.90004916690154, 37.44715214877062], [-121.90006468619639, 37.44710220508421]]}, "properties": {"type": "Primary Underground Conductor", "subtype": "Not Available", "voltage_di": "Not Available", "phases": 2, "direct_bur": "No", "joint_tren": "No", "owner": "Electric Company", "owner_id": "Not Available", "other_1": "Not Available", "other_2": "Not Available", "load_date": "2021-04-23", "symbol": "Not Available", "Shape_Leng": 33.342905012}}, {"type": "Feature", "geometry": {"type": "LineString", "coordinates": [[-121.89383727269414, 37.447534251921844], [-121.8938205056394, 37.44750301169577], [-121.8938220866743, 37.44750205603161], [-121.8938332671063, 37.4474936839853], [-121.8938432878133, 37.44748442616556], [-121.89385204099746, 37.447474383844046], [-121.89385942784402, 37.44746366685039], [-121.89386537019965, 37.4474523942859], [-121.89386980248725, 37.447440686678235], [-121.89387267440117, 37.447428675252795], [-121.89387395719544, 37.44741648909562], [-121.89387363380193, 37.447404262285055], [-121.8938717096106, 37.4473921303258], [-121.8938682070793, 37.44738022515694], [-121.89386312800465, 37.44736860098045], [-121.8938623222159, 37.44736720100129], [-121.89389250021955, 37.44734176316843]]}, "properties": {"type": "Secondary Underground Conductor", "subtype": "Not Available", "voltage_di": "Not Available", "phases": 0, "direct_bur": "No", "joint_tren": "No", "owner": "Electric Company", "owner_id": "Not Available", "other_1": "Not Available", "other_2": "Not Available", "load_date": "2021-04-23", "symbol": "Not Available", "Shape_Leng": 30.6712715142}}, {"type": "Feature", "geometry": {"type": "LineString", "coordinates": [[-121.896575134661, 37.447043671745845], [-121.89661729439395, 37.44704864408244], [-121.89661778936565, 37.447052652903764], [-121.89662359607566, 37.44706975796643], [-121.89663286489278, 37.44708586813043], [-121.8966453397971, 37.44710053765526], [-121.8966606785306, 37.44711336573124], [-121.89667846337656, 37.447124000045505], [-121.89669971841451, 37.44713277294356], [-121.89671370069193, 37.44713852621251], [-121.89672768835919, 37.447146827693224], [-121.89673979764922, 37.44715683225993], [-121.89674970516847, 37.4471682731807], [-121.89675722047417, 37.447180975724415], [-121.89671896212454, 37.44720323922537]]}, "properties": {"type": "Secondary Underground Conductor", "subtype": "Not Available", "voltage_di": "Not Available", "phases": 0, "direct_bur": "No", "joint_tren": "No", "owner": "Electric Company", "owner_id": "Not Available", "other_1": "Not Available", "other_2": "Not Available", "load_date": "2021-04-23", "symbol": "Not Available", "Shape_Leng": 35.2217359422}}, {"type": "Feature", "geometry": {"type": "LineString", "coordinates": [[-121.89453443542331, 37.4478951802826], [-121.89455756165192, 37.44787130734328], [-121.89455717896962, 37.44783930201692], [-121.89468483675806, 37.44782095334576], [-121.8948875577716, 37.447788833175935], [-121.89489654990757, 37.44778740895652], [-121.89491474708032, 37.44781813486166]]}, "properties": {"type": "Secondary Underground Conductor", "subtype": "Not Available", "voltage_di": "Not Available", "phases": 0, "direct_bur": "No", "joint_tren": "No", "owner": "Electric Company", "owner_id": "Not Available", "other_1": "Not Available", "other_2": "Not Available", "load_date": "2021-04-23", "symbol": "Not Available", "Shape_Leng": 51.9459213947}}, {"type": "Feature", "geometry": {"type": "LineString", "coordinates": [[-121.8926772395402, 37.447758063754755], [-121.89273301413955, 37.44776279926819], [-121.89273836720037, 37.44781652878213], [-121.89275119873588, 37.44794507993579], [-121.89271080239585, 37.447955910968965]]}, "properties": {"type": "Secondary Underground Conductor", "subtype": "Not Available", "voltage_di": "Not Available", "phases": 0, "direct_bur": "No", "joint_tren": "Yes", "owner": "Electric Company", "owner_id": "Not Available", "other_1": "Not Available", "other_2": "Not Available", "load_date": "2021-04-23", "symbol": "Not Available", "Shape_Leng": 36.6295691446}}, {"type": "Feature", "geometry": {"type": "LineString", "coordinates": [[-121.90137388460333, 37.44719983305348], [-121.90133337687223, 37.447210395323786], [-121.90134083288909, 37.447293854323064], [-121.90134431091731, 37.447332899608945]]}, "properties": {"type": "Secondary Underground Conductor", "subtype": "Not Available", "voltage_di": "Not Available", "phases": 0, "direct_bur": "No", "joint_tren": "No", "owner": "Electric Company", "owner_id": "Not Available", "other_1": "Not Available", "other_2": "Not Available", "load_date": "2021-04-23", "symbol": "Not Available", "Shape_Leng": 39.0773956276}}, {"type": "Feature", "geometry": {"type": "LineString", "coordinates": [[-121.89345379537409, 37.44747926415142], [-121.8934446693891, 37.4473613906952], [-121.89319990003374, 37.4473752171832], [-121.89319409691704, 37.447334234800614]]}, "properties": {"type": "Secondary Underground Conductor", "subtype": "Not Available", "voltage_di": "Not Available", "phases": 0, "direct_bur": "No", "joint_tren": "Yes", "owner": "Electric Company", "owner_id": "Not Available", "other_1": "Not Available", "other_2": "Not Available", "load_date": "2021-04-23", "symbol": "Not Available", "Shape_Leng": 49.6580727327}}, {"type": "Feature", "geometry": {"type": "LineString", "coordinates": [[-121.89271080239585, 37.447955910968965], [-121.89275283905955, 37.447961510841395], [-121.89276102001688, 37.448043517687495], [-121.89276291546209, 37.448058112854085], [-121.89276692194828, 37.44807143285786], [-121.89277419740372, 37.44808608364681], [-121.89278409773648, 37.44809963471475], [-121.89279643609689, 37.44811185000089], [-121.89280416520162, 37.44811750406308], [-121.89278705139714, 37.4481493709143]]}, "properties": {"type": "Secondary Underground Conductor", "subtype": "Not Available", "voltage_di": "Not Available", "phases": 0, "direct_bur": "No", "joint_tren": "No", "owner": "Electric Company", "owner_id": "Not Available", "other_1": "Not Available", "other_2": "Not Available", "load_date": "2021-04-23", "symbol": "Not Available", "Shape_Leng": 32.8850018444}}, {"type": "Feature", "geometry": {"type": "LineString", "coordinates": [[-121.89411284977224, 37.447487444353285], [-121.89407150121802, 37.44748531265127], [-121.89406364365418, 37.447507103221874], [-121.89405221079559, 37.4475378470717], [-121.89404200862889, 37.44756066674811], [-121.89403180736049, 37.44758348784393], [-121.89402699239058, 37.44759671593179], [-121.89392820465876, 37.44772494867167], [-121.89403158278172, 37.44776289768697], [-121.8940508094237, 37.447769764180926], [-121.89411202871207, 37.44779408930839], [-121.89417724909663, 37.44781439922902], [-121.89415895939743, 37.44785282674195]]}, "properties": {"type": "Secondary Underground Conductor", "subtype": "Not Available", "voltage_di": "Not Available", "phases": 0, "direct_bur": "No", "joint_tren": "No", "owner": "Electric Company", "owner_id": "Not Available", "other_1": "Not Available", "other_2": "Not Available", "load_date": "2021-04-23", "symbol": "Not Available", "Shape_Leng": 78.2888164151}}, {"type": "Feature", "geometry": {"type": "LineString", "coordinates": [[-121.90004882105015, 37.44637278483049], [-121.90004932769996, 37.44635290029482], [-121.90007494495693, 37.446286502695884], [-121.90007452724033, 37.446263815998165]]}, "properties": {"type": "Primary Underground Conductor", "subtype": "Not Available", "voltage_di": "Not Available", "phases": 3, "direct_bur": "No", "joint_tren": "No", "owner": "Electric Company", "owner_id": "Not Available", "other_1": "Not Available", "other_2": "Not Available", "load_date": "2021-04-23", "symbol": "Not Available", "Shape_Leng": 15.7068696414}}, {"type": "Feature", "geometry": {"type": "LineString", "coordinates": [[-121.89480331735749, 37.44748766116076], [-121.89484644816926, 37.44749993716728], [-121.8948477219803, 37.44750592504491], [-121.89485011419393, 37.44751642522513], [-121.8948743004346, 37.447612338879665], [-121.89487618150685, 37.4476249878594], [-121.89490614121986, 37.44777503172564]]}, "properties": {"type": "Secondary Underground Conductor", "subtype": "Not Available", "voltage_di": "Not Available", "phases": 0, "direct_bur": "No", "joint_tren": "No", "owner": "Electric Company", "owner_id": "Not Available", "other_1": "Not Available", "other_2": "Not Available", "load_date": "2021-04-23", "symbol": "Not Available", "Shape_Leng": 44.2510853516}}, {"type": "Feature", "geometry": {"type": "LineString", "coordinates": [[-121.89312599563534, 37.44806849670901], [-121.8931707667708, 37.448065960652286], [-121.89323374765537, 37.44806240903155], [-121.89328999387023, 37.44806203889282], [-121.89334649790159, 37.44806538012633], [-121.8934033199366, 37.44807251688652], [-121.89342281337825, 37.448076990644196], [-121.89344189988311, 37.44808427289131], [-121.89345921221528, 37.44809396710086], [-121.89347428145412, 37.448105810109844], [-121.89348668539161, 37.44811947599558], [-121.89349608715936, 37.44813458534744], [-121.8935022307376, 37.44815072594871], [-121.89350494275139, 37.44816745705618], [-121.89350415223399, 37.448184312965594], [-121.89350039817442, 37.44819882181051], [-121.89348757386465, 37.4482400952026]]}, "properties": {"type": "Primary Underground Conductor", "subtype": "Not Available", "voltage_di": "Not Available", "phases": 2, "direct_bur": "No", "joint_tren": "No", "owner": "Electric Company", "owner_id": "Not Available", "other_1": "Not Available", "other_2": "Not Available", "load_date": "2021-04-23", "symbol": "Not Available", "Shape_Leng": 69.798827033}}, {"type": "Feature", "geometry": {"type": "LineString", "coordinates": [[-121.90132388822272, 37.447336216076366], [-121.9013202120617, 37.447295023231916], [-121.90130443045884, 37.44710650773527], [-121.9013088214239, 37.44708853188077], [-121.90131845405875, 37.44706175886825], [-121.90131997400816, 37.447039750646], [-121.90131356722357, 37.44701132373563], [-121.90129255562906, 37.44697945212053], [-121.9012664919094, 37.44695941298444], [-121.90124260660433, 37.44694872087865], [-121.9011986062234, 37.44693975325875], [-121.9011510934297, 37.4469444303426], [-121.90109373510046, 37.44696287194312], [-121.90109105362936, 37.447027394687], [-121.90099304743185, 37.44702994076359], [-121.90096681572723, 37.44709750019597]]}, "properties": {"type": "Primary Underground Conductor", "subtype": "Not Available", "voltage_di": "Not Available", "phases": 2, "direct_bur": "No", "joint_tren": "No", "owner": "Electric Company", "owner_id": "Not Available", "other_1": "Not Available", "other_2": "Not Available", "load_date": "2021-04-23", "symbol": "Not Available", "Shape_Leng": 220.501532851}}, {"type": "Feature", "geometry": {"type": "LineString", "coordinates": [[-121.89491474708032, 37.44781813486166], [-121.89491682668017, 37.447784196796086], [-121.89509030842949, 37.44775671299224], [-121.89529302764643, 37.447724592794856], [-121.89530346247679, 37.44772293893026], [-121.89532166593773, 37.44775366272234]]}, "properties": {"type": "Secondary Underground Conductor", "subtype": "Not Available", "voltage_di": "Not Available", "phases": 0, "direct_bur": "No", "joint_tren": "No", "owner": "Electric Company", "owner_id": "Not Available", "other_1": "Not Available", "other_2": "Not Available", "load_date": "2021-04-23", "symbol": "Not Available", "Shape_Leng": 53.4139358725}}, {"type": "Feature", "geometry": {"type": "LineString", "coordinates": [[-121.90129363899729, 37.44637220500458], [-121.90054675272062, 37.44641610130579]]}, "properties": {"type": "Primary Underground Conductor", "subtype": "Not Available", "voltage_di": "Not Available", "phases": 3, "direct_bur": "No", "joint_tren": "No", "owner": "Electric Company", "owner_id": "Not Available", "other_1": "Not Available", "other_2": "Not Available", "load_date": "2021-04-23", "symbol": "Not Available", "Shape_Leng": 83.3705058331}}, {"type": "Feature", "geometry": {"type": "LineString", "coordinates": [[-121.90007671373975, 37.446221960056796], [-121.90007223518198, 37.4462112320684]]}, "properties": {"type": "Primary Underground Conductor", "subtype": "Not Available", "voltage_di": "Not Available", "phases": 3, "direct_bur": "No", "joint_tren": "No", "owner": "Electric Company", "owner_id": "Not Available", "other_1": "Not Available", "other_2": "Not Available", "load_date": "2021-04-23", "symbol": "Not Available", "Shape_Leng": 92.2581231956}}, {"type": "Feature", "geometry": {"type": "LineString", "coordinates": [[-121.89389250021955, 37.44734176316843], [-121.8938530246527, 37.44735457408662], [-121.89384485717011, 37.44734566998875], [-121.89382801286024, 37.447332776339756], [-121.89380862362313, 37.44732240165414], [-121.8937872724655, 37.44731486472615], [-121.89376460797081, 37.44731039020972], [-121.89374131285891, 37.44730911574983], [-121.89371791623728, 37.447311091982804], [-121.89370001011875, 37.447314931765426], [-121.89368277953328, 37.44732077773432], [-121.89366550942195, 37.44732906778381], [-121.89365437749892, 37.44733442379436], [-121.89364115160305, 37.447338983891406], [-121.89362727712347, 37.44734208196153], [-121.89361369549465, 37.447343588205534], [-121.89355654467624, 37.44734680822996], [-121.89354331878039, 37.447314506707784]]}, "properties": {"type": "Secondary Underground Conductor", "subtype": "Not Available", "voltage_di": "Not Available", "phases": 0, "direct_bur": "No", "joint_tren": "Yes", "owner": "Electric Company", "owner_id": "Not Available", "other_1": "Not Available", "other_2": "Not Available", "load_date": "2021-04-23", "symbol": "Not Available", "Shape_Leng": 45.6418235167}}, {"type": "Feature", "geometry": {"type": "LineString", "coordinates": [[-121.90051229783788, 37.44641604496356], [-121.9003343730211, 37.446424905667364], [-121.90027847804754, 37.44637989892996], [-121.90006656996356, 37.446386090870455]]}, "properties": {"type": "Primary Underground Conductor", "subtype": "Not Available", "voltage_di": "Not Available", "phases": 3, "direct_bur": "No", "joint_tren": "No", "owner": "Electric Company", "owner_id": "Not Available", "other_1": "Not Available", "other_2": "Not Available", "load_date": "2021-04-23", "symbol": "Not Available", "Shape_Leng": 52.3131474365}}, {"type": "Feature", "geometry": {"type": "LineString", "coordinates": [[-121.89517677756385, 37.44714068573866], [-121.8948146514014, 37.44714203365959]]}, "properties": {"type": "Secondary Underground Conductor", "subtype": "Not Available", "voltage_di": "Not Available", "phases": 0, "direct_bur": "No", "joint_tren": "No", "owner": "Electric Company", "owner_id": "Not Available", "other_1": "Not Available", "other_2": "Not Available", "load_date": "2021-04-23", "symbol": "Not Available", "Shape_Leng": 40.312143057}}, {"type": "Feature", "geometry": {"type": "LineString", "coordinates": [[-121.89572641805866, 37.44768953214085], [-121.89564032981004, 37.44754317382682]]}, "properties": {"type": "Secondary Underground Conductor", "subtype": "Not Available", "voltage_di": "Not Available", "phases": 0, "direct_bur": "No", "joint_tren": "No", "owner": "Electric Company", "owner_id": "Not Available", "other_1": "Not Available", "other_2": "Not Available", "load_date": "2021-04-23", "symbol": "Not Available", "Shape_Leng": 22.6492388046}}, {"type": "Feature", "geometry": {"type": "LineString", "coordinates": [[-121.89296456119226, 37.446712612660946], [-121.89248049322158, 37.44675375014614], [-121.89234635139348, 37.4467226843256], [-121.89233054194277, 37.446700578296536]]}, "properties": {"type": "Primary Underground Conductor", "subtype": "Not Available", "voltage_di": "Not Available", "phases": 3, "direct_bur": "No", "joint_tren": "No", "owner": "Electric Company", "owner_id": "Not Available", "other_1": "Not Available", "other_2": "Not Available", "load_date": "2021-04-23", "symbol": "Not Available", "Shape_Leng": 73.3133587831}}, {"type": "Feature", "geometry": {"type": "LineString", "coordinates": [[-121.89847026639852, 37.44724395423549], [-121.89848072548338, 37.447203808347], [-121.89848811682158, 37.447202643002605], [-121.89857874246071, 37.44718835576513], [-121.89860203936928, 37.44718468428771], [-121.89862171157571, 37.447182979775], [-121.89895362559845, 37.44712933966742], [-121.89901411096314, 37.44711984502487], [-121.89911337120878, 37.44710425620715], [-121.89928171369645, 37.44707779272306], [-121.8993098552193, 37.447073370255055], [-121.89946918041808, 37.4470483238617], [-121.89957759719147, 37.44703267512136], [-121.89957825206328, 37.44703261093456], [-121.89959633784491, 37.44702850369237], [-121.899616342428, 37.44702111721722], [-121.89963496360546, 37.447009549326644], [-121.89964127337203, 37.44700502986124], [-121.8996525436356, 37.446994195124496], [-121.89966226879689, 37.446981096016984], [-121.89968251502675, 37.446954830755466], [-121.89986940952164, 37.447024340108186], [-121.90002042799901, 37.447080504970295], [-121.90006468619639, 37.44710220508421]]}, "properties": {"type": "Primary Underground Conductor", "subtype": "Not Available", "voltage_di": "Not Available", "phases": 2, "direct_bur": "No", "joint_tren": "No", "owner": "Electric Company", "owner_id": "Not Available", "other_1": "Not Available", "other_2": "Not Available", "load_date": "2021-04-23", "symbol": "Not Available", "Shape_Leng": 194.148468196}}, {"type": "Feature", "geometry": {"type": "LineString", "coordinates": [[-121.89415895939743, 37.44785282674195], [-121.89419151613995, 37.447826382065344], [-121.89422328955156, 37.447833792709076], [-121.89427708785728, 37.447843293679554], [-121.89433161200175, 37.44784962171608], [-121.89438657362584, 37.44785273902093], [-121.89444167359038, 37.44785263632316], [-121.89449680948762, 37.44784929864608], [-121.89451384963017, 37.44784751427243], [-121.89453443542331, 37.4478951802826]]}, "properties": {"type": "Secondary Underground Conductor", "subtype": "Not Available", "voltage_di": "Not Available", "phases": 0, "direct_bur": "No", "joint_tren": "No", "owner": "Electric Company", "owner_id": "Not Available", "other_1": "Not Available", "other_2": "Not Available", "load_date": "2021-04-23", "symbol": "Not Available", "Shape_Leng": 48.5427617729}}, {"type": "Feature", "geometry": {"type": "LineString", "coordinates": [[-121.89663337064428, 37.44756264582714], [-121.89663141950345, 37.4475125412356], [-121.89682841914694, 37.44748163405655], [-121.89685314797008, 37.44751101573905]]}, "properties": {"type": "Secondary Underground Conductor", "subtype": "Not Available", "voltage_di": "Not Available", "phases": 0, "direct_bur": "No", "joint_tren": "No", "owner": "Electric Company", "owner_id": "Not Available", "other_1": "Not Available", "other_2": "Not Available", "load_date": "2021-04-23", "symbol": "Not Available", "Shape_Leng": 34.3377223546}}, {"type": "Feature", "geometry": {"type": "LineString", "coordinates": [[-121.89299933407858, 37.446726658931304], [-121.89300979585839, 37.44674490873746], [-121.89304779369658, 37.44674416916003], [-121.89305780721703, 37.44676571175668]]}, "properties": {"type": "Primary Underground Conductor", "subtype": "Not Available", "voltage_di": "Not Available", "phases": 3, "direct_bur": "No", "joint_tren": "Yes", "owner": "Electric Company", "owner_id": "Not Available", "other_1": "Not Available", "other_2": "Not Available", "load_date": "2021-04-23", "symbol": "Not Available", "Shape_Leng": 10.2623404181}}, {"type": "Feature", "geometry": {"type": "LineString", "coordinates": [[-121.89326998120234, 37.44679591531398], [-121.89326885471499, 37.44679017200327], [-121.89326698172763, 37.44678455492664], [-121.89326438290149, 37.44677912470512], [-121.89326108608442, 37.44677394124658], [-121.89325712810725, 37.446769060179975], [-121.89325440621192, 37.44676625306727], [-121.89324353839362, 37.446760827836734], [-121.89323202109338, 37.446756338310216], [-121.89321997648203, 37.44675283298467], [-121.89320754020521, 37.446750349659375], [-121.89319484521371, 37.44674891828825], [-121.8931819409146, 37.446748548856185], [-121.89317329822323, 37.44674896321918], [-121.89317087636525, 37.44674962577211], [-121.89315725071899, 37.44675425223142], [-121.89314460603309, 37.44675985504655], [-121.89313276444099, 37.44676648128779], [-121.8931218579951, 37.44677405820965], [-121.8931119576624, 37.44680632929802], [-121.89307779742707, 37.44681053996477], [-121.89305780721703, 37.44676571175668]]}, "properties": {"type": "Primary Underground Conductor", "subtype": "Not Available", "voltage_di": "Not Available", "phases": 3, "direct_bur": "No", "joint_tren": "Yes", "owner": "Electric Company", "owner_id": "Not Available", "other_1": "Not Available", "other_2": "Not Available", "load_date": "2021-04-23", "symbol": "Not Available", "Shape_Leng": 36.0569373581}}, {"type": "Feature", "geometry": {"type": "LineString", "coordinates": [[-121.9000498801639, 37.446400242041356], [-121.90004965019514, 37.44641606421976], [-121.90016843622185, 37.446445951974084], [-121.90016875781869, 37.446632137715504]]}, "properties": {"type": "Primary Underground Conductor", "subtype": "Not Available", "voltage_di": "Not Available", "phases": 3, "direct_bur": "No", "joint_tren": "No", "owner": "Electric Company", "owner_id": "Not Available", "other_1": "Not Available", "other_2": "Not Available", "load_date": "2021-04-23", "symbol": "Not Available", "Shape_Leng": 42.1960450907}}, {"type": "Feature", "geometry": {"type": "LineString", "coordinates": [[-121.89334438506405, 37.446813739329635], [-121.89332232783055, 37.44677434919081], [-121.89331414956824, 37.4467700008765], [-121.89330544668975, 37.44676635719291], [-121.8932963135182, 37.44676345879189], [-121.89328684976677, 37.446761337053864], [-121.89327809748094, 37.4467601082288], [-121.89326629541476, 37.446752741696386], [-121.89325359323661, 37.44674640001652], [-121.8932401274905, 37.44674115094236], [-121.89322604909337, 37.44673705366879], [-121.8932115089622, 37.446734151700774], [-121.89319666879368, 37.44673247713169], [-121.89318168938632, 37.44673204921796], [-121.89316924592302, 37.4467326447313], [-121.89316345897596, 37.44673423015158], [-121.89314815437845, 37.44673942502388], [-121.89313361694218, 37.44674586797723], [-121.89312000207575, 37.4467534862661], [-121.89310746069609, 37.44676219787333], [-121.89309613024538, 37.44677190723113], [-121.89308613469123, 37.4467825080741], [-121.89307736803237, 37.44676036426371]]}, "properties": {"type": "Primary Underground Conductor", "subtype": "Not Available", "voltage_di": "Not Available", "phases": 3, "direct_bur": "No", "joint_tren": "No", "owner": "Electric Company", "owner_id": "Not Available", "other_1": "Not Available", "other_2": "Not Available", "load_date": "2021-04-23", "symbol": "Not Available", "Shape_Leng": 39.5531017051}}, {"type": "Feature", "geometry": {"type": "LineString", "coordinates": [[-121.89998409384071, 37.44737966174206], [-121.90003028790753, 37.44731130665116]]}, "properties": {"type": "Primary Underground Conductor", "subtype": "Not Available", "voltage_di": "Not Available", "phases": 3, "direct_bur": "No", "joint_tren": "No", "owner": "Electric Company", "owner_id": "Not Available", "other_1": "Not Available", "other_2": "Not Available", "load_date": "2021-04-23", "symbol": "Not Available", "Shape_Leng": 10.8768510849}}, {"type": "Feature", "geometry": {"type": "LineString", "coordinates": [[-121.89358341900564, 37.448232485977144], [-121.89360396674014, 37.448176241242656], [-121.89363530536716, 37.44811508782154], [-121.89373469946179, 37.44797983095096], [-121.89386340738072, 37.447804617262186], [-121.89387675185431, 37.447789584153874], [-121.89389438937654, 37.44777559014525], [-121.89391477215041, 37.447764212077175], [-121.89393729560948, 37.44775578015308], [-121.89396129859385, 37.44775054683976], [-121.89398606963783, 37.447748666897596], [-121.89401088020766, 37.44775019524211], [-121.89403499548145, 37.44775508622915], [-121.89405523003327, 37.447762312879576], [-121.89411622384443, 37.44778654886205], [-121.89417733443659, 37.44780559717055], [-121.89422850157685, 37.447817831760496], [-121.89428081766238, 37.44782707099633], [-121.89433383802705, 37.44783322501856], [-121.89438728239652, 37.447836255316204], [-121.89444086600496, 37.44783615404478], [-121.89449467868373, 37.44783289766936], [-121.89453443542331, 37.4478951802826]]}, "properties": {"type": "Primary Underground Conductor", "subtype": "Not Available", "voltage_di": "Not Available", "phases": 2, "direct_bur": "No", "joint_tren": "No", "owner": "Electric Company", "owner_id": "Not Available", "other_1": "Not Available", "other_2": "Not Available", "load_date": "2021-04-23", "symbol": "Not Available", "Shape_Leng": 155.984377633}}, {"type": "Feature", "geometry": {"type": "LineString", "coordinates": [[-121.90003213125051, 37.44638693600398], [-121.90001201258139, 37.44638786315458], [-121.89998491040927, 37.446447155129476], [-121.89985380848006, 37.44645444324074], [-121.89776184777891, 37.44657072984945], [-121.8977118744997, 37.44650741699793], [-121.89767523491419, 37.44657552891205], [-121.89683505949354, 37.44662334407629], [-121.89603144101338, 37.446666890053734], [-121.89570440304597, 37.44668341110201], [-121.89565500379018, 37.44663253424945], [-121.89541452838188, 37.44664467988247], [-121.89537885897688, 37.4466998536957], [-121.89515754283696, 37.446711032232514], [-121.89403865611627, 37.44678997516314], [-121.89334496268079, 37.44683414579687], [-121.89333885394936, 37.446843813110966], [-121.89333081568446, 37.44685254531733], [-121.89332106922869, 37.44686010196536], [-121.89330988296152, 37.44686627497472], [-121.89329756490928, 37.446870894365034], [-121.89328445426327, 37.446873832936596], [-121.89327091203971, 37.44687500977275], [-121.89325731113878, 37.4468743924681], [-121.89324402607645, 37.44687199802074], [-121.89323142267169, 37.446867892364295], [-121.89321984797331, 37.44686218855234], [-121.89320962070344, 37.44685504364529], [-121.89318378605417, 37.4468563851526], [-121.89318219603612, 37.44683526978204]]}, "properties": {"type": "Primary Underground Conductor", "subtype": "Not Available", "voltage_di": "Not Available", "phases": 3, "direct_bur": "No", "joint_tren": "No", "owner": "Electric Company", "owner_id": "Not Available", "other_1": "Not Available", "other_2": "Not Available", "load_date": "2021-04-23", "symbol": "Not Available", "Shape_Leng": 795.733238897}}, {"type": "Feature", "geometry": {"type": "LineString", "coordinates": [[-121.90108644976353, 37.447074296684015], [-121.90107325620698, 37.447041987199206], [-121.90103737479957, 37.44704398697436], [-121.90097278952385, 37.44704759712463], [-121.90096681572723, 37.44709750019597]]}, "properties": {"type": "Secondary Underground Conductor", "subtype": "Not Available", "voltage_di": "Not Available", "phases": 0, "direct_bur": "No", "joint_tren": "No", "owner": "Electric Company", "owner_id": "Not Available", "other_1": "Not Available", "other_2": "Not Available", "load_date": "2021-04-23", "symbol": "Not Available", "Shape_Leng": 23.0026827176}}, {"type": "Feature", "geometry": {"type": "LineString", "coordinates": [[-121.90096681572723, 37.44709750019597], [-121.90093768336261, 37.447033035280604], [-121.90089843866278, 37.4470352283296], [-121.90076098115294, 37.44704291434168], [-121.90062518283142, 37.44705064171787], [-121.90060110618516, 37.447055240344284], [-121.90058316772726, 37.44706215967898], [-121.90056771939932, 37.4470710160271], [-121.90055440996007, 37.447081850752674], [-121.90054548070616, 37.44709220264974], [-121.90053470451602, 37.44710510418527], [-121.90052391485114, 37.447114715792125], [-121.9005115225918, 37.4471230058645], [-121.90049788975905, 37.447129753315146], [-121.90048166438838, 37.44713532186929], [-121.9004653797289, 37.447138718772656], [-121.90044962417713, 37.447140125174776], [-121.90043369255555, 37.447139757884166], [-121.90041814451462, 37.447137638296375], [-121.90040133703563, 37.447133232235146], [-121.90038413968782, 37.44712611178863], [-121.90036984479676, 37.44711756924882], [-121.90035733755302, 37.44710726371238], [-121.90034702848686, 37.447095514685905], [-121.90033917541463, 37.4470826152883], [-121.90033397686409, 37.447068887879084], [-121.90033156219258, 37.447054679066504], [-121.90033199068897, 37.44704034401725], [-121.90033524977683, 37.447026262859694], [-121.90033871368061, 37.44701850909312], [-121.90026381754207, 37.44699199993471], [-121.90026191580863, 37.446991009317905], [-121.90026015511064, 37.44698986465261], [-121.9002585534145, 37.44698858091588], [-121.9002571295848, 37.446987170231814], [-121.90025589889282, 37.44698564829055], [-121.90025487301682, 37.446984032921634], [-121.90025406543134, 37.446982339815385], [-121.90025348511966, 37.446980588940875], [-121.90025313567503, 37.44697879884109], [-121.90025302338563, 37.44697699091157], [-121.90025315004807, 37.446975182268794], [-121.90025346894996, 37.44697355976783], [-121.90029853652946, 37.44684146025839], [-121.90031614350902, 37.44678848887732]]}, "properties": {"type": "Primary Underground Conductor", "subtype": "Not Available", "voltage_di": "Not Available", "phases": 2, "direct_bur": "No", "joint_tren": "No", "owner": "Electric Company", "owner_id": "Not Available", "other_1": "Not Available", "other_2": "Not Available", "load_date": "2021-04-23", "symbol": "Not Available", "Shape_Leng": 132.519364622}}, {"type": "Feature", "geometry": {"type": "LineString", "coordinates": [[-121.90071088210951, 37.446172719672695], [-121.90071210178209, 37.446168855085176]]}, "properties": {"type": "Secondary Underground Conductor", "subtype": "Not Available", "voltage_di": "Not Available", "phases": 0, "direct_bur": "No", "joint_tren": "No", "owner": "Electric Company", "owner_id": "Not Available", "other_1": "Not Available", "other_2": "Not Available", "load_date": "2021-04-23", "symbol": "Not Available", "Shape_Leng": 6.98536653571}}, {"type": "Feature", "geometry": {"type": "LineString", "coordinates": [[-121.8999573985732, 37.44738157434615], [-121.89995662874917, 37.447377798193884]]}, "properties": {"type": "Primary Underground Conductor", "subtype": "Not Available", "voltage_di": "Not Available", "phases": 3, "direct_bur": "No", "joint_tren": "No", "owner": "Electric Company", "owner_id": "Not Available", "other_1": "Not Available", "other_2": "Not Available", "load_date": "2021-04-23", "symbol": "Not Available", "Shape_Leng": 100.946736261}}, {"type": "Feature", "geometry": {"type": "LineString", "coordinates": [[-121.89354331878039, 37.447314506707784], [-121.89353592384894, 37.447347972858886], [-121.89337430435293, 37.44735710374885], [-121.89320732999947, 37.44736653631427], [-121.89319409691704, 37.447334234800614]]}, "properties": {"type": "Secondary Underground Conductor", "subtype": "Not Available", "voltage_di": "Not Available", "phases": 0, "direct_bur": "No", "joint_tren": "Yes", "owner": "Electric Company", "owner_id": "Not Available", "other_1": "Not Available", "other_2": "Not Available", "load_date": "2021-04-23", "symbol": "Not Available", "Shape_Leng": 46.1982899936}}, {"type": "Feature", "geometry": {"type": "LineString", "coordinates": [[-121.89725855496292, 37.447447004764285], [-121.89726066420722, 37.44741306724345], [-121.89726769621925, 37.44741195681744], [-121.89747044867379, 37.44737996983728], [-121.8976529656783, 37.44735028000806], [-121.8976618697794, 37.44738337314819]]}, "properties": {"type": "Secondary Underground Conductor", "subtype": "Not Available", "voltage_di": "Not Available", "phases": 0, "direct_bur": "No", "joint_tren": "No", "owner": "Electric Company", "owner_id": "Not Available", "other_1": "Not Available", "other_2": "Not Available", "load_date": "2021-04-23", "symbol": "Not Available", "Shape_Leng": 54.0588313229}}, {"type": "Feature", "geometry": {"type": "LineString", "coordinates": [[-121.8990892379687, 37.44715844905139], [-121.89909139212875, 37.44712451068654], [-121.89928571389439, 37.44709396421937], [-121.89946196335312, 37.44706625764789], [-121.89948010303367, 37.44709700595798]]}, "properties": {"type": "Secondary Underground Conductor", "subtype": "Not Available", "voltage_di": "Not Available", "phases": 0, "direct_bur": "No", "joint_tren": "Yes", "owner": "Electric Company", "owner_id": "Not Available", "other_1": "Not Available", "other_2": "Not Available", "load_date": "2021-04-23", "symbol": "Not Available", "Shape_Leng": 51.578265436}}, {"type": "Feature", "geometry": {"type": "LineString", "coordinates": [[-121.89300823548474, 37.44814153881473], [-121.89298984607252, 37.44811070107371], [-121.89299148280301, 37.44810957282863], [-121.8930065727031, 37.44810147684961], [-121.89302327597755, 37.44809515596619], [-121.89304097189033, 37.448090883325364], [-121.89305849263162, 37.44808884506669], [-121.89317222922804, 37.448082402228934], [-121.8932345642239, 37.44807888698105], [-121.89324483466255, 37.4480788192293], [-121.89325163670594, 37.44811174017171]]}, "properties": {"type": "Secondary Underground Conductor", "subtype": "Not Available", "voltage_di": "Not Available", "phases": 0, "direct_bur": "No", "joint_tren": "Yes", "owner": "Electric Company", "owner_id": "Not Available", "other_1": "Not Available", "other_2": "Not Available", "load_date": "2021-04-23", "symbol": "Not Available", "Shape_Leng": 38.613856673}}, {"type": "Feature", "geometry": {"type": "LineString", "coordinates": [[-121.89806930157485, 37.44731911672892], [-121.89805114213135, 37.44728837635511], [-121.89787595178632, 37.4473159929832], [-121.89786462852219, 37.44731789504482], [-121.89783809678026, 37.44713878795168], [-121.89782882257325, 37.4470274018189], [-121.89786885868885, 37.44700642913396]]}, "properties": {"type": "Secondary Underground Conductor", "subtype": "Not Available", "voltage_di": "Not Available", "phases": 0, "direct_bur": "No", "joint_tren": "No", "owner": "Electric Company", "owner_id": "Not Available", "other_1": "Not Available", "other_2": "Not Available", "load_date": "2021-04-23", "symbol": "Not Available", "Shape_Leng": 72.2105314806}}, {"type": "Feature", "geometry": {"type": "LineString", "coordinates": [[-121.90108644976353, 37.447074296684015], [-121.9010430305926, 37.446914547779805]]}, "properties": {"type": "Secondary Underground Conductor", "subtype": "Not Available", "voltage_di": "Not Available", "phases": 0, "direct_bur": "No", "joint_tren": "No", "owner": "Electric Company", "owner_id": "Not Available", "other_1": "Not Available", "other_2": "Not Available", "load_date": "2021-04-23", "symbol": "Not Available", "Shape_Leng": 22.9148509949}}, {"type": "Feature", "geometry": {"type": "LineString", "coordinates": [[-121.89405395550615, 37.44658855646947], [-121.89406014202123, 37.44669459106758], [-121.89406084270716, 37.44669898717006], [-121.89406235547008, 37.44670552997347], [-121.89406300405375, 37.44671216192508], [-121.89406277767824, 37.44671881170581], [-121.89406168173362, 37.44672540728352], [-121.8940597269996, 37.44673187519973], [-121.89405693593393, 37.44673814413555], [-121.89405333638462, 37.44674414705115], [-121.89404897057233, 37.446749816193666], [-121.89404388610784, 37.446755090228855], [-121.89403813689, 37.44675991210173], [-121.89403178759757, 37.446764228323076], [-121.89402490650254, 37.44676799182255], [-121.89401840180157, 37.446770841013375], [-121.89382152882051, 37.44678678292918], [-121.89334438506405, 37.446813739329635]]}, "properties": {"type": "Primary Underground Conductor", "subtype": "Not Available", "voltage_di": "Not Available", "phases": 3, "direct_bur": "No", "joint_tren": "No", "owner": "Electric Company", "owner_id": "Not Available", "other_1": "Not Available", "other_2": "Not Available", "load_date": "2021-04-23", "symbol": "Not Available", "Shape_Leng": 189.413031977}}, {"type": "Feature", "geometry": {"type": "LineString", "coordinates": [[-121.89663337064428, 37.44756264582714], [-121.89659876753952, 37.44751779025557], [-121.89608776538171, 37.447598264961535], [-121.89608560313683, 37.44763263387278]]}, "properties": {"type": "Secondary Underground Conductor", "subtype": "Not Available", "voltage_di": "Not Available", "phases": 0, "direct_bur": "No", "joint_tren": "No", "owner": "Electric Company", "owner_id": "Not Available", "other_1": "Not Available", "other_2": "Not Available", "load_date": "2021-04-23", "symbol": "Not Available", "Shape_Leng": 70.1933204236}}, {"type": "Feature", "geometry": {"type": "LineString", "coordinates": [[-121.89685314797008, 37.44751101573905], [-121.89684680137265, 37.44743510174368], [-121.89681058669024, 37.44744012326384], [-121.89676971783639, 37.4472267137075], [-121.89671896212454, 37.44720323922537]]}, "properties": {"type": "Secondary Underground Conductor", "subtype": "Not Available", "voltage_di": "Not Available", "phases": 0, "direct_bur": "No", "joint_tren": "Yes", "owner": "Electric Company", "owner_id": "Not Available", "other_1": "Not Available", "other_2": "Not Available", "load_date": "2021-04-23", "symbol": "Not Available", "Shape_Leng": 51.5665471802}}, {"type": "Feature", "geometry": {"type": "LineString", "coordinates": [[-121.8932724174334, 37.44681780521861], [-121.89322980135627, 37.44681954325956], [-121.89323100240387, 37.44681648867227], [-121.89323179651454, 37.44681335206812], [-121.89323217470533, 37.44681016482743], [-121.89323213517942, 37.4468069640361], [-121.89323167344533, 37.44680378535347], [-121.89323079848624, 37.446800660159774], [-121.89322951838702, 37.446797626967395], [-121.89322784841883, 37.4467947157302], [-121.89322580475164, 37.44679196068127], [-121.89322341163971, 37.44678939106137], [-121.89322069513429, 37.44678703397169], [-121.89321768398142, 37.446784917226644], [-121.89321441141888, 37.44678306222194], [-121.89321091517577, 37.4467814910665], [-121.89320722938817, 37.44678021873718], [-121.89320339987007, 37.44677926092423], [-121.89319946524917, 37.44677862832549], [-121.89319546774614, 37.446778325933316], [-121.89319145317513, 37.44677835874005], [-121.89318746465528, 37.446778726032434], [-121.89318354710234, 37.446779424244546], [-121.8931797409405, 37.446780444104895], [-121.89317921452768, 37.4467806138439], [-121.89318197594888, 37.44681054709659]]}, "properties": {"type": "Primary Underground Conductor", "subtype": "Not Available", "voltage_di": "Not Available", "phases": 3, "direct_bur": "No", "joint_tren": "No", "owner": "Electric Company", "owner_id": "Not Available", "other_1": "Not Available", "other_2": "Not Available", "load_date": "2021-04-23", "symbol": "Not Available", "Shape_Leng": 18.8746858013}}, {"type": "Feature", "geometry": {"type": "LineString", "coordinates": [[-121.89273719220395, 37.447375153709864], [-121.89275015848676, 37.44740936511019], [-121.89274576303005, 37.44741227275753], [-121.89273241047167, 37.447424317705156], [-121.89272153636517, 37.44743785534253], [-121.89271338145896, 37.44745259825616], [-121.89270844162328, 37.44746707514973], [-121.89270615900409, 37.447482012756396], [-121.89270661444999, 37.44749778478333], [-121.89270996875923, 37.44753146623336], [-121.89266956972429, 37.447542290194505]]}, "properties": {"type": "Secondary Underground Conductor", "subtype": "Not Available", "voltage_di": "Not Available", "phases": 0, "direct_bur": "No", "joint_tren": "Yes", "owner": "Electric Company", "owner_id": "Not Available", "other_1": "Not Available", "other_2": "Not Available", "load_date": "2021-04-23", "symbol": "Not Available", "Shape_Leng": 28.3140888694}}, {"type": "Feature", "geometry": {"type": "LineString", "coordinates": [[-121.90016841017064, 37.446659606955485], [-121.90016857456239, 37.44668521903863], [-121.90008549836494, 37.446687623202024], [-121.90008965073355, 37.44678440473229], [-121.90008686998074, 37.446881217098806], [-121.90007716509105, 37.44697774750261], [-121.90006056742085, 37.447073684057], [-121.90010711093235, 37.44708891414854], [-121.90009733905866, 37.44712487227174], [-121.90009399912246, 37.44713478983272], [-121.90005887050324, 37.44723212678012], [-121.90003028790753, 37.44731130665116]]}, "properties": {"type": "Primary Underground Conductor", "subtype": "Not Available", "voltage_di": "Not Available", "phases": 3, "direct_bur": "No", "joint_tren": "No", "owner": "Electric Company", "owner_id": "Not Available", "other_1": "Not Available", "other_2": "Not Available", "load_date": "2021-04-23", "symbol": "Not Available", "Shape_Leng": 105.113148802}}, {"type": "Feature", "geometry": {"type": "LineString", "coordinates": [[-121.90096681572723, 37.44709750019597], [-121.90095216689994, 37.447048748920906], [-121.90080957911147, 37.44705233482262], [-121.90080058517889, 37.44709026777579]]}, "properties": {"type": "Secondary Underground Conductor", "subtype": "Not Available", "voltage_di": "Not Available", "phases": 0, "direct_bur": "No", "joint_tren": "No", "owner": "Electric Company", "owner_id": "Not Available", "other_1": "Not Available", "other_2": "Not Available", "load_date": "2021-04-23", "symbol": "Not Available", "Shape_Leng": 28.3204889076}}, {"type": "Feature", "geometry": {"type": "LineString", "coordinates": [[-121.8990892379687, 37.44715844905139], [-121.89907145761428, 37.44712758523048], [-121.8988577897307, 37.447160893138], [-121.89883904548395, 37.44703816665852]]}, "properties": {"type": "Secondary Underground Conductor", "subtype": "Not Available", "voltage_di": "Not Available", "phases": 0, "direct_bur": "No", "joint_tren": "No", "owner": "Electric Company", "owner_id": "Not Available", "other_1": "Not Available", "other_2": "Not Available", "load_date": "2021-04-23", "symbol": "Not Available", "Shape_Leng": 46.3325741821}}, {"type": "Feature", "geometry": {"type": "LineString", "coordinates": [[-121.89325163670594, 37.44811174017171], [-121.89327648859826, 37.448078610981696], [-121.89328931384553, 37.44807852611363], [-121.89334412095937, 37.44808176678856], [-121.89337755355928, 37.44808596597267], [-121.89340262194563, 37.447960844020116]]}, "properties": {"type": "Secondary Underground Conductor", "subtype": "Not Available", "voltage_di": "Not Available", "phases": 0, "direct_bur": "No", "joint_tren": "No", "owner": "Electric Company", "owner_id": "Not Available", "other_1": "Not Available", "other_2": "Not Available", "load_date": "2021-04-23", "symbol": "Not Available", "Shape_Leng": 34.4852799565}}, {"type": "Feature", "geometry": {"type": "LineString", "coordinates": [[-121.89663337064428, 37.44756264582714], [-121.8966043415859, 37.447500594721284], [-121.89654451019467, 37.44750950664563], [-121.89622124784637, 37.44756071667083], [-121.89610156709772, 37.44757969229231], [-121.8960122655753, 37.44759383182658], [-121.89589713748849, 37.44761206216533], [-121.89514448582435, 37.44773132378815], [-121.89508627858716, 37.447740547344665], [-121.8945904831105, 37.447819087669075], [-121.89454041101651, 37.4478270167947], [-121.89453443542331, 37.4478951802826]]}, "properties": {"type": "Primary Underground Conductor", "subtype": "Not Available", "voltage_di": "Not Available", "phases": 2, "direct_bur": "No", "joint_tren": "No", "owner": "Electric Company", "owner_id": "Not Available", "other_1": "Not Available", "other_2": "Not Available", "load_date": "2021-04-23", "symbol": "Not Available", "Shape_Leng": 253.13286661}}, {"type": "Feature", "geometry": {"type": "LineString", "coordinates": [[-121.89299847635561, 37.4466455285342], [-121.89300011022297, 37.44664957522102], [-121.89297450374579, 37.44666701914115], [-121.89298217984991, 37.446684888118504]]}, "properties": {"type": "Primary Underground Conductor", "subtype": "Not Available", "voltage_di": "Not Available", "phases": 3, "direct_bur": "No", "joint_tren": "Yes", "owner": "Electric Company", "owner_id": "Not Available", "other_1": "Not Available", "other_2": "Not Available", "load_date": "2021-04-23", "symbol": "Not Available", "Shape_Leng": 130.978355572}}, {"type": "Feature", "geometry": {"type": "LineString", "coordinates": [[-121.89948010303367, 37.44709700595798], [-121.8994948614555, 37.44706108918618], [-121.89955811542785, 37.44705116876273], [-121.89958235646583, 37.447048816673586], [-121.89960355760486, 37.44704400266447], [-121.8996236089003, 37.44703659764795], [-121.89964082151945, 37.44702750879693], [-121.8996562177451, 37.44701648435572], [-121.8996602664521, 37.447012591068685], [-121.89970959384269, 37.44701455518532]]}, "properties": {"type": "Secondary Underground Conductor", "subtype": "Not Available", "voltage_di": "Not Available", "phases": 0, "direct_bur": "No", "joint_tren": "No", "owner": "Electric Company", "owner_id": "Not Available", "other_1": "Not Available", "other_2": "Not Available", "load_date": "2021-04-23", "symbol": "Not Available", "Shape_Leng": 30.9249992634}}, {"type": "Feature", "geometry": {"type": "LineString", "coordinates": [[-121.89305827973087, 37.447501590323625], [-121.89305311980792, 37.4473834908235], [-121.8930205585738, 37.44738532584417], [-121.89288143738402, 37.44739319724793], [-121.8928689687679, 37.447393327760466], [-121.89285745685754, 37.44739240133545], [-121.89284248014512, 37.44739119819533], [-121.89282226984787, 37.44739182722294], [-121.89280285006807, 37.44739502513658], [-121.89278435375637, 37.44740072204389], [-121.89276720491759, 37.44740879527688], [-121.89276279598617, 37.44741072087122], [-121.89273719220395, 37.447375153709864]]}, "properties": {"type": "Secondary Underground Conductor", "subtype": "Not Available", "voltage_di": "Not Available", "phases": 0, "direct_bur": "No", "joint_tren": "Yes", "owner": "Electric Company", "owner_id": "Not Available", "other_1": "Not Available", "other_2": "Not Available", "load_date": "2021-04-23", "symbol": "Not Available", "Shape_Leng": 55.2728903305}}, {"type": "Feature", "geometry": {"type": "LineString", "coordinates": [[-121.89266956972429, 37.447542290194505], [-121.89271160369309, 37.447547897229725], [-121.89272472897765, 37.447679630343366], [-121.8927298808158, 37.44773134874944], [-121.8926772395402, 37.447758063754755]]}, "properties": {"type": "Secondary Underground Conductor", "subtype": "Not Available", "voltage_di": "Not Available", "phases": 0, "direct_bur": "No", "joint_tren": "Yes", "owner": "Electric Company", "owner_id": "Not Available", "other_1": "Not Available", "other_2": "Not Available", "load_date": "2021-04-23", "symbol": "Not Available", "Shape_Leng": 37.5030811684}}, {"type": "Feature", "geometry": {"type": "LineString", "coordinates": [[-121.89307736803237, 37.44676036426371], [-121.89302336684314, 37.44664418500984]]}, "properties": {"type": "Primary Underground Conductor", "subtype": "Not Available", "voltage_di": "Not Available", "phases": 3, "direct_bur": "No", "joint_tren": "No", "owner": "Electric Company", "owner_id": "Not Available", "other_1": "Not Available", "other_2": "Not Available", "load_date": "2021-04-23", "symbol": "Not Available", "Shape_Leng": 47.4990655395}}, {"type": "Feature", "geometry": {"type": "LineString", "coordinates": [[-121.8926772395402, 37.447758063754755], [-121.89275342565942, 37.44775952220731], [-121.89275897455295, 37.44781522295103], [-121.89277264062336, 37.447952123281205], [-121.89278160850488, 37.448042015736576], [-121.89278333776173, 37.44805533003782], [-121.8927866830879, 37.44806645274425], [-121.89279284553075, 37.4480788613067], [-121.89280117740499, 37.44809026571444], [-121.89281156103138, 37.44810054472791], [-121.89282362720226, 37.44810937099976], [-121.8928391141578, 37.448117519039755], [-121.89285592972158, 37.44812344482168], [-121.89287374870351, 37.448127054919865], [-121.89289222704892, 37.448128260900916], [-121.89290878120296, 37.44812722893484], [-121.89292509640514, 37.44812417725374], [-121.89294064175118, 37.44811918573282], [-121.89295505791488, 37.44811237204597], [-121.89297004810203, 37.44810255802518], [-121.89297890818561, 37.4480964532343], [-121.89299631214597, 37.44808711490019], [-121.89301580648592, 37.448079737087696], [-121.893036457856, 37.44807475198242], [-121.89305626480973, 37.448072446995226], [-121.89312599563534, 37.44806849670901]]}, "properties": {"type": "Primary Underground Conductor", "subtype": "Not Available", "voltage_di": "Not Available", "phases": 2, "direct_bur": "No", "joint_tren": "No", "owner": "Electric Company", "owner_id": "Not Available", "other_1": "Not Available", "other_2": "Not Available", "load_date": "2021-04-23", "symbol": "Not Available", "Shape_Leng": 95.3919323173}}, {"type": "Feature", "geometry": {"type": "LineString", "coordinates": [[-121.89844885595207, 37.44727604183277], [-121.89847748975177, 37.447263605322995], [-121.89849287340097, 37.447214479734065], [-121.8986782883706, 37.44718095076291], [-121.89907407710163, 37.44711878523072], [-121.8990892379687, 37.44715844905139]]}, "properties": {"type": "Secondary Underground Conductor", "subtype": "Not Available", "voltage_di": "Not Available", "phases": 0, "direct_bur": "No", "joint_tren": "No", "owner": "Electric Company", "owner_id": "Not Available", "other_1": "Not Available", "other_2": "Not Available", "load_date": "2021-04-23", "symbol": "Not Available", "Shape_Leng": 82.6250496238}}, {"type": "Feature", "geometry": {"type": "LineString", "coordinates": [[-121.89608560313683, 37.44763263387278], [-121.89605722176371, 37.44760351968103], [-121.89573633006951, 37.44765435165604], [-121.89572641805866, 37.44768953214085]]}, "properties": {"type": "Secondary Underground Conductor", "subtype": "Not Available", "voltage_di": "Not Available", "phases": 0, "direct_bur": "No", "joint_tren": "No", "owner": "Electric Company", "owner_id": "Not Available", "other_1": "Not Available", "other_2": "Not Available", "load_date": "2021-04-23", "symbol": "Not Available", "Shape_Leng": 46.6425046342}}, {"type": "Feature", "geometry": {"type": "LineString", "coordinates": [[-121.89411284977224, 37.447487444353285], [-121.89407473335638, 37.44747224215704], [-121.8940892977421, 37.4474200443129], [-121.89410175647677, 37.44734669412059], [-121.89410642681793, 37.44727327824334], [-121.89410336446112, 37.447199452212644], [-121.89410309137322, 37.44719648821537], [-121.89414356407008, 37.44718583964776]]}, "properties": {"type": "Secondary Underground Conductor", "subtype": "Not Available", "voltage_di": "Not Available", "phases": 0, "direct_bur": "No", "joint_tren": "No", "owner": "Electric Company", "owner_id": "Not Available", "other_1": "Not Available", "other_2": "Not Available", "load_date": "2021-04-23", "symbol": "Not Available", "Shape_Leng": 48.4503533613}}, {"type": "Feature", "geometry": {"type": "LineString", "coordinates": [[-121.89300823548474, 37.44814153881473], [-121.89297787602142, 37.448106941207655], [-121.89300144242455, 37.44809429587525], [-121.89301954078257, 37.44808744581415], [-121.893038714424, 37.44808281729776], [-121.893057379619, 37.44808064567484], [-121.89308942881338, 37.44807844267201], [-121.89309725852941, 37.4479599989044]]}, "properties": {"type": "Secondary Underground Conductor", "subtype": "Not Available", "voltage_di": "Not Available", "phases": 0, "direct_bur": "No", "joint_tren": "Yes", "owner": "Electric Company", "owner_id": "Not Available", "other_1": "Not Available", "other_2": "Not Available", "load_date": "2021-04-23", "symbol": "Not Available", "Shape_Leng": 35.8533797113}}, {"type": "Feature", "geometry": {"type": "LineString", "coordinates": [[-121.89685314797008, 37.44751101573905], [-121.89685522577335, 37.44747707682094], [-121.89686215447918, 37.44747597923315], [-121.89689376260075, 37.44747097697127], [-121.89706491681517, 37.447443968032125], [-121.89724038473969, 37.44741626800896], [-121.89725855496292, 37.447447004764285]]}, "properties": {"type": "Secondary Underground Conductor", "subtype": "Not Available", "voltage_di": "Not Available", "phases": 0, "direct_bur": "No", "joint_tren": "No", "owner": "Electric Company", "owner_id": "Not Available", "other_1": "Not Available", "other_2": "Not Available", "load_date": "2021-04-23", "symbol": "Not Available", "Shape_Leng": 53.2405419134}}, {"type": "Feature", "geometry": {"type": "LineString", "coordinates": [[-121.89806930157485, 37.44731911672892], [-121.89808116472648, 37.44728393464358], [-121.89838258184366, 37.44723599866012], [-121.89842502903747, 37.44726979719033], [-121.89844885595207, 37.44727604183277]]}, "properties": {"type": "Secondary Underground Conductor", "subtype": "Not Available", "voltage_di": "Not Available", "phases": 0, "direct_bur": "No", "joint_tren": "No", "owner": "Electric Company", "owner_id": "Not Available", "other_1": "Not Available", "other_2": "Not Available", "load_date": "2021-04-23", "symbol": "Not Available", "Shape_Leng": 48.8124598858}}, {"type": "Feature", "geometry": {"type": "LineString", "coordinates": [[-121.90000295761322, 37.44739760419089], [-121.90001155803384, 37.44738152671656]]}, "properties": {"type": "Primary Underground Conductor", "subtype": "Not Available", "voltage_di": "Not Available", "phases": 3, "direct_bur": "No", "joint_tren": "No", "owner": "Electric Company", "owner_id": "Not Available", "other_1": "Not Available", "other_2": "Not Available", "load_date": "2021-04-23", "symbol": "Not Available", "Shape_Leng": 283.007566692}}, {"type": "Feature", "geometry": {"type": "LineString", "coordinates": [[-121.89278705139714, 37.4481493709143], [-121.89281845380457, 37.4481263966582], [-121.89282917160418, 37.44813203716893], [-121.89284915822098, 37.4481390790703], [-121.89287033510544, 37.44814337025094], [-121.8928921884214, 37.44814479588992], [-121.89291196573068, 37.44814356280851], [-121.89293135586608, 37.44813993630803], [-121.89294982792329, 37.448134004822016], [-121.89296695789743, 37.44812590813248], [-121.89297400877409, 37.44812129316876], [-121.89300823548474, 37.44814153881473]]}, "properties": {"type": "Secondary Underground Conductor", "subtype": "Not Available", "voltage_di": "Not Available", "phases": 0, "direct_bur": "No", "joint_tren": "No", "owner": "Electric Company", "owner_id": "Not Available", "other_1": "Not Available", "other_2": "Not Available", "load_date": "2021-04-23", "symbol": "Not Available", "Shape_Leng": 28.1251455673}}, {"type": "Feature", "geometry": {"type": "LineString", "coordinates": [[-121.89970959384269, 37.44701455518532], [-121.89968491442687, 37.446980695205774], [-121.89968817171805, 37.44697453326837], [-121.89969332714948, 37.44695861278823], [-121.89969551544556, 37.446942263678984], [-121.89969469438537, 37.446925833975904], [-121.89969088103699, 37.446909675993794], [-121.89968702995937, 37.4469007782617], [-121.89971355810799, 37.44686813706933]]}, "properties": {"type": "Secondary Underground Conductor", "subtype": "Not Available", "voltage_di": "Not Available", "phases": 0, "direct_bur": "No", "joint_tren": "No", "owner": "Electric Company", "owner_id": "Not Available", "other_1": "Not Available", "other_2": "Not Available", "load_date": "2021-04-23", "symbol": "Not Available", "Shape_Leng": 22.4090456474}}, {"type": "Feature", "geometry": {"type": "LineString", "coordinates": [[-121.89326952755312, 37.447951917885945], [-121.89325163670594, 37.44811174017171]]}, "properties": {"type": "Secondary Underground Conductor", "subtype": "Not Available", "voltage_di": "Not Available", "phases": 0, "direct_bur": "No", "joint_tren": "No", "owner": "Electric Company", "owner_id": "Not Available", "other_1": "Not Available", "other_2": "Not Available", "load_date": "2021-04-23", "symbol": "Not Available", "Shape_Leng": 22.4982241226}}, {"type": "Feature", "geometry": {"type": "LineString", "coordinates": [[-121.89916864275159, 37.44644296227205], [-121.89904246414211, 37.446279431530364]]}, "properties": {"type": "Secondary Underground Conductor", "subtype": "Not Available", "voltage_di": "Not Available", "phases": 0, "direct_bur": "No", "joint_tren": "No", "owner": "Electric Company", "owner_id": "Not Available", "other_1": "Not Available", "other_2": "Not Available", "load_date": "2021-04-23", "symbol": "Not Available", "Shape_Leng": 52.2094489075}}, {"type": "Feature", "geometry": {"type": "LineString", "coordinates": [[-121.90066163107574, 37.447098141350196], [-121.90064837643378, 37.44706584613936], [-121.90062834759617, 37.44706698581118], [-121.90060809687476, 37.44707085413381], [-121.90059378401735, 37.447076374908825], [-121.90058123994267, 37.447083565965514], [-121.90057043051483, 37.44709236525619], [-121.90056260169715, 37.44710144197519], [-121.90055109248173, 37.44711521930136], [-121.90053833460804, 37.447126585344016], [-121.90052367949254, 37.44713638879509], [-121.90050748196965, 37.44714440500172], [-121.90048840714287, 37.44715095275848], [-121.90046916612779, 37.4471549658535], [-121.90045047937332, 37.44715663399438], [-121.90043164170179, 37.44715619895119], [-121.90042846256398, 37.44715576676083], [-121.90041130474205, 37.44718687020035]]}, "properties": {"type": "Secondary Underground Conductor", "subtype": "Not Available", "voltage_di": "Not Available", "phases": 0, "direct_bur": "No", "joint_tren": "No", "owner": "Electric Company", "owner_id": "Not Available", "other_1": "Not Available", "other_2": "Not Available", "load_date": "2021-04-23", "symbol": "Not Available", "Shape_Leng": 38.6263617291}}, {"type": "Feature", "geometry": {"type": "LineString", "coordinates": [[-121.9001858105377, 37.4466460106957], [-121.90020342739878, 37.446646015688], [-121.90035343437312, 37.446687437059474], [-121.9003335259098, 37.446741023281454]]}, "properties": {"type": "Primary Underground Conductor", "subtype": "Not Available", "voltage_di": "Not Available", "phases": 2, "direct_bur": "No", "joint_tren": "No", "owner": "Electric Company", "owner_id": "Not Available", "other_1": "Not Available", "other_2": "Not Available", "load_date": "2021-04-23", "symbol": "Not Available", "Shape_Leng": 27.4746117097}}]}