{"type": "FeatureCollection", "features": [{"type": "Feature", "geometry": {"type": "Point", "coordinates": [-121.89783308597761, 37.4472659759481]}, "properties": {"type": "Abandoned Gas Device", "subtype": "Not Available", "material": "Plastic", "owner": "Gas Company", "owner_id": "Not Available", "frame_cove": "Not Available", "install_da": "Not Available", "other": "Not Available", "source_dat": "6/1/2022", "load_date": "2022-06-07"}}, {"type": "Feature", "geometry": {"type": "Point", "coordinates": [-121.89781691270923, 37.44705018741803]}, "properties": {"type": "Abandoned Gas Device", "subtype": "Not Available", "material": "Not Available", "owner": "Gas Company", "owner_id": "Not Available", "frame_cove": "Not Available", "install_da": "Not Available", "other": "Not Available", "source_dat": "6/1/2022", "load_date": "2022-06-07"}}, {"type": "Feature", "geometry": {"type": "Point", "coordinates": [-121.90037213729735, 37.446420175774705]}, "properties": {"type": "Abandoned Gas Device", "subtype": "Not Available", "material": "Steel", "owner": "Gas Company", "owner_id": "Not Available", "frame_cove": "Not Available", "install_da": "Not Available", "other": "Not Available", "source_dat": "6/1/2022", "load_date": "2022-06-07"}}, {"type": "Feature", "geometry": {"type": "Point", "coordinates": [-121.89783409748061, 37.447049216058055]}, "properties": {"type": "Valve", "subtype": "Not Available", "material": "Plastic", "owner": "Gas Company", "owner_id": "Not Available", "frame_cove": "Not Available", "install_da": "Not Available", "other": "Not Available", "source_dat": "6/1/2022", "load_date": "2022-06-07"}}, {"type": "Feature", "geometry": {"type": "Point", "coordinates": [-121.90052331297989, 37.446437951382826]}, "properties": {"type": "Valve", "subtype": "Not Available", "material": "Steel", "owner": "Gas Company", "owner_id": "Not Available", "frame_cove": "Not Available", "install_da": "Not Available", "other": "Not Available", "source_dat": "6/1/2022", "load_date": "2022-06-07"}}, {"type": "Feature", "geometry": {"type": "Point", "coordinates": [-121.89486934353087, 37.44713510577401]}, "properties": {"type": "Service Tap", "subtype": "Not Available", "material": "Not Available", "owner": "Gas Company", "owner_id": "Not Available", "frame_cove": "Not Available", "install_da": "Not Available", "other": "Not Available", "source_dat": "6/1/2022", "load_date": "2022-06-07"}}, {"type": "Feature", "geometry": {"type": "Point", "coordinates": [-121.89277123565826, 37.44800733036268]}, "properties": {"type": "Service Tap", "subtype": "Not Available", "material": "Not Available", "owner": "Gas Company", "owner_id": "Not Available", "frame_cove": "Not Available", "install_da": "Not Available", "other": "Not Available", "source_dat": "6/1/2022", "load_date": "2022-06-07"}}, {"type": "Feature", "geometry": {"type": "Point", "coordinates": [-121.89279548478105, 37.448093388714675]}, "properties": {"type": "Service Tap", "subtype": "Not Available", "material": "Not Available", "owner": "Gas Company", "owner_id": "Not Available", "frame_cove": "Not Available", "install_da": "Not Available", "other": "Not Available", "source_dat": "6/1/2022", "load_date": "2022-06-07"}}, {"type": "Feature", "geometry": {"type": "Point", "coordinates": [-121.89325266797186, 37.44813579204146]}, "properties": {"type": "Service Tap", "subtype": "Not Available", "material": "Not Available", "owner": "Gas Company", "owner_id": "Not Available", "frame_cove": "Not Available", "install_da": "Not Available", "other": "Not Available", "source_dat": "6/1/2022", "load_date": "2022-06-07"}}, {"type": "Feature", "geometry": {"type": "Point", "coordinates": [-121.89943494831756, 37.447129304008136]}, "properties": {"type": "Service Tap", "subtype": "Not Available", "material": "Not Available", "owner": "Gas Company", "owner_id": "Not Available", "frame_cove": "Not Available", "install_da": "Not Available", "other": "Not Available", "source_dat": "6/1/2022", "load_date": "2022-06-07"}}, {"type": "Feature", "geometry": {"type": "Point", "coordinates": [-121.89969983005385, 37.44705827067348]}, "properties": {"type": "Service Tap", "subtype": "Not Available", "material": "Not Available", "owner": "Gas Company", "owner_id": "Not Available", "frame_cove": "Not Available", "install_da": "Not Available", "other": "Not Available", "source_dat": "6/1/2022", "load_date": "2022-06-07"}}, {"type": "Feature", "geometry": {"type": "Point", "coordinates": [-121.89958411536713, 37.44684014228604]}, "properties": {"type": "Service Tap", "subtype": "Not Available", "material": "Not Available", "owner": "Gas Company", "owner_id": "Not Available", "frame_cove": "Not Available", "install_da": "Not Available", "other": "Not Available", "source_dat": "6/1/2022", "load_date": "2022-06-07"}}, {"type": "Feature", "geometry": {"type": "Point", "coordinates": [-121.89953066111616, 37.44683847485132]}, "properties": {"type": "Service Tap", "subtype": "Not Available", "material": "Not Available", "owner": "Gas Company", "owner_id": "Not Available", "frame_cove": "Not Available", "install_da": "Not Available", "other": "Not Available", "source_dat": "6/1/2022", "load_date": "2022-06-07"}}, {"type": "Feature", "geometry": {"type": "Point", "coordinates": [-121.89891751422233, 37.44714063866844]}, "properties": {"type": "Service Tap", "subtype": "Not Available", "material": "Not Available", "owner": "Gas Company", "owner_id": "Not Available", "frame_cove": "Not Available", "install_da": "Not Available", "other": "Not Available", "source_dat": "6/1/2022", "load_date": "2022-06-07"}}, {"type": "Feature", "geometry": {"type": "Point", "coordinates": [-121.89850879064952, 37.44720498438918]}, "properties": {"type": "Service Tap", "subtype": "Not Available", "material": "Not Available", "owner": "Gas Company", "owner_id": "Not Available", "frame_cove": "Not Available", "install_da": "Not Available", "other": "Not Available", "source_dat": "6/1/2022", "load_date": "2022-06-07"}}, {"type": "Feature", "geometry": {"type": "Point", "coordinates": [-121.89763545661509, 37.4469771920303]}, "properties": {"type": "Service Tap", "subtype": "Not Available", "material": "Not Available", "owner": "Gas Company", "owner_id": "Not Available", "frame_cove": "Not Available", "install_da": "Not Available", "other": "Not Available", "source_dat": "6/1/2022", "load_date": "2022-06-07"}}, {"type": "Feature", "geometry": {"type": "Point", "coordinates": [-121.90123660495992, 37.44694058269589]}, "properties": {"type": "Service Tap", "subtype": "Not Available", "material": "Not Available", "owner": "Gas Company", "owner_id": "Not Available", "frame_cove": "Not Available", "install_da": "Not Available", "other": "Not Available", "source_dat": "6/1/2022", "load_date": "2022-06-07"}}, {"type": "Feature", "geometry": {"type": "Point", "coordinates": [-121.90132238778135, 37.44701513714579]}, "properties": {"type": "Service Tap", "subtype": "Not Available", "material": "Not Available", "owner": "Gas Company", "owner_id": "Not Available", "frame_cove": "Not Available", "install_da": "Not Available", "other": "Not Available", "source_dat": "6/1/2022", "load_date": "2022-06-07"}}, {"type": "Feature", "geometry": {"type": "Point", "coordinates": [-121.89901260987831, 37.447125680311274]}, "properties": {"type": "Service Tap", "subtype": "Not Available", "material": "Not Available", "owner": "Gas Company", "owner_id": "Not Available", "frame_cove": "Not Available", "install_da": "Not Available", "other": "Not Available", "source_dat": "6/1/2022", "load_date": "2022-06-07"}}, {"type": "Feature", "geometry": {"type": "Point", "coordinates": [-121.89941817227965, 37.44706194287031]}, "properties": {"type": "Service Tap", "subtype": "Not Available", "material": "Not Available", "owner": "Gas Company", "owner_id": "Not Available", "frame_cove": "Not Available", "install_da": "Not Available", "other": "Not Available", "source_dat": "6/1/2022", "load_date": "2022-06-07"}}, {"type": "Feature", "geometry": {"type": "Point", "coordinates": [-121.89726808698639, 37.447400694229756]}, "properties": {"type": "Service Tap", "subtype": "Not Available", "material": "Not Available", "owner": "Gas Company", "owner_id": "Not Available", "frame_cove": "Not Available", "install_da": "Not Available", "other": "Not Available", "source_dat": "6/1/2022", "load_date": "2022-06-07"}}, {"type": "Feature", "geometry": {"type": "Point", "coordinates": [-121.89332303210975, 37.4473710165328]}, "properties": {"type": "Service Tap", "subtype": "Not Available", "material": "Not Available", "owner": "Gas Company", "owner_id": "Not Available", "frame_cove": "Not Available", "install_da": "Not Available", "other": "Not Available", "source_dat": "6/1/2022", "load_date": "2022-06-07"}}, {"type": "Feature", "geometry": {"type": "Point", "coordinates": [-121.89299122678314, 37.447530164676316]}, "properties": {"type": "Service Tap", "subtype": "Not Available", "material": "Not Available", "owner": "Gas Company", "owner_id": "Not Available", "frame_cove": "Not Available", "install_da": "Not Available", "other": "Not Available", "source_dat": "6/1/2022", "load_date": "2022-06-07"}}, {"type": "Feature", "geometry": {"type": "Point", "coordinates": [-121.89605223252063, 37.447663123778725]}, "properties": {"type": "Service Tap", "subtype": "Not Available", "material": "Not Available", "owner": "Gas Company", "owner_id": "Not Available", "frame_cove": "Not Available", "install_da": "Not Available", "other": "Not Available", "source_dat": "6/1/2022", "load_date": "2022-06-07"}}, {"type": "Feature", "geometry": {"type": "Point", "coordinates": [-121.89592539848734, 37.44761318827837]}, "properties": {"type": "Service Tap", "subtype": "Not Available", "material": "Not Available", "owner": "Gas Company", "owner_id": "Not Available", "frame_cove": "Not Available", "install_da": "Not Available", "other": "Not Available", "source_dat": "6/1/2022", "load_date": "2022-06-07"}}, {"type": "Feature", "geometry": {"type": "Point", "coordinates": [-121.89478467192545, 37.44710799758077]}, "properties": {"type": "Service Tap", "subtype": "Not Available", "material": "Not Available", "owner": "Gas Company", "owner_id": "Not Available", "frame_cove": "Not Available", "install_da": "Not Available", "other": "Not Available", "source_dat": "6/1/2022", "load_date": "2022-06-07"}}, {"type": "Feature", "geometry": {"type": "Point", "coordinates": [-121.89476077314563, 37.44745647654337]}, "properties": {"type": "Service Tap", "subtype": "Not Available", "material": "Not Available", "owner": "Gas Company", "owner_id": "Not Available", "frame_cove": "Not Available", "install_da": "Not Available", "other": "Not Available", "source_dat": "6/1/2022", "load_date": "2022-06-07"}}, {"type": "Feature", "geometry": {"type": "Point", "coordinates": [-121.89534769552137, 37.44770472145569]}, "properties": {"type": "Service Tap", "subtype": "Not Available", "material": "Not Available", "owner": "Gas Company", "owner_id": "Not Available", "frame_cove": "Not Available", "install_da": "Not Available", "other": "Not Available", "source_dat": "6/1/2022", "load_date": "2022-06-07"}}, {"type": "Feature", "geometry": {"type": "Point", "coordinates": [-121.89531371944068, 37.44757008787699]}, "properties": {"type": "Service Tap", "subtype": "Not Available", "material": "Not Available", "owner": "Gas Company", "owner_id": "Not Available", "frame_cove": "Not Available", "install_da": "Not Available", "other": "Not Available", "source_dat": "6/1/2022", "load_date": "2022-06-07"}}, {"type": "Feature", "geometry": {"type": "Point", "coordinates": [-121.89564510076251, 37.44772761596513]}, "properties": {"type": "Service Tap", "subtype": "Not Available", "material": "Not Available", "owner": "Gas Company", "owner_id": "Not Available", "frame_cove": "Not Available", "install_da": "Not Available", "other": "Not Available", "source_dat": "6/1/2022", "load_date": "2022-06-07"}}, {"type": "Feature", "geometry": {"type": "Point", "coordinates": [-121.89523966143035, 37.447791864901774]}, "properties": {"type": "Service Tap", "subtype": "Not Available", "material": "Not Available", "owner": "Gas Company", "owner_id": "Not Available", "frame_cove": "Not Available", "install_da": "Not Available", "other": "Not Available", "source_dat": "6/1/2022", "load_date": "2022-06-07"}}, {"type": "Feature", "geometry": {"type": "Point", "coordinates": [-121.8948341924538, 37.44785610522502]}, "properties": {"type": "Service Tap", "subtype": "Not Available", "material": "Not Available", "owner": "Gas Company", "owner_id": "Not Available", "frame_cove": "Not Available", "install_da": "Not Available", "other": "Not Available", "source_dat": "6/1/2022", "load_date": "2022-06-07"}}, {"type": "Feature", "geometry": {"type": "Point", "coordinates": [-121.89442656662226, 37.44784167547648]}, "properties": {"type": "Service Tap", "subtype": "Not Available", "material": "Not Available", "owner": "Gas Company", "owner_id": "Not Available", "frame_cove": "Not Available", "install_da": "Not Available", "other": "Not Available", "source_dat": "6/1/2022", "load_date": "2022-06-07"}}, {"type": "Feature", "geometry": {"type": "Point", "coordinates": [-121.89411892867172, 37.44756010690054]}, "properties": {"type": "Service Tap", "subtype": "Not Available", "material": "Not Available", "owner": "Gas Company", "owner_id": "Not Available", "frame_cove": "Not Available", "install_da": "Not Available", "other": "Not Available", "source_dat": "6/1/2022", "load_date": "2022-06-07"}}, {"type": "Feature", "geometry": {"type": "Point", "coordinates": [-121.89384046889994, 37.447359500045614]}, "properties": {"type": "Service Tap", "subtype": "Not Available", "material": "Not Available", "owner": "Gas Company", "owner_id": "Not Available", "frame_cove": "Not Available", "install_da": "Not Available", "other": "Not Available", "source_dat": "6/1/2022", "load_date": "2022-06-07"}}, {"type": "Feature", "geometry": {"type": "Point", "coordinates": [-121.89443539616319, 37.44791012992781]}, "properties": {"type": "Service Tap", "subtype": "Not Available", "material": "Not Available", "owner": "Gas Company", "owner_id": "Not Available", "frame_cove": "Not Available", "install_da": "Not Available", "other": "Not Available", "source_dat": "6/1/2022", "load_date": "2022-06-07"}}, {"type": "Feature", "geometry": {"type": "Point", "coordinates": [-121.89361583168844, 37.44735444500039]}, "properties": {"type": "Service Tap", "subtype": "Not Available", "material": "Not Available", "owner": "Gas Company", "owner_id": "Not Available", "frame_cove": "Not Available", "install_da": "Not Available", "other": "Not Available", "source_dat": "6/1/2022", "load_date": "2022-06-07"}}, {"type": "Feature", "geometry": {"type": "Point", "coordinates": [-121.89360973931414, 37.44728587735752]}, "properties": {"type": "Service Tap", "subtype": "Not Available", "material": "Not Available", "owner": "Gas Company", "owner_id": "Not Available", "frame_cove": "Not Available", "install_da": "Not Available", "other": "Not Available", "source_dat": "6/1/2022", "load_date": "2022-06-07"}}, {"type": "Feature", "geometry": {"type": "Point", "coordinates": [-121.8932604114496, 37.447305703877326]}, "properties": {"type": "Service Tap", "subtype": "Not Available", "material": "Not Available", "owner": "Gas Company", "owner_id": "Not Available", "frame_cove": "Not Available", "install_da": "Not Available", "other": "Not Available", "source_dat": "6/1/2022", "load_date": "2022-06-07"}}, {"type": "Feature", "geometry": {"type": "Point", "coordinates": [-121.89272009097587, 37.44748706636665]}, "properties": {"type": "Service Tap", "subtype": "Not Available", "material": "Not Available", "owner": "Gas Company", "owner_id": "Not Available", "frame_cove": "Not Available", "install_da": "Not Available", "other": "Not Available", "source_dat": "6/1/2022", "load_date": "2022-06-07"}}, {"type": "Feature", "geometry": {"type": "Point", "coordinates": [-121.90056247772965, 37.447083135201005]}, "properties": {"type": "Service Tap", "subtype": "Not Available", "material": "Not Available", "owner": "Gas Company", "owner_id": "Not Available", "frame_cove": "Not Available", "install_da": "Not Available", "other": "Not Available", "source_dat": "6/1/2022", "load_date": "2022-06-07"}}, {"type": "Feature", "geometry": {"type": "Point", "coordinates": [-121.90056794307984, 37.44715996100462]}, "properties": {"type": "Service Tap", "subtype": "Not Available", "material": "Not Available", "owner": "Gas Company", "owner_id": "Not Available", "frame_cove": "Not Available", "install_da": "Not Available", "other": "Not Available", "source_dat": "6/1/2022", "load_date": "2022-06-07"}}, {"type": "Feature", "geometry": {"type": "Point", "coordinates": [-121.90083016580286, 37.44704455467085]}, "properties": {"type": "Service Tap", "subtype": "Not Available", "material": "Not Available", "owner": "Gas Company", "owner_id": "Not Available", "frame_cove": "Not Available", "install_da": "Not Available", "other": "Not Available", "source_dat": "6/1/2022", "load_date": "2022-06-07"}}, {"type": "Feature", "geometry": {"type": "Point", "coordinates": [-121.89664110693549, 37.446992696718496]}, "properties": {"type": "Service Tap", "subtype": "Not Available", "material": "Not Available", "owner": "Gas Company", "owner_id": "Not Available", "frame_cove": "Not Available", "install_da": "Not Available", "other": "Not Available", "source_dat": "6/1/2022", "load_date": "2022-06-07"}}, {"type": "Feature", "geometry": {"type": "Point", "coordinates": [-121.89655063311164, 37.44700702179233]}, "properties": {"type": "Service Tap", "subtype": "Not Available", "material": "Not Available", "owner": "Gas Company", "owner_id": "Not Available", "frame_cove": "Not Available", "install_da": "Not Available", "other": "Not Available", "source_dat": "6/1/2022", "load_date": "2022-06-07"}}, {"type": "Feature", "geometry": {"type": "Point", "coordinates": [-121.89678946639961, 37.44724872401429]}, "properties": {"type": "Service Tap", "subtype": "Not Available", "material": "Not Available", "owner": "Gas Company", "owner_id": "Not Available", "frame_cove": "Not Available", "install_da": "Not Available", "other": "Not Available", "source_dat": "6/1/2022", "load_date": "2022-06-07"}}, {"type": "Feature", "geometry": {"type": "Point", "coordinates": [-121.89569887122047, 37.44750908658138]}, "properties": {"type": "Service Tap", "subtype": "Not Available", "material": "Not Available", "owner": "Gas Company", "owner_id": "Not Available", "frame_cove": "Not Available", "install_da": "Not Available", "other": "Not Available", "source_dat": "6/1/2022", "load_date": "2022-06-07"}}, {"type": "Feature", "geometry": {"type": "Point", "coordinates": [-121.89370593450805, 37.448029843942884]}, "properties": {"type": "Service Tap", "subtype": "Not Available", "material": "Not Available", "owner": "Gas Company", "owner_id": "Not Available", "frame_cove": "Not Available", "install_da": "Not Available", "other": "Not Available", "source_dat": "6/1/2022", "load_date": "2022-06-07"}}, {"type": "Feature", "geometry": {"type": "Point", "coordinates": [-121.89842183193338, 37.44721869750966]}, "properties": {"type": "Service Tap", "subtype": "Not Available", "material": "Not Available", "owner": "Gas Company", "owner_id": "Not Available", "frame_cove": "Not Available", "install_da": "Not Available", "other": "Not Available", "source_dat": "6/1/2022", "load_date": "2022-06-07"}}, {"type": "Feature", "geometry": {"type": "Point", "coordinates": [-121.8984386016831, 37.447286060645894]}, "properties": {"type": "Service Tap", "subtype": "Not Available", "material": "Not Available", "owner": "Gas Company", "owner_id": "Not Available", "frame_cove": "Not Available", "install_da": "Not Available", "other": "Not Available", "source_dat": "6/1/2022", "load_date": "2022-06-07"}}, {"type": "Feature", "geometry": {"type": "Point", "coordinates": [-121.89760290256753, 37.447347870873614]}, "properties": {"type": "Service Tap", "subtype": "Not Available", "material": "Not Available", "owner": "Gas Company", "owner_id": "Not Available", "frame_cove": "Not Available", "install_da": "Not Available", "other": "Not Available", "source_dat": "6/1/2022", "load_date": "2022-06-07"}}, {"type": "Feature", "geometry": {"type": "Point", "coordinates": [-121.89264714418154, 37.44762943026389]}, "properties": {"type": "Service Tap", "subtype": "Not Available", "material": "Not Available", "owner": "Gas Company", "owner_id": "Not Available", "frame_cove": "Not Available", "install_da": "Not Available", "other": "Not Available", "source_dat": "6/1/2022", "load_date": "2022-06-07"}}, {"type": "Feature", "geometry": {"type": "Point", "coordinates": [-121.89692706584326, 37.44745452028342]}, "properties": {"type": "Service Tap", "subtype": "Not Available", "material": "Not Available", "owner": "Gas Company", "owner_id": "Not Available", "frame_cove": "Not Available", "install_da": "Not Available", "other": "Not Available", "source_dat": "6/1/2022", "load_date": "2022-06-07"}}, {"type": "Feature", "geometry": {"type": "Point", "coordinates": [-121.89694384457616, 37.44752188178093]}, "properties": {"type": "Service Tap", "subtype": "Not Available", "material": "Not Available", "owner": "Gas Company", "owner_id": "Not Available", "frame_cove": "Not Available", "install_da": "Not Available", "other": "Not Available", "source_dat": "6/1/2022", "load_date": "2022-06-07"}}, {"type": "Feature", "geometry": {"type": "Point", "coordinates": [-121.89490818219218, 37.44721455176575]}, "properties": {"type": "Service Tap", "subtype": "Not Available", "material": "Not Available", "owner": "Gas Company", "owner_id": "Not Available", "frame_cove": "Not Available", "install_da": "Not Available", "other": "Not Available", "source_dat": "6/1/2022", "load_date": "2022-06-07"}}, {"type": "Feature", "geometry": {"type": "Point", "coordinates": [-121.9004351927421, 37.4471452893519]}, "properties": {"type": "Service Tap", "subtype": "Not Available", "material": "Not Available", "owner": "Gas Company", "owner_id": "Not Available", "frame_cove": "Not Available", "install_da": "Not Available", "other": "Not Available", "source_dat": "6/1/2022", "load_date": "2022-06-07"}}, {"type": "Feature", "geometry": {"type": "Point", "coordinates": [-121.89403580666017, 37.44754181093634]}, "properties": {"type": "Service Tap", "subtype": "Not Available", "material": "Not Available", "owner": "Gas Company", "owner_id": "Not Available", "frame_cove": "Not Available", "install_da": "Not Available", "other": "Not Available", "source_dat": "6/1/2022", "load_date": "2022-06-07"}}, {"type": "Feature", "geometry": {"type": "Point", "coordinates": [-121.89326648945084, 37.44737421016824]}, "properties": {"type": "Service Tap", "subtype": "Not Available", "material": "Not Available", "owner": "Gas Company", "owner_id": "Not Available", "frame_cove": "Not Available", "install_da": "Not Available", "other": "Not Available", "source_dat": "6/1/2022", "load_date": "2022-06-07"}}, {"type": "Feature", "geometry": {"type": "Point", "coordinates": [-121.89273265750838, 37.44744498217801]}, "properties": {"type": "Service Tap", "subtype": "Not Available", "material": "Not Available", "owner": "Gas Company", "owner_id": "Not Available", "frame_cove": "Not Available", "install_da": "Not Available", "other": "Not Available", "source_dat": "6/1/2022", "load_date": "2022-06-07"}}, {"type": "Feature", "geometry": {"type": "Point", "coordinates": [-121.89521195379373, 37.447197393960494]}, "properties": {"type": "Service Tap", "subtype": "Not Available", "material": "Not Available", "owner": "Gas Company", "owner_id": "Not Available", "frame_cove": "Not Available", "install_da": "Not Available", "other": "Not Available", "source_dat": "6/1/2022", "load_date": "2022-06-07"}}, {"type": "Feature", "geometry": {"type": "Point", "coordinates": [-121.8926853674969, 37.448012768340014]}, "properties": {"type": "Service Tap", "subtype": "Not Available", "material": "Not Available", "owner": "Gas Company", "owner_id": "Not Available", "frame_cove": "Not Available", "install_da": "Not Available", "other": "Not Available", "source_dat": "6/1/2022", "load_date": "2022-06-07"}}, {"type": "Feature", "geometry": {"type": "Point", "coordinates": [-121.89323644529615, 37.4480678855165]}, "properties": {"type": "Service Tap", "subtype": "Not Available", "material": "Not Available", "owner": "Gas Company", "owner_id": "Not Available", "frame_cove": "Not Available", "install_da": "Not Available", "other": "Not Available", "source_dat": "6/1/2022", "load_date": "2022-06-07"}}, {"type": "Feature", "geometry": {"type": "Point", "coordinates": [-121.89890551183181, 37.44700285678056]}, "properties": {"type": "Service Tap", "subtype": "Not Available", "material": "Not Available", "owner": "Gas Company", "owner_id": "Not Available", "frame_cove": "Not Available", "install_da": "Not Available", "other": "Not Available", "source_dat": "6/1/2022", "load_date": "2022-06-07"}}, {"type": "Feature", "geometry": {"type": "Point", "coordinates": [-121.89790283746449, 37.44704532990462]}, "properties": {"type": "Service Tap", "subtype": "Not Available", "material": "Not Available", "owner": "Gas Company", "owner_id": "Not Available", "frame_cove": "Not Available", "install_da": "Not Available", "other": "Not Available", "source_dat": "6/1/2022", "load_date": "2022-06-07"}}, {"type": "Feature", "geometry": {"type": "Point", "coordinates": [-121.89485494174023, 37.44744070236827]}, "properties": {"type": "Service Tap", "subtype": "Not Available", "material": "Not Available", "owner": "Gas Company", "owner_id": "Not Available", "frame_cove": "Not Available", "install_da": "Not Available", "other": "Not Available", "source_dat": "6/1/2022", "load_date": "2022-06-07"}}, {"type": "Feature", "geometry": {"type": "Point", "coordinates": [-121.89663235824294, 37.447053508014335]}, "properties": {"type": "Service Tap", "subtype": "Not Available", "material": "Not Available", "owner": "Gas Company", "owner_id": "Not Available", "frame_cove": "Not Available", "install_da": "Not Available", "other": "Not Available", "source_dat": "6/1/2022", "load_date": "2022-06-07"}}, {"type": "Feature", "geometry": {"type": "Point", "coordinates": [-121.89573282484326, 37.44764370386675]}, "properties": {"type": "Service Tap", "subtype": "Not Available", "material": "Not Available", "owner": "Gas Company", "owner_id": "Not Available", "frame_cove": "Not Available", "install_da": "Not Available", "other": "Not Available", "source_dat": "6/1/2022", "load_date": "2022-06-07"}}, {"type": "Feature", "geometry": {"type": "Point", "coordinates": [-121.89303768764962, 37.44808016071465]}, "properties": {"type": "Service Tap", "subtype": "Not Available", "material": "Not Available", "owner": "Gas Company", "owner_id": "Not Available", "frame_cove": "Not Available", "install_da": "Not Available", "other": "Not Available", "source_dat": "6/1/2022", "load_date": "2022-06-07"}}, {"type": "Feature", "geometry": {"type": "Point", "coordinates": [-121.89302578048056, 37.447939234728906]}, "properties": {"type": "Service Tap", "subtype": "Not Available", "material": "Not Available", "owner": "Gas Company", "owner_id": "Not Available", "frame_cove": "Not Available", "install_da": "Not Available", "other": "Not Available", "source_dat": "6/1/2022", "load_date": "2022-06-07"}}, {"type": "Feature", "geometry": {"type": "Point", "coordinates": [-121.9008362752451, 37.44711305692177]}, "properties": {"type": "Service Tap", "subtype": "Not Available", "material": "Not Available", "owner": "Gas Company", "owner_id": "Not Available", "frame_cove": "Not Available", "install_da": "Not Available", "other": "Not Available", "source_dat": "6/1/2022", "load_date": "2022-06-07"}}, {"type": "Feature", "geometry": {"type": "Point", "coordinates": [-121.9007196667347, 37.44691032570792]}, "properties": {"type": "Service Tap", "subtype": "Not Available", "material": "Not Available", "owner": "Gas Company", "owner_id": "Not Available", "frame_cove": "Not Available", "install_da": "Not Available", "other": "Not Available", "source_dat": "6/1/2022", "load_date": "2022-06-07"}}, {"type": "Feature", "geometry": {"type": "Point", "coordinates": [-121.9013121460888, 37.44712751319871]}, "properties": {"type": "Service Tap", "subtype": "Not Available", "material": "Not Available", "owner": "Gas Company", "owner_id": "Not Available", "frame_cove": "Not Available", "install_da": "Not Available", "other": "Not Available", "source_dat": "6/1/2022", "load_date": "2022-06-07"}}, {"type": "Feature", "geometry": {"type": "Point", "coordinates": [-121.89408368686483, 37.44785597114741]}, "properties": {"type": "Service Tap", "subtype": "Not Available", "material": "Not Available", "owner": "Gas Company", "owner_id": "Not Available", "frame_cove": "Not Available", "install_da": "Not Available", "other": "Not Available", "source_dat": "6/1/2022", "load_date": "2022-06-07"}}, {"type": "Feature", "geometry": {"type": "Point", "coordinates": [-121.8980082439833, 37.44728393749631]}, "properties": {"type": "Service Tap", "subtype": "Not Available", "material": "Not Available", "owner": "Gas Company", "owner_id": "Not Available", "frame_cove": "Not Available", "install_da": "Not Available", "other": "Not Available", "source_dat": "6/1/2022", "load_date": "2022-06-07"}}, {"type": "Feature", "geometry": {"type": "Point", "coordinates": [-121.89761967411387, 37.44741523318035]}, "properties": {"type": "Service Tap", "subtype": "Not Available", "material": "Not Available", "owner": "Gas Company", "owner_id": "Not Available", "frame_cove": "Not Available", "install_da": "Not Available", "other": "Not Available", "source_dat": "6/1/2022", "load_date": "2022-06-07"}}, {"type": "Feature", "geometry": {"type": "Point", "coordinates": [-121.89902938501794, 37.447193042818036]}, "properties": {"type": "Service Tap", "subtype": "Not Available", "material": "Not Available", "owner": "Gas Company", "owner_id": "Not Available", "frame_cove": "Not Available", "install_da": "Not Available", "other": "Not Available", "source_dat": "6/1/2022", "load_date": "2022-06-07"}}, {"type": "Feature", "geometry": {"type": "Point", "coordinates": [-121.89273301144462, 37.44762398940593]}, "properties": {"type": "Service Tap", "subtype": "Not Available", "material": "Not Available", "owner": "Gas Company", "owner_id": "Not Available", "frame_cove": "Not Available", "install_da": "Not Available", "other": "Not Available", "source_dat": "6/1/2022", "load_date": "2022-06-07"}}, {"type": "Feature", "geometry": {"type": "Point", "coordinates": [-121.89332515932036, 37.44806962709423]}, "properties": {"type": "Service Tap", "subtype": "Not Available", "material": "Not Available", "owner": "Gas Company", "owner_id": "Not Available", "frame_cove": "Not Available", "install_da": "Not Available", "other": "Not Available", "source_dat": "6/1/2022", "load_date": "2022-06-07"}}, {"type": "Feature", "geometry": {"type": "Point", "coordinates": [-121.89522267428832, 37.44772453716683]}, "properties": {"type": "Service Tap", "subtype": "Not Available", "material": "Not Available", "owner": "Gas Company", "owner_id": "Not Available", "frame_cove": "Not Available", "install_da": "Not Available", "other": "Not Available", "source_dat": "6/1/2022", "load_date": "2022-06-07"}}, {"type": "Feature", "geometry": {"type": "Point", "coordinates": [-121.8929149723919, 37.44739405449418]}, "properties": {"type": "Service Tap", "subtype": "Not Available", "material": "Not Available", "owner": "Gas Company", "owner_id": "Not Available", "frame_cove": "Not Available", "install_da": "Not Available", "other": "Not Available", "source_dat": "6/1/2022", "load_date": "2022-06-07"}}, {"type": "Feature", "geometry": {"type": "Point", "coordinates": [-121.90034647602295, 37.44710447087609]}, "properties": {"type": "Service Tap", "subtype": "Not Available", "material": "Not Available", "owner": "Gas Company", "owner_id": "Not Available", "frame_cove": "Not Available", "install_da": "Not Available", "other": "Not Available", "source_dat": "6/1/2022", "load_date": "2022-06-07"}}, {"type": "Feature", "geometry": {"type": "Point", "coordinates": [-121.89723455018189, 37.44726601303375]}, "properties": {"type": "Service Tap", "subtype": "Not Available", "material": "Not Available", "owner": "Gas Company", "owner_id": "Not Available", "frame_cove": "Not Available", "install_da": "Not Available", "other": "Not Available", "source_dat": "6/1/2022", "load_date": "2022-06-07"}}, {"type": "Feature", "geometry": {"type": "Point", "coordinates": [-121.89285367315358, 37.44812865600051]}, "properties": {"type": "Service Tap", "subtype": "Not Available", "material": "Not Available", "owner": "Gas Company", "owner_id": "Not Available", "frame_cove": "Not Available", "install_da": "Not Available", "other": "Not Available", "source_dat": "6/1/2022", "load_date": "2022-06-07"}}, {"type": "Feature", "geometry": {"type": "Point", "coordinates": [-121.8980254772637, 37.44735122640269]}, "properties": {"type": "Service Tap", "subtype": "Not Available", "material": "Not Available", "owner": "Gas Company", "owner_id": "Not Available", "frame_cove": "Not Available", "install_da": "Not Available", "other": "Not Available", "source_dat": "6/1/2022", "load_date": "2022-06-07"}}, {"type": "Feature", "geometry": {"type": "Point", "coordinates": [-121.89297942561525, 37.44739040727506]}, "properties": {"type": "Service Tap", "subtype": "Not Available", "material": "Not Available", "owner": "Gas Company", "owner_id": "Not Available", "frame_cove": "Not Available", "install_da": "Not Available", "other": "Not Available", "source_dat": "6/1/2022", "load_date": "2022-06-07"}}, {"type": "Feature", "geometry": {"type": "Point", "coordinates": [-121.9007275198069, 37.447050325776225]}, "properties": {"type": "Service Tap", "subtype": "Not Available", "material": "Not Available", "owner": "Gas Company", "owner_id": "Not Available", "frame_cove": "Not Available", "install_da": "Not Available", "other": "Not Available", "source_dat": "6/1/2022", "load_date": "2022-06-07"}}, {"type": "Feature", "geometry": {"type": "Point", "coordinates": [-121.89781071343546, 37.44696746843538]}, "properties": {"type": "Service Tap", "subtype": "Not Available", "material": "Not Available", "owner": "Gas Company", "owner_id": "Not Available", "frame_cove": "Not Available", "install_da": "Not Available", "other": "Not Available", "source_dat": "6/1/2022", "load_date": "2022-06-07"}}, {"type": "Feature", "geometry": {"type": "Point", "coordinates": [-121.89719740394656, 37.44741185197951]}, "properties": {"type": "Service Tap", "subtype": "Not Available", "material": "Not Available", "owner": "Gas Company", "owner_id": "Not Available", "frame_cove": "Not Available", "install_da": "Not Available", "other": "Not Available", "source_dat": "6/1/2022", "load_date": "2022-06-07"}}, {"type": "Feature", "geometry": {"type": "Point", "coordinates": [-121.89293746710496, 37.44812612850393]}, "properties": {"type": "Service Tap", "subtype": "Not Available", "material": "Not Available", "owner": "Gas Company", "owner_id": "Not Available", "frame_cove": "Not Available", "install_da": "Not Available", "other": "Not Available", "source_dat": "6/1/2022", "load_date": "2022-06-07"}}, {"type": "Feature", "geometry": {"type": "Point", "coordinates": [-121.89849680892026, 37.44706722401539]}, "properties": {"type": "Service Tap", "subtype": "Not Available", "material": "Not Available", "owner": "Gas Company", "owner_id": "Not Available", "frame_cove": "Not Available", "install_da": "Not Available", "other": "Not Available", "source_dat": "6/1/2022", "load_date": "2022-06-07"}}, {"type": "Feature", "geometry": {"type": "Point", "coordinates": [-121.89380348525971, 37.447499517816155]}, "properties": {"type": "Service Tap", "subtype": "Not Available", "material": "Not Available", "owner": "Gas Company", "owner_id": "Not Available", "frame_cove": "Not Available", "install_da": "Not Available", "other": "Not Available", "source_dat": "6/1/2022", "load_date": "2022-06-07"}}, {"type": "Feature", "geometry": {"type": "Point", "coordinates": [-121.89344340366289, 37.448091828997526]}, "properties": {"type": "Service Tap", "subtype": "Not Available", "material": "Not Available", "owner": "Gas Company", "owner_id": "Not Available", "frame_cove": "Not Available", "install_da": "Not Available", "other": "Not Available", "source_dat": "6/1/2022", "load_date": "2022-06-07"}}, {"type": "Feature", "geometry": {"type": "Point", "coordinates": [-121.89417786713753, 37.447250856436256]}, "properties": {"type": "Service Tap", "subtype": "Not Available", "material": "Not Available", "owner": "Gas Company", "owner_id": "Not Available", "frame_cove": "Not Available", "install_da": "Not Available", "other": "Not Available", "source_dat": "6/1/2022", "load_date": "2022-06-07"}}, {"type": "Feature", "geometry": {"type": "Point", "coordinates": [-121.89267212543128, 37.44739455015651]}, "properties": {"type": "Service Tap", "subtype": "Not Available", "material": "Not Available", "owner": "Gas Company", "owner_id": "Not Available", "frame_cove": "Not Available", "install_da": "Not Available", "other": "Not Available", "source_dat": "6/1/2022", "load_date": "2022-06-07"}}, {"type": "Feature", "geometry": {"type": "Point", "coordinates": [-121.89409189028, 37.447255278893806]}, "properties": {"type": "Service Tap", "subtype": "Not Available", "material": "Not Available", "owner": "Gas Company", "owner_id": "Not Available", "frame_cove": "Not Available", "install_da": "Not Available", "other": "Not Available", "source_dat": "6/1/2022", "load_date": "2022-06-07"}}, {"type": "Feature", "geometry": {"type": "Point", "coordinates": [-121.89411023477642, 37.447790308031045]}, "properties": {"type": "Service Tap", "subtype": "Not Available", "material": "Not Available", "owner": "Gas Company", "owner_id": "Not Available", "frame_cove": "Not Available", "install_da": "Not Available", "other": "Not Available", "source_dat": "6/1/2022", "load_date": "2022-06-07"}}, {"type": "Feature", "geometry": {"type": "Point", "coordinates": [-121.8956281145188, 37.44766028817237]}, "properties": {"type": "Service Tap", "subtype": "Not Available", "material": "Not Available", "owner": "Gas Company", "owner_id": "Not Available", "frame_cove": "Not Available", "install_da": "Not Available", "other": "Not Available", "source_dat": "6/1/2022", "load_date": "2022-06-07"}}, {"type": "Feature", "geometry": {"type": "Point", "coordinates": [-121.89333483327765, 37.44751076184624]}, "properties": {"type": "Service Tap", "subtype": "Not Available", "material": "Not Available", "owner": "Gas Company", "owner_id": "Not Available", "frame_cove": "Not Available", "install_da": "Not Available", "other": "Not Available", "source_dat": "6/1/2022", "load_date": "2022-06-07"}}, {"type": "Feature", "geometry": {"type": "Point", "coordinates": [-121.89481720171852, 37.447788778261085]}, "properties": {"type": "Service Tap", "subtype": "Not Available", "material": "Not Available", "owner": "Gas Company", "owner_id": "Not Available", "frame_cove": "Not Available", "install_da": "Not Available", "other": "Not Available", "source_dat": "6/1/2022", "load_date": "2022-06-07"}}, {"type": "Feature", "geometry": {"type": "Point", "coordinates": [-121.8972141745946, 37.44747921422867]}, "properties": {"type": "Service Tap", "subtype": "Not Available", "material": "Not Available", "owner": "Gas Company", "owner_id": "Not Available", "frame_cove": "Not Available", "install_da": "Not Available", "other": "Not Available", "source_dat": "6/1/2022", "load_date": "2022-06-07"}}, {"type": "Feature", "geometry": {"type": "Point", "coordinates": [-121.89603524358198, 37.447595795927896]}, "properties": {"type": "Service Tap", "subtype": "Not Available", "material": "Not Available", "owner": "Gas Company", "owner_id": "Not Available", "frame_cove": "Not Available", "install_da": "Not Available", "other": "Not Available", "source_dat": "6/1/2022", "load_date": "2022-06-07"}}, {"type": "Feature", "geometry": {"type": "Point", "coordinates": [-121.89961627864758, 37.44702719570794]}, "properties": {"type": "Service Tap", "subtype": "Not Available", "material": "Not Available", "owner": "Gas Company", "owner_id": "Not Available", "frame_cove": "Not Available", "install_da": "Not Available", "other": "Not Available", "source_dat": "6/1/2022", "load_date": "2022-06-07"}}, {"type": "Feature", "geometry": {"type": "Point", "coordinates": [-121.89781691270923, 37.44705018741803]}, "properties": {"type": "Service Tap", "subtype": "Not Available", "material": "Not Available", "owner": "Gas Company", "owner_id": "Not Available", "frame_cove": "Not Available", "install_da": "Not Available", "other": "Not Available", "source_dat": "6/1/2022", "load_date": "2022-06-07"}}, {"type": "Feature", "geometry": {"type": "Point", "coordinates": [-121.90129981940646, 37.44697820760889]}, "properties": {"type": "Service Tap", "subtype": "Not Available", "material": "Not Available", "owner": "Gas Company", "owner_id": "Not Available", "frame_cove": "Not Available", "install_da": "Not Available", "other": "Not Available", "source_dat": "6/1/2022", "load_date": "2022-06-07"}}, {"type": "Feature", "geometry": {"type": "Point", "coordinates": [-121.90132219194862, 37.44723985770266]}, "properties": {"type": "Service Tap", "subtype": "Not Available", "material": "Not Available", "owner": "Gas Company", "owner_id": "Not Available", "frame_cove": "Not Available", "install_da": "Not Available", "other": "Not Available", "source_dat": "6/1/2022", "load_date": "2022-06-07"}}, {"type": "Feature", "geometry": {"type": "Point", "coordinates": [-121.9013477103909, 37.44691573381109]}, "properties": {"type": "Service Tap", "subtype": "Not Available", "material": "Not Available", "owner": "Gas Company", "owner_id": "Not Available", "frame_cove": "Not Available", "install_da": "Not Available", "other": "Not Available", "source_dat": "6/1/2022", "load_date": "2022-06-07"}}, {"type": "Feature", "geometry": {"type": "Point", "coordinates": [-121.90104465205167, 37.447032755711476]}, "properties": {"type": "Service Tap", "subtype": "Not Available", "material": "Not Available", "owner": "Gas Company", "owner_id": "Not Available", "frame_cove": "Not Available", "install_da": "Not Available", "other": "Not Available", "source_dat": "6/1/2022", "load_date": "2022-06-07"}}, {"type": "Feature", "geometry": {"type": "Point", "coordinates": [-121.901088152071, 37.44695533925807]}, "properties": {"type": "Service Tap", "subtype": "Not Available", "material": "Not Available", "owner": "Gas Company", "owner_id": "Not Available", "frame_cove": "Not Available", "install_da": "Not Available", "other": "Not Available", "source_dat": "6/1/2022", "load_date": "2022-06-07"}}, {"type": "Feature", "geometry": {"type": "Point", "coordinates": [-121.9009617752802, 37.447037300136785]}, "properties": {"type": "Service Tap", "subtype": "Not Available", "material": "Not Available", "owner": "Gas Company", "owner_id": "Not Available", "frame_cove": "Not Available", "install_da": "Not Available", "other": "Not Available", "source_dat": "6/1/2022", "load_date": "2022-06-07"}}, {"type": "Feature", "geometry": {"type": "Point", "coordinates": [-121.90092392027412, 37.44703937622301]}, "properties": {"type": "Service Tap", "subtype": "Not Available", "material": "Not Available", "owner": "Gas Company", "owner_id": "Not Available", "frame_cove": "Not Available", "install_da": "Not Available", "other": "Not Available", "source_dat": "6/1/2022", "load_date": "2022-06-07"}}]}