{"type": "FeatureCollection", "features": [{"type": "Feature", "geometry": {"type": "LineString", "coordinates": [[-121.89682266543755, 37.44747103331271], [-121.8968439914424, 37.44746765425396]]}, "properties": {"type": "Distribution Main", "diameter": "1.25", "material": "Plastic", "owner": "Gas Company", "owner_id": "Not Available", "location_d": "Not Available", "install_da": "Not Available", "other": "Not Available", "source_dat": "6/1/2022", "load_date": "2022-06-07", "Shape_Leng": 2.42081854805}}, {"type": "Feature", "geometry": {"type": "LineString", "coordinates": [[-121.90034435060896, 37.446421816117486], [-121.90033747849708, 37.44642222263721]]}, "properties": {"type": "Distribution Main", "diameter": "6", "material": "Steel", "owner": "Gas Company", "owner_id": "Not Available", "location_d": "Not Available", "install_da": "Not Available", "other": "Not Available", "source_dat": "6/1/2022", "load_date": "2022-06-07", "Shape_Leng": 0.767120590579}}, {"type": "Feature", "geometry": {"type": "LineString", "coordinates": [[-121.89407063973366, 37.44676303016521], [-121.89315715459928, 37.446818561911854]]}, "properties": {"type": "Distribution Main", "diameter": "4", "material": "Plastic", "owner": "Gas Company", "owner_id": "Not Available", "location_d": "Not Available", "install_da": "Not Available", "other": "Not Available", "source_dat": "6/1/2022", "load_date": "2022-06-07", "Shape_Leng": 101.986370328}}, {"type": "Feature", "geometry": {"type": "LineString", "coordinates": [[-121.90040424128895, 37.44641834714912], [-121.90037213729737, 37.446420175774705]]}, "properties": {"type": "Abandoned Gas Pipe", "diameter": "6", "material": "Steel", "owner": "Gas Company", "owner_id": "Not Available", "location_d": "Not Available", "install_da": "Not Available", "other": "Not Available", "source_dat": "6/1/2022", "load_date": "2022-06-07", "Shape_Leng": 3.5829858211}}, {"type": "Feature", "geometry": {"type": "LineString", "coordinates": [[-121.89358916128016, 37.44823203009318], [-121.89361045437312, 37.44817810762364], [-121.89364149925102, 37.448117528311045], [-121.89370593450805, 37.44802984394286], [-121.89374064810555, 37.447982605925155], [-121.89386920331091, 37.44780759763845], [-121.89392390711849, 37.44773469498998], [-121.89393100111431, 37.4477239651964]]}, "properties": {"type": "Distribution Main", "diameter": "1.25", "material": "Plastic", "owner": "Gas Company", "owner_id": "Not Available", "location_d": "Not Available", "install_da": "Not Available", "other": "Not Available", "source_dat": "6/1/2022", "load_date": "2022-06-07", "Shape_Leng": 91.188929613}}, {"type": "Feature", "geometry": {"type": "LineString", "coordinates": [[-121.89665408220147, 37.446975090267614], [-121.89664452772008, 37.4469870425713], [-121.8966433015197, 37.4469885752104], [-121.89664110693552, 37.44699269671847], [-121.89663546641381, 37.44700328184004], [-121.89663079966593, 37.44701881932934], [-121.89662942883677, 37.44703475905275], [-121.89663139345237, 37.447050665966216], [-121.89663235824295, 37.447053508014335], [-121.89663660008767, 37.447066006606306], [-121.89664491399566, 37.44708045718684], [-121.89665610430917, 37.44709361689778], [-121.89666986380439, 37.44710512344126], [-121.89668581698547, 37.44711466159003], [-121.896706047944, 37.447123012283136], [-121.8967210237581, 37.447129174921486], [-121.89673682242902, 37.44713855046081], [-121.89675049838088, 37.44714984874726], [-121.89676168689773, 37.447162771668424], [-121.8967702172997, 37.44717718585782], [-121.89677583805845, 37.44719400133882], [-121.89678946639964, 37.44724872401426], [-121.8968439914424, 37.44746765425396]]}, "properties": {"type": "Distribution Main", "diameter": "1.25", "material": "Plastic", "owner": "Gas Company", "owner_id": "Not Available", "location_d": "Not Available", "install_da": "Not Available", "other": "Not Available", "source_dat": "6/1/2022", "load_date": "2022-06-07", "Shape_Leng": 77.1224988519}}, {"type": "Feature", "geometry": {"type": "LineString", "coordinates": [[-121.89783475145413, 37.447288199485456], [-121.89781843804855, 37.447070542471366]]}, "properties": {"type": "Abandoned Gas Pipe", "diameter": "2", "material": "Plastic", "owner": "Gas Company", "owner_id": "Not Available", "location_d": "Not Available", "install_da": "Not Available", "other": "Not Available", "source_dat": "6/1/2022", "load_date": "2022-06-07", "Shape_Leng": 30.5729818152}}, {"type": "Feature", "geometry": {"type": "LineString", "coordinates": [[-121.90068899016607, 37.446401562161036], [-121.90060411374472, 37.44640560311074], [-121.90059602531389, 37.44640695888993], [-121.90058792610336, 37.44640976958211], [-121.90058288385963, 37.44641193412163], [-121.90057915405461, 37.44641556070587], [-121.90057726849078, 37.44641848051609], [-121.90057402287768, 37.44642432227588], [-121.9005716046129, 37.446427656450616], [-121.90056733402203, 37.446431601831094], [-121.90056335268874, 37.446433872635716], [-121.90055781367673, 37.44643575189757], [-121.90055358081506, 37.44643607853967]]}, "properties": {"type": "Distribution Main", "diameter": "4", "material": "Plastic", "owner": "Gas Company", "owner_id": "Not Available", "location_d": "Not Available", "install_da": "Not Available", "other": "Not Available", "source_dat": "6/1/2022", "load_date": "2022-06-07", "Shape_Leng": 16.9780392432}}, {"type": "Feature", "geometry": {"type": "LineString", "coordinates": [[-121.89571484596118, 37.44667682550518], [-121.89570005609835, 37.44667754725354], [-121.89566619230708, 37.44664962799708], [-121.89564780828479, 37.44663447198799], [-121.89542250362494, 37.44664281774241], [-121.89538304332947, 37.446693005646516], [-121.89537848976929, 37.44669322816176]]}, "properties": {"type": "Distribution Main", "diameter": "4", "material": "Steel", "owner": "Gas Company", "owner_id": "Not Available", "location_d": "Not Available", "install_da": "Not Available", "other": "Not Available", "source_dat": "6/1/2022", "load_date": "2022-06-07", "Shape_Leng": 43.9459762114}}, {"type": "Feature", "geometry": {"type": "LineString", "coordinates": [[-121.89886304757005, 37.44714921044619], [-121.89891751422233, 37.44714063866846], [-121.8989921489511, 37.44712889249993], [-121.89901260987828, 37.4471256803113], [-121.89908027547709, 37.44711505883456], [-121.89928304769458, 37.44708318369775], [-121.89941817227965, 37.44706194287029], [-121.89948582709866, 37.4470513071209], [-121.89949789686284, 37.44704941432391], [-121.89955595138639, 37.447040309784285], [-121.89957962019749, 37.44703801332342], [-121.89959874443159, 37.44703367072991], [-121.89961627864756, 37.44702719570794], [-121.89963236567769, 37.44701879436781], [-121.89964625453031, 37.447008848977205], [-121.89965817068251, 37.44699739162869], [-121.89966785811457, 37.44698466837142], [-121.8996750787728, 37.44697100655748], [-121.89967972935105, 37.44695664510421], [-121.89968170474637, 37.446941897813744], [-121.89968096453458, 37.44692707563562], [-121.8996775230887, 37.44691250021761], [-121.89967153222409, 37.446898659380345], [-121.89966093479867, 37.44688290577001], [-121.89964722201587, 37.44686901429092], [-121.89964032205619, 37.44686409329188], [-121.89963069570958, 37.44685722885437], [-121.89961185444481, 37.4468479096217], [-121.89959126955006, 37.44684133687678], [-121.89958411536713, 37.44684014228607], [-121.89956956804944, 37.44683771245275], [-121.89954739044168, 37.446837144754674], [-121.8995405919916, 37.446837686064804], [-121.89953066111617, 37.44683847485135], [-121.89951371709331, 37.44684096387922]]}, "properties": {"type": "Distribution Main", "diameter": "1.25", "material": "Plastic", "owner": "Gas Company", "owner_id": "Not Available", "location_d": "Not Available", "install_da": "Not Available", "other": "Not Available", "source_dat": "6/1/2022", "load_date": "2022-06-07", "Shape_Leng": 127.614314657}}, {"type": "Feature", "geometry": {"type": "LineString", "coordinates": [[-121.89486863386179, 37.44711975088435], [-121.89486934353083, 37.44713510577403], [-121.89486939383653, 37.44713619195582], [-121.89487348117109, 37.44715234560991], [-121.89488053294605, 37.44716731751226], [-121.89489188136301, 37.44718322439749], [-121.89490063275053, 37.44719570585128], [-121.89490751294733, 37.447211345999364], [-121.8949081821922, 37.44721455176577], [-121.8949109229521, 37.447227694336625], [-121.89491076574691, 37.447244263757604], [-121.89490704582335, 37.44726057000982], [-121.89490061837749, 37.44727450206773], [-121.89488499397974, 37.44730401505742], [-121.89487311016688, 37.44733258306694], [-121.89486135481305, 37.4473732873089], [-121.89485523548932, 37.44741456706742], [-121.89485494174023, 37.44744070236827], [-121.89485476746705, 37.44745613350256], [-121.89486002440812, 37.44749804580802], [-121.89486129642255, 37.44750402370128], [-121.89486365090688, 37.447514360563076], [-121.8949284104557, 37.44777115844712]]}, "properties": {"type": "Distribution Main", "diameter": "1.25", "material": "Plastic", "owner": "Gas Company", "owner_id": "Not Available", "location_d": "Not Available", "install_da": "Not Available", "other": "Not Available", "source_dat": "6/1/2022", "load_date": "2022-06-07", "Shape_Leng": 93.9686971302}}, {"type": "Feature", "geometry": {"type": "LineString", "coordinates": [[-121.89783646184648, 37.44731101638529], [-121.89787327929832, 37.44730521320672], [-121.89800824398331, 37.44728393749631], [-121.8980760569058, 37.447273247576426], [-121.89827877342772, 37.44724126053696], [-121.89842183193336, 37.44721869750969], [-121.89848945351474, 37.4472080325419], [-121.89850879064953, 37.44720498438918], [-121.89858264743725, 37.44719334092944], [-121.89882099383831, 37.44715582952111]]}, "properties": {"type": "Distribution Main", "diameter": "2", "material": "Plastic", "owner": "Gas Company", "owner_id": "Not Available", "location_d": "Not Available", "install_da": "Not Available", "other": "Not Available", "source_dat": "6/1/2022", "load_date": "2022-06-07", "Shape_Leng": 111.736828634}}, {"type": "Feature", "geometry": {"type": "LineString", "coordinates": [[-121.90156823222252, 37.44635214867586], [-121.90150210833033, 37.44635572311323], [-121.90145543725811, 37.44635822428148], [-121.90131323305032, 37.44636630547215]]}, "properties": {"type": "Distribution Main", "diameter": "4", "material": "Plastic", "owner": "Gas Company", "owner_id": "Not Available", "location_d": "Not Available", "install_da": "Not Available", "other": "Not Available", "source_dat": "6/1/2022", "load_date": "2022-06-07", "Shape_Leng": 301.373096072}}, {"type": "Feature", "geometry": {"type": "LineString", "coordinates": [[-121.90133069052993, 37.44733511144102], [-121.90132708417364, 37.44729463098062], [-121.90132219194862, 37.447239857702684], [-121.90131705268682, 37.44718232150498], [-121.90131214608877, 37.44712751319871], [-121.90131129538423, 37.44711800928449], [-121.90131132143537, 37.44710692209633], [-121.90131357261345, 37.44709495198212], [-121.90131737787698, 37.44708499091146], [-121.90132235095042, 37.44707301722784], [-121.90132526867845, 37.44706263894028], [-121.90132722880242, 37.447047172065425], [-121.90132649128556, 37.44703190701934], [-121.90132238778136, 37.44701513714579], [-121.90131749465799, 37.44700324546749], [-121.90130870823619, 37.446988675769795], [-121.90129981940646, 37.44697820760887], [-121.90128518764708, 37.44696474120714], [-121.90127054959956, 37.44695495556321], [-121.90125420565127, 37.44694681952075], [-121.9012366049599, 37.44694058269591], [-121.90121808349538, 37.446936365617795], [-121.90119906346588, 37.44693425672201], [-121.90117874986235, 37.44693434301776], [-121.9011587327029, 37.44693679709627], [-121.90113938299164, 37.446941564755114], [-121.90113527679249, 37.44694313519409], [-121.90111881157164, 37.44694942693421], [-121.90110543475872, 37.44695437360233], [-121.901088152071, 37.44695533925807], [-121.90108304604694, 37.44695562453301], [-121.90109029006135, 37.447019354932685], [-121.90109152165161, 37.447030185386616], [-121.90104465205165, 37.447032755711476], [-121.90096177528017, 37.447037300136806], [-121.9009239202741, 37.44703937622299], [-121.90086499348641, 37.447042607671506], [-121.90083016580286, 37.44704455467085], [-121.90076146803979, 37.44704839375401], [-121.90072751980694, 37.4470503257762], [-121.90062623835189, 37.447056089749374], [-121.90060343641498, 37.44706044446571], [-121.90058670619118, 37.44706689808925], [-121.90057222624714, 37.447075200291025], [-121.90056247772965, 37.447083135201034], [-121.90055975044444, 37.44708535606286], [-121.90055118770313, 37.44709528290044], [-121.90054016717126, 37.44710847541532], [-121.90052872173618, 37.44711867254738], [-121.90051557489201, 37.447127466841614], [-121.90050108686312, 37.44713463649779], [-121.90048391287151, 37.447140532403786], [-121.9004666418619, 37.44714413470437], [-121.90044990894305, 37.447145628115045], [-121.9004351927421, 37.4471452893519], [-121.9004241838883, 37.44714403557157], [-121.90041647903811, 37.44714298504919], [-121.90039865556454, 37.447138312256826], [-121.90038046018846, 37.44713077958941], [-121.90036527327027, 37.44712170358719], [-121.90035200515348, 37.44711077116089], [-121.90034647602296, 37.44710447087609], [-121.90034211829547, 37.44709950353556], [-121.90034106906329, 37.44709830680937], [-121.90033273718898, 37.447084620767846]]}, "properties": {"type": "Distribution Main", "diameter": "1.25", "material": "Plastic", "owner": "Gas Company", "owner_id": "Not Available", "location_d": "Not Available", "install_da": "Not Available", "other": "Not Available", "source_dat": "6/1/2022", "load_date": "2022-06-07", "Shape_Leng": 218.242928875}}, {"type": "Feature", "geometry": {"type": "LineString", "coordinates": [[-121.89882099383831, 37.44715582952111], [-121.89886304757005, 37.44714921044619]]}, "properties": {"type": "Distribution Main", "diameter": "2", "material": "Plastic", "owner": "Gas Company", "owner_id": "Not Available", "location_d": "Not Available", "install_da": "Not Available", "other": "Not Available", "source_dat": "6/1/2022", "load_date": "2022-06-07", "Shape_Leng": 4.7725125009}}, {"type": "Feature", "geometry": {"type": "LineString", "coordinates": [[-121.90037213729737, 37.446420175774705], [-121.90034435060896, 37.446421816117486]]}, "properties": {"type": "Abandoned Gas Pipe", "diameter": "6", "material": "Steel", "owner": "Gas Company", "owner_id": "Not Available", "location_d": "Not Available", "install_da": "Not Available", "other": "Not Available", "source_dat": "6/1/2022", "load_date": "2022-06-07", "Shape_Leng": 3.10173922855}}, {"type": "Feature", "geometry": {"type": "LineString", "coordinates": [[-121.90049932257192, 37.44641226860893], [-121.9004689262776, 37.44641398169752]]}, "properties": {"type": "Distribution Main", "diameter": "6", "material": "Steel", "owner": "Gas Company", "owner_id": "Not Available", "location_d": "Not Available", "install_da": "Not Available", "other": "Not Available", "source_dat": "6/1/2022", "load_date": "2022-06-07", "Shape_Leng": 3.39221487321}}, {"type": "Feature", "geometry": {"type": "LineString", "coordinates": [[-121.9005233129799, 37.446437951382826], [-121.90045877800988, 37.446442093603814]]}, "properties": {"type": "Distribution Main", "diameter": "4", "material": "Steel", "owner": "Gas Company", "owner_id": "Not Available", "location_d": "Not Available", "install_da": "Not Available", "other": "Not Available", "source_dat": "6/1/2022", "load_date": "2022-06-07", "Shape_Leng": 7.20743953251}}, {"type": "Feature", "geometry": {"type": "LineString", "coordinates": [[-121.89781691270923, 37.44705018741803], [-121.89786309150477, 37.447047576442195]]}, "properties": {"type": "Abandoned Gas Pipe", "diameter": "0.5", "material": "Plastic", "owner": "Gas Company", "owner_id": "Not Available", "location_d": "Not Available", "install_da": "Not Available", "other": "Not Available", "source_dat": "6/1/2022", "load_date": "2022-06-07", "Shape_Leng": 5.15361985245}}, {"type": "Feature", "geometry": {"type": "LineString", "coordinates": [[-121.89889758428627, 37.447461173052424], [-121.89882099383831, 37.44715582952111]]}, "properties": {"type": "Distribution Main", "diameter": "2", "material": "Plastic", "owner": "Gas Company", "owner_id": "Not Available", "location_d": "Not Available", "install_da": "Not Available", "other": "Not Available", "source_dat": "6/1/2022", "load_date": "2022-06-07", "Shape_Leng": 45.2010583995}}, {"type": "Feature", "geometry": {"type": "LineString", "coordinates": [[-121.90010132119936, 37.44743221318348], [-121.90025435109558, 37.44700832692434], [-121.90045877800988, 37.446442093603814], [-121.9004689262776, 37.44641398169752]]}, "properties": {"type": "Distribution Main", "diameter": "6", "material": "Steel", "owner": "Gas Company", "owner_id": "Not Available", "location_d": "Not Available", "install_da": "Not Available", "other": "Not Available", "source_dat": "6/1/2022", "load_date": "2022-06-07", "Shape_Leng": 415.680719219}}, {"type": "Feature", "geometry": {"type": "LineString", "coordinates": [[-121.8968439914424, 37.44746765425396], [-121.89685946492318, 37.44746520233245], [-121.89689107394312, 37.447460200069806], [-121.89692706584326, 37.44745452028345], [-121.897062240734, 37.44743318898725], [-121.89719740394656, 37.44741185197951], [-121.89726808698639, 37.447400694229756], [-121.89746777259253, 37.44736919006999], [-121.8976029025675, 37.447347870873614], [-121.89767052235223, 37.44733720235838], [-121.89779832836263, 37.44731702638676]]}, "properties": {"type": "Distribution Main", "diameter": "1.25", "material": "Plastic", "owner": "Gas Company", "owner_id": "Not Available", "location_d": "Not Available", "install_da": "Not Available", "other": "Not Available", "source_dat": "6/1/2022", "load_date": "2022-06-07", "Shape_Leng": 108.315406131}}, {"type": "Feature", "geometry": {"type": "LineString", "coordinates": [[-121.89779832836263, 37.44731702638676], [-121.89783646184648, 37.44731101638529]]}, "properties": {"type": "Distribution Main", "diameter": "2", "material": "Plastic", "owner": "Gas Company", "owner_id": "Not Available", "location_d": "Not Available", "install_da": "Not Available", "other": "Not Available", "source_dat": "6/1/2022", "load_date": "2022-06-07", "Shape_Leng": 4.32783644492}}, {"type": "Feature", "geometry": {"type": "LineString", "coordinates": [[-121.89393100111431, 37.4477239651964], [-121.89395836469615, 37.44768257791837], [-121.89401559905788, 37.447587017378716], [-121.89403580666014, 37.44754181093634], [-121.89403910257893, 37.44753443734918], [-121.89405575644601, 37.447489655931676], [-121.89407571880824, 37.447418110160626], [-121.89408802123607, 37.44734567712065], [-121.89409263228845, 37.44727318196347], [-121.89409189028, 37.44725527889378], [-121.89408960047433, 37.44720003845078], [-121.894088588073, 37.44718911530734]]}, "properties": {"type": "Distribution Main", "diameter": "1.25", "material": "Plastic", "owner": "Gas Company", "owner_id": "Not Available", "location_d": "Not Available", "install_da": "Not Available", "other": "Not Available", "source_dat": "6/1/2022", "load_date": "2022-06-07", "Shape_Leng": 78.2595127069}}, {"type": "Feature", "geometry": {"type": "LineString", "coordinates": [[-121.89378683678251, 37.447505850873995], [-121.8938034852597, 37.44749951781613], [-121.89381317718329, 37.44749365189208], [-121.8938233047898, 37.447486068624556], [-121.89383238226576, 37.44747768231283], [-121.89384031079645, 37.44746858638352], [-121.89384700144868, 37.44745887925568], [-121.89385238505218, 37.44744866790635], [-121.89385639872488, 37.44743806359192], [-121.89385900114426, 37.44742718256103], [-121.8938601626659, 37.44741614462824], [-121.89385986981513, 37.44740506960835], [-121.89385812798182, 37.44739408016877], [-121.89385495423392, 37.44738329612444], [-121.89385032791022, 37.447372708917115], [-121.89384652713821, 37.44736610412503], [-121.89384046889992, 37.447359500045614], [-121.89383444300104, 37.44735293162479], [-121.89381933513458, 37.447341365925084], [-121.89381622157381, 37.44733969992787], [-121.89380194375067, 37.4473320610164], [-121.89379197245098, 37.4473285414542], [-121.89378279256715, 37.44732530074663], [-121.89376246369227, 37.447321286947634], [-121.89374156887871, 37.44732014300061], [-121.89372044679149, 37.44732192810001], [-121.89370452055982, 37.447325342824506], [-121.89368906414698, 37.44733058757861], [-121.89367262497733, 37.447338478957285], [-121.89366070253686, 37.44734421580719], [-121.89364576624864, 37.447349364280214], [-121.89363009783341, 37.44735286387229], [-121.89361583168844, 37.44735444500039], [-121.8936151319008, 37.44735452273738], [-121.89354709080624, 37.447358357525516], [-121.89337527902502, 37.44736806537967], [-121.89332303210976, 37.4473710165328], [-121.89326648945085, 37.44737421016826], [-121.89319775485686, 37.44737809202543], [-121.89302079842395, 37.44738806660757], [-121.89297942561527, 37.44739040727506], [-121.89291497239194, 37.44739405449418], [-121.89288158291114, 37.44739594300336], [-121.89286881785094, 37.44739607779501], [-121.89285710471793, 37.44739513354039], [-121.89284237414391, 37.44739395036944], [-121.89282268846279, 37.447394562993836], [-121.89280382653679, 37.44739766961991], [-121.89278586023109, 37.44740320320813], [-121.89276919378759, 37.447411049648586], [-121.89275538398678, 37.44742018623627], [-121.89274344268169, 37.44743095815124], [-121.89273371752037, 37.44744306585596], [-121.89273265750838, 37.44744498217801], [-121.89272640882724, 37.44745627827859], [-121.89272200169249, 37.44746919330183], [-121.89271995982186, 37.44748255263548], [-121.89272009097584, 37.44748706636665], [-121.89272038562324, 37.44749722279568], [-121.89272483138565, 37.44754188296771], [-121.89273301144462, 37.44762398940596], [-121.89273846781164, 37.44767875954996], [-121.8927521060343, 37.44781566012985], [-121.89276577120634, 37.44795255760648], [-121.89277123565827, 37.44800733036268], [-121.89277474537604, 37.4480425163869], [-121.89277653032849, 37.44805625788096], [-121.89277939505595, 37.448065780931685], [-121.89278009574193, 37.44806811373305], [-121.89278662918899, 37.44808126827801], [-121.89279548478105, 37.448093388714675], [-121.89280651878765, 37.44810431315245], [-121.89281937278108, 37.448113714957096], [-121.89283508790868, 37.44812198352347], [-121.89283580027269, 37.44812235794096], [-121.89285367315358, 37.448128656000534], [-121.89287261053805, 37.448132492888476], [-121.89289221447252, 37.44813377303975], [-121.89290984211337, 37.44813267332206], [-121.89292718319162, 37.448129429796694], [-121.89293746710499, 37.44812612850396], [-121.89294370410798, 37.448124125905004], [-121.89295902577348, 37.44811688359963], [-121.89297448757615, 37.448106760060845], [-121.89298309972479, 37.44810082714584], [-121.89299973203224, 37.44809190245473], [-121.89301829571761, 37.44808487623876], [-121.89303768764962, 37.448080160714625], [-121.89303796253412, 37.44808012862168], [-121.89305700771645, 37.448077913494835], [-121.89317124916603, 37.44807144141595], [-121.89323401984487, 37.44806790120641], [-121.89323644529618, 37.44806788551652], [-121.89328976659647, 37.44806753463356], [-121.89332515932036, 37.44806962709423], [-121.89334570558752, 37.44807084163427], [-121.89334766571149, 37.448071088393405], [-121.89340182424165, 37.44807789138639], [-121.89342035648596, 37.448082144058986], [-121.89343840813163, 37.44808903120573], [-121.89344340366289, 37.448091828997526], [-121.89345478262261, 37.44809820051677], [-121.89346903529291, 37.448109401666315], [-121.8934807672905, 37.44812232727441], [-121.89348965971348, 37.4481366171863], [-121.8934954709151, 37.448151884146576], [-121.89349803560522, 37.448167708094054], [-121.89349728641028, 37.44818365042537], [-121.89349367787779, 37.4481976001408], [-121.89348015554123, 37.44824068414945]]}, "properties": {"type": "Distribution Main", "diameter": "1.25", "material": "Plastic", "owner": "Gas Company", "owner_id": "Not Available", "location_d": "Not Available", "install_da": "Not Available", "other": "Not Available", "source_dat": "6/1/2022", "load_date": "2022-06-07", "Shape_Leng": 364.430868136}}, {"type": "Feature", "geometry": {"type": "LineString", "coordinates": [[-121.89315715459928, 37.446818561911854], [-121.89313979196145, 37.44681961743116], [-121.89313348129659, 37.446765067033645], [-121.89306304888676, 37.44676904591615], [-121.89305253048383, 37.446642610831674]]}, "properties": {"type": "Distribution Main", "diameter": "1.25", "material": "Plastic", "owner": "Gas Company", "owner_id": "Not Available", "location_d": "Not Available", "install_da": "Not Available", "other": "Not Available", "source_dat": "6/1/2022", "load_date": "2022-06-07", "Shape_Leng": 146.512191807}}, {"type": "Feature", "geometry": {"type": "LineString", "coordinates": [[-121.8949284104557, 37.44777115844712], [-121.8950876224668, 37.447745935418816], [-121.89522267428835, 37.44772453716683], [-121.89529034258203, 37.44771381521675], [-121.89534769552137, 37.44770472145569], [-121.89549305820566, 37.44768167289232], [-121.89562811451881, 37.44766028817237], [-121.89569000395029, 37.44765048835588], [-121.8956957891007, 37.447649572631676], [-121.89573282484326, 37.44764370386673], [-121.89589847418165, 37.4476174516751], [-121.89592539848734, 37.44761318827834], [-121.89603524358196, 37.447595795927896], [-121.89605905702183, 37.44759202462503]]}, "properties": {"type": "Distribution Main", "diameter": "1.25", "material": "Plastic", "owner": "Gas Company", "owner_id": "Not Available", "location_d": "Not Available", "install_da": "Not Available", "other": "Not Available", "source_dat": "6/1/2022", "load_date": "2022-06-07", "Shape_Leng": 128.34480412}}, {"type": "Feature", "geometry": {"type": "LineString", "coordinates": [[-121.90005346174696, 37.446437614042814], [-121.89988966024308, 37.44644694331133], [-121.89972222685053, 37.446456250469694], [-121.89933325094256, 37.44647787302674], [-121.89916496055721, 37.446487226538736], [-121.89890202996176, 37.44650185053662], [-121.8986366864915, 37.4465165950611], [-121.89842374264997, 37.44652842619549], [-121.89821217772247, 37.44654019385404], [-121.89791411042299, 37.44655674631068], [-121.8977804977026, 37.446564184181454], [-121.8977613689769, 37.446565248975794], [-121.8975228689639, 37.44657850363174], [-121.8973012635664, 37.4465908240053], [-121.8970770782075, 37.44660329058096], [-121.89686318484677, 37.44661517519097], [-121.89664912080615, 37.446627061225456], [-121.89644320448515, 37.44663850721955], [-121.89623743279284, 37.44664995107233], [-121.89603099185572, 37.44666140847394], [-121.89571484596118, 37.44667682550518]]}, "properties": {"type": "Distribution Main", "diameter": "4", "material": "Steel", "owner": "Gas Company", "owner_id": "Not Available", "location_d": "Not Available", "install_da": "Not Available", "other": "Not Available", "source_dat": "6/1/2022", "load_date": "2022-06-07", "Shape_Leng": 484.137000394}}, {"type": "Feature", "geometry": {"type": "LineString", "coordinates": [[-121.90055358081506, 37.44643607853967], [-121.9005233129799, 37.446437951382826]]}, "properties": {"type": "Distribution Main", "diameter": "4", "material": "Steel", "owner": "Gas Company", "owner_id": "Not Available", "location_d": "Not Available", "install_da": "Not Available", "other": "Not Available", "source_dat": "6/1/2022", "load_date": "2022-06-07", "Shape_Leng": 3.37961760023}}, {"type": "Feature", "geometry": {"type": "LineString", "coordinates": [[-121.90131323305032, 37.44636630547215], [-121.9011242140398, 37.446376939892566], [-121.90093526150457, 37.44638761924265], [-121.90068899016607, 37.446401562161036]]}, "properties": {"type": "Distribution Main", "diameter": "4", "material": "Plastic", "owner": "Gas Company", "owner_id": "Not Available", "location_d": "Not Available", "install_da": "Not Available", "other": "Not Available", "source_dat": "6/1/2022", "load_date": "2022-06-07", "Shape_Leng": 69.6660179306}}, {"type": "Feature", "geometry": {"type": "LineString", "coordinates": [[-121.90008643351112, 37.44643582678281], [-121.90005346174696, 37.446437614042814]]}, "properties": {"type": "Distribution Main", "diameter": "6", "material": "Steel", "owner": "Gas Company", "owner_id": "Not Available", "location_d": "Not Available", "install_da": "Not Available", "other": "Not Available", "source_dat": "6/1/2022", "load_date": "2022-06-07", "Shape_Leng": 3.67894502891}}, {"type": "Feature", "geometry": {"type": "LineString", "coordinates": [[-121.90033747849708, 37.44642222263721], [-121.90008643351112, 37.44643582678281]]}, "properties": {"type": "Distribution Main", "diameter": "6", "material": "Steel", "owner": "Gas Company", "owner_id": "Not Available", "location_d": "Not Available", "install_da": "Not Available", "other": "Not Available", "source_dat": "6/1/2022", "load_date": "2022-06-07", "Shape_Leng": 28.0112236544}}, {"type": "Feature", "geometry": {"type": "LineString", "coordinates": [[-121.90041111519754, 37.44641795560645], [-121.90040424128895, 37.44641834714912]]}, "properties": {"type": "Distribution Main", "diameter": "6", "material": "Steel", "owner": "Gas Company", "owner_id": "Not Available", "location_d": "Not Available", "install_da": "Not Available", "other": "Not Available", "source_dat": "6/1/2022", "load_date": "2022-06-07", "Shape_Leng": 0.767166898513}}, {"type": "Feature", "geometry": {"type": "LineString", "coordinates": [[-121.89393100111431, 37.4477239651964], [-121.8940522826608, 37.447767280176194], [-121.89411023477639, 37.447790308031045], [-121.89411342649063, 37.4477915753509], [-121.89417508595345, 37.44781079624749], [-121.89422676513342, 37.447823152077056], [-121.89427957439399, 37.44783247832007], [-121.8943330951203, 37.44783869082249], [-121.89438704703792, 37.447841750360354], [-121.89442656662227, 37.44784167547651], [-121.89444113549952, 37.447841648375714], [-121.89449538925113, 37.44783836489968], [-121.8945211852728, 37.44783566195129], [-121.89455886690406, 37.447829696208565], [-121.8946821543886, 37.4478101757815], [-121.89481720171855, 37.447788778261085], [-121.89488487091053, 37.447778056320246], [-121.8949284104557, 37.44777115844712]]}, "properties": {"type": "Distribution Main", "diameter": "1.25", "material": "Plastic", "owner": "Gas Company", "owner_id": "Not Available", "location_d": "Not Available", "install_da": "Not Available", "other": "Not Available", "source_dat": "6/1/2022", "load_date": "2022-06-07", "Shape_Leng": 115.062806011}}, {"type": "Feature", "geometry": {"type": "LineString", "coordinates": [[-121.89783646184648, 37.44731101638529], [-121.89783475145413, 37.447288199485456]]}, "properties": {"type": "Distribution Main", "diameter": "2", "material": "Plastic", "owner": "Gas Company", "owner_id": "Not Available", "location_d": "Not Available", "install_da": "Not Available", "other": "Not Available", "source_dat": "6/1/2022", "load_date": "2022-06-07", "Shape_Leng": 3.20496063021}}, {"type": "Feature", "geometry": {"type": "LineString", "coordinates": [[-121.9004689262776, 37.44641398169752], [-121.90041111519754, 37.44641795560645]]}, "properties": {"type": "Distribution Main", "diameter": "6", "material": "Steel", "owner": "Gas Company", "owner_id": "Not Available", "location_d": "Not Available", "install_da": "Not Available", "other": "Not Available", "source_dat": "6/1/2022", "load_date": "2022-06-07", "Shape_Leng": 6.45957677293}}, {"type": "Feature", "geometry": {"type": "LineString", "coordinates": [[-121.89537848976929, 37.44669322816176], [-121.8953648704113, 37.44669389214153], [-121.89503537375496, 37.446711515061985], [-121.89468644204742, 37.446730152133775], [-121.8944953443354, 37.44674036429442], [-121.89430323781525, 37.44675061282621], [-121.89407063973366, 37.44676303016521]]}, "properties": {"type": "Distribution Main", "diameter": "4", "material": "Plastic", "owner": "Gas Company", "owner_id": "Not Available", "location_d": "Not Available", "install_da": "Not Available", "other": "Not Available", "source_dat": "6/1/2022", "load_date": "2022-06-07", "Shape_Leng": 145.917832996}}, {"type": "Feature", "geometry": {"type": "LineString", "coordinates": [[-121.89407063973366, 37.44676303016521], [-121.89406065865863, 37.44658819465033]]}, "properties": {"type": "Distribution Main", "diameter": "4", "material": "Plastic", "owner": "Gas Company", "owner_id": "Not Available", "location_d": "Not Available", "install_da": "Not Available", "other": "Not Available", "source_dat": "6/1/2022", "load_date": "2022-06-07", "Shape_Leng": 53.1549121449}}, {"type": "Feature", "geometry": {"type": "LineString", "coordinates": [[-121.90006473019504, 37.44621172910737], [-121.90007068155265, 37.446260682223645], [-121.90008643351112, 37.44643582678281]]}, "properties": {"type": "Distribution Main", "diameter": "6", "material": "Steel", "owner": "Gas Company", "owner_id": "Not Available", "location_d": "Not Available", "install_da": "Not Available", "other": "Not Available", "source_dat": "6/1/2022", "load_date": "2022-06-07", "Shape_Leng": 112.240945035}}, {"type": "Feature", "geometry": {"type": "LineString", "coordinates": [[-121.89781843804855, 37.447070542471366], [-121.89781764214125, 37.44705992526601], [-121.89781691270923, 37.44705018741803], [-121.89781277866228, 37.44699503597201], [-121.89781071343548, 37.44696746843538], [-121.8977804977026, 37.446564184181454]]}, "properties": {"type": "Distribution Main", "diameter": "2", "material": "Plastic", "owner": "Gas Company", "owner_id": "Not Available", "location_d": "Not Available", "install_da": "Not Available", "other": "Not Available", "source_dat": "6/1/2022", "load_date": "2022-06-07", "Shape_Leng": 71.1247098663}}]}