{"type": "FeatureCollection", "features": [{"type": "Feature", "geometry": {"type": "LineString", "coordinates": [[-121.8932526679719, 37.448135792041434], [-121.89311727838383, 37.44815635219411], [-121.89314380583309, 37.448267387226174]]}, "properties": {"type": "Service", "diameter": "0.5", "material": "Plastic", "owner": "Gas Company", "owner_id": "Not Available", "location_d": "Not Available", "install_da": "Not Available", "other": "Branch", "source_dat": "6/1/2022", "load_date": "2022-06-07", "Shape_Leng": 40.3783466262}}, {"type": "Feature", "geometry": {"type": "LineString", "coordinates": [[-121.9007196667347, 37.44691032570794], [-121.900582021477, 37.446915233153284], [-121.90057201604132, 37.446736851123006]]}, "properties": {"type": "Service", "diameter": "0.5", "material": "Plastic", "owner": "Gas Company", "owner_id": "Not Available", "location_d": "Not Available", "install_da": "Not Available", "other": "Branch", "source_dat": "6/1/2022", "load_date": "2022-06-07", "Shape_Leng": 40.3747295736}}, {"type": "Feature", "geometry": {"type": "LineString", "coordinates": [[-121.89476077314563, 37.44745647654335], [-121.89478911139962, 37.44756401085673], [-121.89456916878372, 37.44760085380959]]}, "properties": {"type": "Service", "diameter": "0.5", "material": "Plastic", "owner": "Gas Company", "owner_id": "Not Available", "location_d": "Not Available", "install_da": "Not Available", "other": "Branch", "source_dat": "6/1/2022", "load_date": "2022-06-07", "Shape_Leng": 40.4275320408}}, {"type": "Feature", "geometry": {"type": "LineString", "coordinates": [[-121.90131214608877, 37.44712751319873], [-121.90134651473325, 37.447125567627886], [-121.90138088337771, 37.44712362205704]]}, "properties": {"type": "Service", "diameter": "0.5", "material": "Plastic", "owner": "Gas Company", "owner_id": "Not Available", "location_d": "Not Available", "install_da": "Not Available", "other": "Service", "source_dat": "6/1/2022", "load_date": "2022-06-07", "Shape_Leng": 7.6712269306}}, {"type": "Feature", "geometry": {"type": "LineString", "coordinates": [[-121.89687431803635, 37.44642302285573], [-121.89687512794845, 37.446425321458534]]}, "properties": {"type": "Service", "diameter": "0.5", "material": "Plastic", "owner": "Gas Company", "owner_id": "Not Available", "location_d": "Not Available", "install_da": "Not Available", "other": "Branch", "source_dat": "6/1/2022", "load_date": "2022-06-07", "Shape_Leng": 40.3756827199}}, {"type": "Feature", "geometry": {"type": "LineString", "coordinates": [[-121.89573282484326, 37.44764370386675], [-121.89569887122052, 37.4475090865814], [-121.89565471902425, 37.44733403083006]]}, "properties": {"type": "Service", "diameter": "0.5", "material": "Plastic", "owner": "Gas Company", "owner_id": "Not Available", "location_d": "Not Available", "install_da": "Not Available", "other": "Mother", "source_dat": "6/1/2022", "load_date": "2022-06-07", "Shape_Leng": 44.2832598385}}, {"type": "Feature", "geometry": {"type": "LineString", "coordinates": [[-121.89299122678311, 37.447530164676316], [-121.8931287372936, 37.44752278395618], [-121.89314378048131, 37.447700940173824]]}, "properties": {"type": "Service", "diameter": "0.5", "material": "Plastic", "owner": "Gas Company", "owner_id": "Not Available", "location_d": "Not Available", "install_da": "Not Available", "other": "Branch", "source_dat": "6/1/2022", "load_date": "2022-06-07", "Shape_Leng": 40.3791098921}}, {"type": "Feature", "geometry": {"type": "LineString", "coordinates": [[-121.89523966143034, 37.447791864901774], [-121.89537477703225, 37.44777019636785], [-121.89541894180489, 37.447945249672145]]}, "properties": {"type": "Service", "diameter": "0.5", "material": "Plastic", "owner": "Gas Company", "owner_id": "Not Available", "location_d": "Not Available", "install_da": "Not Available", "other": "Branch", "source_dat": "6/1/2022", "load_date": "2022-06-07", "Shape_Leng": 40.377831343}}, {"type": "Feature", "geometry": {"type": "LineString", "coordinates": [[-121.8994349483176, 37.447129304008136], [-121.89957013039482, 37.44710790272701], [-121.89961374989005, 37.44728304316321]]}, "properties": {"type": "Service", "diameter": "0.5", "material": "Plastic", "owner": "Gas Company", "owner_id": "Not Available", "location_d": "Not Available", "install_da": "Not Available", "other": "Branch", "source_dat": "6/1/2022", "load_date": "2022-06-07", "Shape_Leng": 40.3776288671}}, {"type": "Feature", "geometry": {"type": "LineString", "coordinates": [[-121.89763545661508, 37.4469771920303], [-121.89764502546949, 37.447086810249374], [-121.89742160637353, 37.447099206136954]]}, "properties": {"type": "Service", "diameter": "0.5", "material": "Plastic", "owner": "Gas Company", "owner_id": "Not Available", "location_d": "Not Available", "install_da": "Not Available", "other": "Branch", "source_dat": "6/1/2022", "load_date": "2022-06-07", "Shape_Leng": 40.3386260153}}, {"type": "Feature", "geometry": {"type": "LineString", "coordinates": [[-121.89302578048056, 37.447939234728906], [-121.89316329099097, 37.4479318483437], [-121.89314823612516, 37.44775369338907]]}, "properties": {"type": "Service", "diameter": "0.5", "material": "Plastic", "owner": "Gas Company", "owner_id": "Not Available", "location_d": "Not Available", "install_da": "Not Available", "other": "Branch", "source_dat": "6/1/2022", "load_date": "2022-06-07", "Shape_Leng": 40.3791510895}}, {"type": "Feature", "geometry": {"type": "LineString", "coordinates": [[-121.89941817227965, 37.44706194287031], [-121.8994349483176, 37.447129304008136], [-121.89947856781285, 37.44730444439421]]}, "properties": {"type": "Service", "diameter": "0.5", "material": "Plastic", "owner": "Gas Company", "owner_id": "Not Available", "location_d": "Not Available", "install_da": "Not Available", "other": "Mother", "source_dat": "6/1/2022", "load_date": "2022-06-07", "Shape_Leng": 34.6609034068}}, {"type": "Feature", "geometry": {"type": "LineString", "coordinates": [[-121.90056247772965, 37.447083135201005], [-121.90056794307988, 37.447159961004594], [-121.90058120939997, 37.447346425250316]]}, "properties": {"type": "Service", "diameter": "0.5", "material": "Plastic", "owner": "Gas Company", "owner_id": "Not Available", "location_d": "Not Available", "install_da": "Not Available", "other": "Mother", "source_dat": "6/1/2022", "load_date": "2022-06-07", "Shape_Leng": 36.9763419717}}, {"type": "Feature", "geometry": {"type": "LineString", "coordinates": [[-121.89678946639964, 37.44724872401429], [-121.89648538847256, 37.44729719915686]]}, "properties": {"type": "Service", "diameter": "0.5", "material": "Plastic", "owner": "Gas Company", "owner_id": "Not Available", "location_d": "Not Available", "install_da": "Not Available", "other": "Service", "source_dat": "6/1/2022", "load_date": "2022-06-07", "Shape_Leng": 34.525471311}}, {"type": "Feature", "geometry": {"type": "LineString", "coordinates": [[-121.89285367315357, 37.44812865600051], [-121.8927676389995, 37.44828166702604]]}, "properties": {"type": "Service", "diameter": "0.5", "material": "Plastic", "owner": "Gas Company", "owner_id": "Not Available", "location_d": "Not Available", "install_da": "Not Available", "other": "Service", "source_dat": "6/1/2022", "load_date": "2022-06-07", "Shape_Leng": 34.6425907598}}, {"type": "Feature", "geometry": {"type": "LineString", "coordinates": [[-121.89850879064953, 37.44720498438915], [-121.89849680892024, 37.44706722401541], [-121.89835931817278, 37.44707482586824], [-121.89834382492907, 37.44689669383429]]}, "properties": {"type": "Service", "diameter": "0.5", "material": "Plastic", "owner": "Gas Company", "owner_id": "Not Available", "location_d": "Not Available", "install_da": "Not Available", "other": "Mother", "source_dat": "6/1/2022", "load_date": "2022-06-07", "Shape_Leng": 59.7410421154}}, {"type": "Feature", "geometry": {"type": "LineString", "coordinates": [[-121.89692706584326, 37.4474545202834], [-121.89694384457616, 37.44752188178093], [-121.89698746856294, 37.447697021247926]]}, "properties": {"type": "Service", "diameter": "0.5", "material": "Plastic", "owner": "Gas Company", "owner_id": "Not Available", "location_d": "Not Available", "install_da": "Not Available", "other": "Mother", "source_dat": "6/1/2022", "load_date": "2022-06-07", "Shape_Leng": 34.6611566865}}, {"type": "Feature", "geometry": {"type": "LineString", "coordinates": [[-121.9012366049599, 37.44694058269589], [-121.90124891008266, 37.44691488155172], [-121.90126119813746, 37.44688921677129]]}, "properties": {"type": "Service", "diameter": "0.5", "material": "Plastic", "owner": "Gas Company", "owner_id": "Not Available", "location_d": "Not Available", "install_da": "Not Available", "other": "Service", "source_dat": "6/1/2022", "load_date": "2022-06-07", "Shape_Leng": 7.70507148204}}, {"type": "Feature", "geometry": {"type": "LineString", "coordinates": [[-121.89272009097584, 37.44748706636665], [-121.89241091241463, 37.44750665177758]]}, "properties": {"type": "Service", "diameter": "0.5", "material": "Plastic", "owner": "Gas Company", "owner_id": "Not Available", "location_d": "Not Available", "install_da": "Not Available", "other": "Service", "source_dat": "6/1/2022", "load_date": "2022-06-07", "Shape_Leng": 34.5269866062}}, {"type": "Feature", "geometry": {"type": "LineString", "coordinates": [[-121.8932604114496, 37.447305703877326], [-121.89312293327855, 37.447313458327315], [-121.89310712921773, 37.44713534397804]]}, "properties": {"type": "Service", "diameter": "0.5", "material": "Plastic", "owner": "Gas Company", "owner_id": "Not Available", "location_d": "Not Available", "install_da": "Not Available", "other": "Branch", "source_dat": "6/1/2022", "load_date": "2022-06-07", "Shape_Leng": 40.3789652198}}, {"type": "Feature", "geometry": {"type": "LineString", "coordinates": [[-121.89958411536713, 37.44684014228604], [-121.89992703285382, 37.446818125440366]]}, "properties": {"type": "Service", "diameter": "0.5", "material": "Plastic", "owner": "Gas Company", "owner_id": "Not Available", "location_d": "Not Available", "install_da": "Not Available", "other": "Service", "source_dat": "6/1/2022", "load_date": "2022-06-07", "Shape_Leng": 38.298024152}}, {"type": "Feature", "geometry": {"type": "LineString", "coordinates": [[-121.901088152071, 37.44695533925807], [-121.90108673722442, 37.44693011238875], [-121.90108165904815, 37.4468395496264], [-121.90108865063598, 37.44683347967872]]}, "properties": {"type": "Service", "diameter": "0.5", "material": "Plastic", "owner": "Gas Company", "owner_id": "Not Available", "location_d": "Not Available", "install_da": "Not Available", "other": "Service", "source_dat": "6/1/2022", "load_date": "2022-06-07", "Shape_Leng": 17.4048906588}}, {"type": "Feature", "geometry": {"type": "LineString", "coordinates": [[-121.90134771039088, 37.44691573381109], [-121.90123011463197, 37.446858429863575], [-121.90134690819535, 37.44670607342414]]}, "properties": {"type": "Service", "diameter": "UNK", "material": "Plastic", "owner": "Gas Company", "owner_id": "Not Available", "location_d": "Not Available", "install_da": "Not Available", "other": "Branch", "source_dat": "6/1/2022", "load_date": "2022-06-07", "Shape_Leng": 40.3679100327}}, {"type": "Feature", "geometry": {"type": "LineString", "coordinates": [[-121.89786309150476, 37.447047576442216], [-121.89790283746449, 37.44704532990465], [-121.89812623500093, 37.44703269936971]]}, "properties": {"type": "Service", "diameter": "0.5", "material": "Plastic", "owner": "Gas Company", "owner_id": "Not Available", "location_d": "Not Available", "install_da": "Not Available", "other": "Mother", "source_dat": "6/1/2022", "load_date": "2022-06-07", "Shape_Leng": 29.3671797237}}, {"type": "Feature", "geometry": {"type": "LineString", "coordinates": [[-121.89953066111617, 37.44683847485135], [-121.8995262449982, 37.44678743335755], [-121.89923409310488, 37.44680377108962]]}, "properties": {"type": "Service", "diameter": "0.5", "material": "Plastic", "owner": "Gas Company", "owner_id": "Not Available", "location_d": "Not Available", "install_da": "Not Available", "other": "Service", "source_dat": "6/1/2022", "load_date": "2022-06-07", "Shape_Leng": 39.7764440179}}, {"type": "Feature", "geometry": {"type": "LineString", "coordinates": [[-121.89605223252062, 37.447663123778696], [-121.89618734812252, 37.44764145092843], [-121.89623152098001, 37.447816503107674]]}, "properties": {"type": "Service", "diameter": "0.5", "material": "Plastic", "owner": "Gas Company", "owner_id": "Not Available", "location_d": "Not Available", "install_da": "Not Available", "other": "Branch", "source_dat": "6/1/2022", "load_date": "2022-06-07", "Shape_Leng": 40.3779308289}}, {"type": "Feature", "geometry": {"type": "LineString", "coordinates": [[-121.89293746710499, 37.44812612850391], [-121.89295045982112, 37.44828273711893]]}, "properties": {"type": "Service", "diameter": "0.5", "material": "Plastic", "owner": "Gas Company", "owner_id": "Not Available", "location_d": "Not Available", "install_da": "Not Available", "other": "Service", "source_dat": "6/1/2022", "load_date": "2022-06-07", "Shape_Leng": 34.8679859644}}, {"type": "Feature", "geometry": {"type": "LineString", "coordinates": [[-121.89417786713751, 37.447250856436284], [-121.89416899268082, 37.447141201371885], [-121.89439248723531, 37.447129702678986]]}, "properties": {"type": "Service", "diameter": "0.5", "material": "Plastic", "owner": "Gas Company", "owner_id": "Not Available", "location_d": "Not Available", "install_da": "Not Available", "other": "Branch", "source_dat": "6/1/2022", "load_date": "2022-06-07", "Shape_Leng": 40.3385922975}}, {"type": "Feature", "geometry": {"type": "LineString", "coordinates": [[-121.89843860168311, 37.447286060645894], [-121.89857378645529, 37.447264667967815], [-121.89861738708589, 37.44743981160296]]}, "properties": {"type": "Service", "diameter": "0.5", "material": "Plastic", "owner": "Gas Company", "owner_id": "Not Available", "location_d": "Not Available", "install_da": "Not Available", "other": "Branch", "source_dat": "6/1/2022", "load_date": "2022-06-07", "Shape_Leng": 40.3777717082}}, {"type": "Feature", "geometry": {"type": "LineString", "coordinates": [[-121.89721417459461, 37.44747921422867], [-121.89734935846845, 37.44745782160583], [-121.89739296179404, 37.44763296478876]]}, "properties": {"type": "Service", "diameter": "0.5", "material": "Plastic", "owner": "Gas Company", "owner_id": "Not Available", "location_d": "Not Available", "install_da": "Not Available", "other": "Branch", "source_dat": "6/1/2022", "load_date": "2022-06-07", "Shape_Leng": 40.3777318042}}, {"type": "Feature", "geometry": {"type": "LineString", "coordinates": [[-121.89485494174022, 37.44744070236827], [-121.89476077314563, 37.44745647654335], [-121.89455066618385, 37.4474916713849]]}, "properties": {"type": "Service", "diameter": "0.5", "material": "Plastic", "owner": "Gas Company", "owner_id": "Not Available", "location_d": "Not Available", "install_da": "Not Available", "other": "Mother", "source_dat": "6/1/2022", "load_date": "2022-06-07", "Shape_Leng": 34.6175411612}}, {"type": "Feature", "geometry": {"type": "LineString", "coordinates": [[-121.8926853674969, 37.448012768340014], [-121.89267445476281, 37.44790322992735], [-121.89245119646525, 37.44791736654773]]}, "properties": {"type": "Service", "diameter": "0.5", "material": "Plastic", "owner": "Gas Company", "owner_id": "Not Available", "location_d": "Not Available", "install_da": "Not Available", "other": "Branch", "source_dat": "6/1/2022", "load_date": "2022-06-07", "Shape_Leng": 40.3390878094}}, {"type": "Feature", "geometry": {"type": "LineString", "coordinates": [[-121.89344340366289, 37.448091828997555], [-121.89352091928879, 37.44777319172224]]}, "properties": {"type": "Service", "diameter": "0.5", "material": "Plastic", "owner": "Gas Company", "owner_id": "Not Available", "location_d": "Not Available", "install_da": "Not Available", "other": "Service", "source_dat": "6/1/2022", "load_date": "2022-06-07", "Shape_Leng": 45.5041536891}}, {"type": "Feature", "geometry": {"type": "LineString", "coordinates": [[-121.90141236579818, 37.44612247808406], [-121.90142571110702, 37.44627236006182]]}, "properties": {"type": "Service", "diameter": "0.5", "material": "Plastic", "owner": "Gas Company", "owner_id": "Not Available", "location_d": "Not Available", "install_da": "Not Available", "other": "Mother", "source_dat": "6/1/2022", "load_date": "2022-06-07", "Shape_Leng": 30.8136092688}}, {"type": "Feature", "geometry": {"type": "LineString", "coordinates": [[-121.89333483327766, 37.44751076184624], [-121.89347234288978, 37.447503380410915], [-121.89348738877244, 37.447681536674814]]}, "properties": {"type": "Service", "diameter": "0.5", "material": "Plastic", "owner": "Gas Company", "owner_id": "Not Available", "location_d": "Not Available", "install_da": "Not Available", "other": "Branch", "source_dat": "6/1/2022", "load_date": "2022-06-07", "Shape_Leng": 40.3790369322}}, {"type": "Feature", "geometry": {"type": "LineString", "coordinates": [[-121.89370593450803, 37.448029843942884], [-121.89397238021125, 37.44815633222517]]}, "properties": {"type": "Service", "diameter": "0.5", "material": "Plastic", "owner": "Gas Company", "owner_id": "Not Available", "location_d": "Not Available", "install_da": "Not Available", "other": "Service", "source_dat": "6/1/2022", "load_date": "2022-06-07", "Shape_Leng": 34.5588388292}}, {"type": "Feature", "geometry": {"type": "LineString", "coordinates": [[-121.8989578513791, 37.44628503524401], [-121.8989976996412, 37.44634061054937]]}, "properties": {"type": "Service", "diameter": "0.5", "material": "Plastic", "owner": "Gas Company", "owner_id": "Not Available", "location_d": "Not Available", "install_da": "Not Available", "other": "Service", "source_dat": "6/1/2022", "load_date": "2022-06-07", "Shape_Leng": 30.7822500568}}, {"type": "Feature", "geometry": {"type": "LineString", "coordinates": [[-121.89521195379372, 37.447197393960494], [-121.89520221425944, 37.44708778588809], [-121.89542657838311, 37.44707511256912]]}, "properties": {"type": "Service", "diameter": "0.5", "material": "Plastic", "owner": "Gas Company", "owner_id": "Not Available", "location_d": "Not Available", "install_da": "Not Available", "other": "Branch", "source_dat": "6/1/2022", "load_date": "2022-06-07", "Shape_Leng": 40.4462304798}}, {"type": "Feature", "geometry": {"type": "LineString", "coordinates": [[-121.90072751980694, 37.447050325776225], [-121.9007196667347, 37.44691032570794], [-121.90070966040074, 37.44673194366595]]}, "properties": {"type": "Service", "diameter": "0.5", "material": "Plastic", "owner": "Gas Company", "owner_id": "Not Available", "location_d": "Not Available", "install_da": "Not Available", "other": "Mother", "source_dat": "6/1/2022", "load_date": "2022-06-07", "Shape_Leng": 44.6863472878}}, {"type": "Feature", "geometry": {"type": "LineString", "coordinates": [[-121.89800824398331, 37.44728393749628], [-121.8980254772637, 37.447351226402716], [-121.89807028523008, 37.44752617656287]]}, "properties": {"type": "Service", "diameter": "0.5", "material": "Plastic", "owner": "Gas Company", "owner_id": "Not Available", "location_d": "Not Available", "install_da": "Not Available", "other": "Mother", "source_dat": "6/1/2022", "load_date": "2022-06-07", "Shape_Leng": 34.6609394572}}, {"type": "Feature", "geometry": {"type": "LineString", "coordinates": [[-121.89411023477639, 37.447790308031045], [-121.89408368686483, 37.44785597114739], [-121.8940149747287, 37.44802592004199]]}, "properties": {"type": "Service", "diameter": "0.5", "material": "Plastic", "owner": "Gas Company", "owner_id": "Not Available", "location_d": "Not Available", "install_da": "Not Available", "other": "Mother", "source_dat": "6/1/2022", "load_date": "2022-06-07", "Shape_Leng": 34.6970883507}}, {"type": "Feature", "geometry": {"type": "LineString", "coordinates": [[-121.89279548478102, 37.448093388714696], [-121.89253994282876, 37.448233586971284]]}, "properties": {"type": "Service", "diameter": "0.5", "material": "Plastic", "owner": "Gas Company", "owner_id": "Not Available", "location_d": "Not Available", "install_da": "Not Available", "other": "Service", "source_dat": "6/1/2022", "load_date": "2022-06-07", "Shape_Leng": 34.578449777}}, {"type": "Feature", "geometry": {"type": "LineString", "coordinates": [[-121.89814944275798, 37.4463385743142], [-121.89814302541185, 37.446468172189014]]}, "properties": {"type": "Service", "diameter": "0.5", "material": "Plastic", "owner": "Gas Company", "owner_id": "Not Available", "location_d": "Not Available", "install_da": "Not Available", "other": "Mother", "source_dat": "6/1/2022", "load_date": "2022-06-07", "Shape_Leng": 30.8141778775}}, {"type": "Feature", "geometry": {"type": "LineString", "coordinates": [[-121.89360973931416, 37.44728587735752], [-121.89347226293972, 37.447293641794175], [-121.8934564373193, 37.447115528824035]]}, "properties": {"type": "Service", "diameter": "0.5", "material": "Plastic", "owner": "Gas Company", "owner_id": "Not Available", "location_d": "Not Available", "install_da": "Not Available", "other": "Branch", "source_dat": "6/1/2022", "load_date": "2022-06-07", "Shape_Leng": 40.3788342613}}, {"type": "Feature", "geometry": {"type": "LineString", "coordinates": [[-121.89849680892024, 37.44706722401541], [-121.89848131567653, 37.44688909196332]]}, "properties": {"type": "Service", "diameter": "0.5", "material": "Plastic", "owner": "Gas Company", "owner_id": "Not Available", "location_d": "Not Available", "install_da": "Not Available", "other": "Branch", "source_dat": "6/1/2022", "load_date": "2022-06-07", "Shape_Leng": 25.0363760136}}, {"type": "Feature", "geometry": {"type": "LineString", "coordinates": [[-121.89592539848734, 37.44761318827837], [-121.89584732051613, 37.44730352652633]]}, "properties": {"type": "Service", "diameter": "0.5", "material": "Plastic", "owner": "Gas Company", "owner_id": "Not Available", "location_d": "Not Available", "install_da": "Not Available", "other": "Service", "source_dat": "6/1/2022", "load_date": "2022-06-07", "Shape_Leng": 44.281082398}}, {"type": "Feature", "geometry": {"type": "LineString", "coordinates": [[-121.90138088337771, 37.44712362205704], [-121.90158372285812, 37.44711212440065]]}, "properties": {"type": "Service", "diameter": "UNK", "material": "Plastic", "owner": "Gas Company", "owner_id": "Not Available", "location_d": "Not Available", "install_da": "Not Available", "other": "Service", "source_dat": "6/1/2022", "load_date": "2022-06-07", "Shape_Leng": 26.720044782}}, {"type": "Feature", "geometry": {"type": "LineString", "coordinates": [[-121.89781071343548, 37.4469674684354], [-121.89763545661508, 37.4469771920303], [-121.8974120384174, 37.44698958793605]]}, "properties": {"type": "Service", "diameter": "0.5", "material": "Plastic", "owner": "Gas Company", "owner_id": "Not Available", "location_d": "Not Available", "install_da": "Not Available", "other": "Mother", "source_dat": "6/1/2022", "load_date": "2022-06-07", "Shape_Leng": 44.4885415624}}, {"type": "Feature", "geometry": {"type": "LineString", "coordinates": [[-121.89436002940508, 37.44657203537517], [-121.89436293445911, 37.44661633555212]]}, "properties": {"type": "Service", "diameter": "0.5", "material": "Plastic", "owner": "Gas Company", "owner_id": "Not Available", "location_d": "Not Available", "install_da": "Not Available", "other": "Branch", "source_dat": "6/1/2022", "load_date": "2022-06-07", "Shape_Leng": 40.3786640802}}, {"type": "Feature", "geometry": {"type": "LineString", "coordinates": [[-121.89455053187075, 37.446561752532496], [-121.89455379681254, 37.44660450728439]]}, "properties": {"type": "Service", "diameter": "0.5", "material": "Plastic", "owner": "Gas Company", "owner_id": "Not Available", "location_d": "Not Available", "install_da": "Not Available", "other": "Branch", "source_dat": "6/1/2022", "load_date": "2022-06-07", "Shape_Leng": 40.3784828634}}, {"type": "Feature", "geometry": {"type": "LineString", "coordinates": [[-121.89603524358196, 37.447595795927896], [-121.89605223252062, 37.447663123778696], [-121.8960964053781, 37.44783817590728]]}, "properties": {"type": "Service", "diameter": "0.5", "material": "Plastic", "owner": "Gas Company", "owner_id": "Not Available", "location_d": "Not Available", "install_da": "Not Available", "other": "Mother", "source_dat": "6/1/2022", "load_date": "2022-06-07", "Shape_Leng": 34.6610772162}}, {"type": "Feature", "geometry": {"type": "LineString", "coordinates": [[-121.90139163980493, 37.44701121176535], [-121.90158018384498, 37.447000523965606]]}, "properties": {"type": "Service", "diameter": "UNK", "material": "Plastic", "owner": "Gas Company", "owner_id": "Not Available", "location_d": "Not Available", "install_da": "Not Available", "other": "Service", "source_dat": "6/1/2022", "load_date": "2022-06-07", "Shape_Leng": 24.6956097279}}, {"type": "Feature", "geometry": {"type": "LineString", "coordinates": [[-121.89853003844777, 37.446313368329314], [-121.89855735447213, 37.4464525625529]]}, "properties": {"type": "Service", "diameter": "0.5", "material": "Plastic", "owner": "Gas Company", "owner_id": "Not Available", "location_d": "Not Available", "install_da": "Not Available", "other": "Mother", "source_dat": "6/1/2022", "load_date": "2022-06-07", "Shape_Leng": 30.8112971297}}, {"type": "Feature", "geometry": {"type": "LineString", "coordinates": [[-121.90103472661866, 37.44614748832984], [-121.90104774315455, 37.44629376586109]]}, "properties": {"type": "Service", "diameter": "0.5", "material": "Plastic", "owner": "Gas Company", "owner_id": "Not Available", "location_d": "Not Available", "install_da": "Not Available", "other": "Service", "source_dat": "6/1/2022", "load_date": "2022-06-07", "Shape_Leng": 30.813710074}}, {"type": "Feature", "geometry": {"type": "LineString", "coordinates": [[-121.89647458452588, 37.44644949625586], [-121.89648488182276, 37.44649543323722]]}, "properties": {"type": "Service", "diameter": "0.5", "material": "Plastic", "owner": "Gas Company", "owner_id": "Not Available", "location_d": "Not Available", "install_da": "Not Available", "other": "Branch", "source_dat": "6/1/2022", "load_date": "2022-06-07", "Shape_Leng": 40.3774921442}}, {"type": "Feature", "geometry": {"type": "LineString", "coordinates": [[-121.89614119882685, 37.44647157559096], [-121.89615099060804, 37.44653226601837]]}, "properties": {"type": "Service", "diameter": "0.5", "material": "Plastic", "owner": "Gas Company", "owner_id": "Not Available", "location_d": "Not Available", "install_da": "Not Available", "other": "Service", "source_dat": "6/1/2022", "load_date": "2022-06-07", "Shape_Leng": 51.9231895626}}, {"type": "Feature", "geometry": {"type": "LineString", "coordinates": [[-121.89915875918484, 37.446271729569574], [-121.89912598265703, 37.446295819145746]]}, "properties": {"type": "Service", "diameter": "0.5", "material": "Plastic", "owner": "Gas Company", "owner_id": "Not Available", "location_d": "Not Available", "install_da": "Not Available", "other": "Branch", "source_dat": "6/1/2022", "load_date": "2022-06-07", "Shape_Leng": 40.3567905577}}, {"type": "Feature", "geometry": {"type": "LineString", "coordinates": [[-121.89267212543125, 37.44739455015654], [-121.89276026902526, 37.447327300514225], [-121.89260542731803, 37.44719829328689]]}, "properties": {"type": "Service", "diameter": "0.5", "material": "Plastic", "owner": "Gas Company", "owner_id": "Not Available", "location_d": "Not Available", "install_da": "Not Available", "other": "Branch", "source_dat": "6/1/2022", "load_date": "2022-06-07", "Shape_Leng": 38.5949320598}}, {"type": "Feature", "geometry": {"type": "LineString", "coordinates": [[-121.89411892867172, 37.44756010690056], [-121.89415560598644, 37.44745418580072], [-121.89437149001387, 37.44750170443279]]}, "properties": {"type": "Service", "diameter": "0.5", "material": "Plastic", "owner": "Gas Company", "owner_id": "Not Available", "location_d": "Not Available", "install_da": "Not Available", "other": "Branch", "source_dat": "6/1/2022", "load_date": "2022-06-07", "Shape_Leng": 40.3415355886}}, {"type": "Feature", "geometry": {"type": "LineString", "coordinates": [[-121.89361583168844, 37.44735444500039], [-121.89360973931416, 37.44728587735752], [-121.89359391459209, 37.447107764368965]]}, "properties": {"type": "Service", "diameter": "0.5", "material": "Plastic", "owner": "Gas Company", "owner_id": "Not Available", "location_d": "Not Available", "install_da": "Not Available", "other": "Mother", "source_dat": "6/1/2022", "load_date": "2022-06-07", "Shape_Leng": 34.6745421623}}, {"type": "Feature", "geometry": {"type": "LineString", "coordinates": [[-121.89291497239194, 37.44739405449416], [-121.89289306158382, 37.44714743532733]]}, "properties": {"type": "Service", "diameter": "0.5", "material": "Plastic", "owner": "Gas Company", "owner_id": "Not Available", "location_d": "Not Available", "install_da": "Not Available", "other": "Service", "source_dat": "6/1/2022", "load_date": "2022-06-07", "Shape_Leng": 34.6659142196}}, {"type": "Feature", "geometry": {"type": "LineString", "coordinates": [[-121.89842183193335, 37.44721869750964], [-121.89843860168311, 37.447286060645894], [-121.89848220231372, 37.44746120351774]]}, "properties": {"type": "Service", "diameter": "0.5", "material": "Plastic", "owner": "Gas Company", "owner_id": "Not Available", "location_d": "Not Available", "install_da": "Not Available", "other": "Mother", "source_dat": "6/1/2022", "load_date": "2022-06-07", "Shape_Leng": 34.6610471101}}, {"type": "Feature", "geometry": {"type": "LineString", "coordinates": [[-121.8967344280584, 37.44643228743752], [-121.8967424449844, 37.446455040182606]]}, "properties": {"type": "Service", "diameter": "0.5", "material": "Plastic", "owner": "Gas Company", "owner_id": "Not Available", "location_d": "Not Available", "install_da": "Not Available", "other": "Mother", "source_dat": "6/1/2022", "load_date": "2022-06-07", "Shape_Leng": 51.9956020069}}, {"type": "Feature", "geometry": {"type": "LineString", "coordinates": [[-121.89655063311164, 37.4470070217923], [-121.89657747836559, 37.447114799948125], [-121.89635780793928, 37.447149579876346]]}, "properties": {"type": "Service", "diameter": "0.5", "material": "Plastic", "owner": "Gas Company", "owner_id": "Not Available", "location_d": "Not Available", "install_da": "Not Available", "other": "Branch", "source_dat": "6/1/2022", "load_date": "2022-06-07", "Shape_Leng": 40.3399718651}}, {"type": "Feature", "geometry": {"type": "LineString", "coordinates": [[-121.8938034852597, 37.447499517816155], [-121.89381531876694, 37.44755017584546], [-121.89367818105734, 37.44774110576449]]}, "properties": {"type": "Service", "diameter": "0.5", "material": "Plastic", "owner": "Gas Company", "owner_id": "Not Available", "location_d": "Not Available", "install_da": "Not Available", "other": "Service", "source_dat": "6/1/2022", "load_date": "2022-06-07", "Shape_Leng": 38.0425940726}}, {"type": "Feature", "geometry": {"type": "LineString", "coordinates": [[-121.90083016580286, 37.447044554670825], [-121.90083627524513, 37.44711305692172], [-121.9008521610526, 37.44729116704498]]}, "properties": {"type": "Service", "diameter": "0.5", "material": "Plastic", "owner": "Gas Company", "owner_id": "Not Available", "location_d": "Not Available", "install_da": "Not Available", "other": "Mother", "source_dat": "6/1/2022", "load_date": "2022-06-07", "Shape_Leng": 34.665579369}}, {"type": "Feature", "geometry": {"type": "LineString", "coordinates": [[-121.89264714418154, 37.44762943026389], [-121.89265806410212, 37.44773896765109], [-121.89243480670287, 37.44775311500024]]}, "properties": {"type": "Service", "diameter": "0.5", "material": "Plastic", "owner": "Gas Company", "owner_id": "Not Available", "location_d": "Not Available", "install_da": "Not Available", "other": "Branch", "source_dat": "6/1/2022", "load_date": "2022-06-07", "Shape_Leng": 40.3389711482}}, {"type": "Feature", "geometry": {"type": "LineString", "coordinates": [[-121.90062123164425, 37.446174873219654], [-121.90053417361172, 37.44628436382772]]}, "properties": {"type": "Service", "diameter": "0.5", "material": "Plastic", "owner": "Gas Company", "owner_id": "Not Available", "location_d": "Not Available", "install_da": "Not Available", "other": "Service", "source_dat": "6/1/2022", "load_date": "2022-06-07", "Shape_Leng": 30.7771051373}}, {"type": "Feature", "geometry": {"type": "LineString", "coordinates": [[-121.89534769552137, 37.44770472145569], [-121.89531371944067, 37.44757008787697], [-121.8952695438883, 37.44739503654749]]}, "properties": {"type": "Service", "diameter": "0.5", "material": "Plastic", "owner": "Gas Company", "owner_id": "Not Available", "location_d": "Not Available", "install_da": "Not Available", "other": "Mother", "source_dat": "6/1/2022", "load_date": "2022-06-07", "Shape_Leng": 44.2859283415}}, {"type": "Feature", "geometry": {"type": "LineString", "coordinates": [[-121.89332303210975, 37.4473710165328], [-121.89333483327766, 37.44751076184624], [-121.89334987826204, 37.44768891880572]]}, "properties": {"type": "Service", "diameter": "0.5", "material": "Plastic", "owner": "Gas Company", "owner_id": "Not Available", "location_d": "Not Available", "install_da": "Not Available", "other": "Mother", "source_dat": "6/1/2022", "load_date": "2022-06-07", "Shape_Leng": 44.6752681902}}, {"type": "Feature", "geometry": {"type": "LineString", "coordinates": [[-121.89633662910498, 37.44645863271324], [-121.89634921196031, 37.446514765724665]]}, "properties": {"type": "Service", "diameter": "0.5", "material": "Plastic", "owner": "Gas Company", "owner_id": "Not Available", "location_d": "Not Available", "install_da": "Not Available", "other": "Mother", "source_dat": "6/1/2022", "load_date": "2022-06-07", "Shape_Leng": 52.015256439}}, {"type": "Feature", "geometry": {"type": "LineString", "coordinates": [[-121.89726808698639, 37.447400694229756], [-121.89723455018186, 37.44726601303375], [-121.89719093877149, 37.447090871844416]]}, "properties": {"type": "Service", "diameter": "0.5", "material": "Plastic", "owner": "Gas Company", "owner_id": "Not Available", "location_d": "Not Available", "install_da": "Not Available", "other": "Mother", "source_dat": "6/1/2022", "load_date": "2022-06-07", "Shape_Leng": 44.2828580187}}, {"type": "Feature", "geometry": {"type": "LineString", "coordinates": [[-121.89663235824295, 37.44705350801436], [-121.89717265805544, 37.44696906026941]]}, "properties": {"type": "Service", "diameter": "0.5", "material": "Plastic", "owner": "Gas Company", "owner_id": "Not Available", "location_d": "Not Available", "install_da": "Not Available", "other": "Service", "source_dat": "6/1/2022", "load_date": "2022-06-07", "Shape_Leng": 61.300376832}}, {"type": "Feature", "geometry": {"type": "LineString", "coordinates": [[-121.89569887122052, 37.4475090865814], [-121.89556375472024, 37.447530749485516], [-121.89551960342234, 37.447355693784885]]}, "properties": {"type": "Service", "diameter": "0.5", "material": "Plastic", "owner": "Gas Company", "owner_id": "Not Available", "location_d": "Not Available", "install_da": "Not Available", "other": "Branch", "source_dat": "6/1/2022", "load_date": "2022-06-07", "Shape_Leng": 40.3776725434}}, {"type": "Feature", "geometry": {"type": "LineString", "coordinates": [[-121.89441302364642, 37.446569174879826], [-121.89441623150492, 37.44661118488912]]}, "properties": {"type": "Service", "diameter": "0.5", "material": "Plastic", "owner": "Gas Company", "owner_id": "Not Available", "location_d": "Not Available", "install_da": "Not Available", "other": "Mother", "source_dat": "6/1/2022", "load_date": "2022-06-07", "Shape_Leng": 34.6657264489}}, {"type": "Feature", "geometry": {"type": "LineString", "coordinates": [[-121.89486934353091, 37.44713510577401], [-121.89485221176007, 37.44713628110397], [-121.89485197550317, 37.44711861335299], [-121.89485395359343, 37.44710278490441], [-121.89478467192545, 37.44710799758077], [-121.89456127169407, 37.447120606707394]]}, "properties": {"type": "Service", "diameter": "0.5", "material": "Plastic", "owner": "Gas Company", "owner_id": "Not Available", "location_d": "Not Available", "install_da": "Not Available", "other": "Mother", "source_dat": "6/1/2022", "load_date": "2022-06-07", "Shape_Leng": 39.3004669687}}, {"type": "Feature", "geometry": {"type": "LineString", "coordinates": [[-121.89723455018186, 37.44726601303375], [-121.89709936720635, 37.44728741070367], [-121.89705575669426, 37.44711226885131]]}, "properties": {"type": "Service", "diameter": "0.5", "material": "Plastic", "owner": "Gas Company", "owner_id": "Not Available", "location_d": "Not Available", "install_da": "Not Available", "other": "Branch", "source_dat": "6/1/2022", "load_date": "2022-06-07", "Shape_Leng": 40.3776314163}}, {"type": "Feature", "geometry": {"type": "LineString", "coordinates": [[-121.89902938501794, 37.447193042818036], [-121.89916456709516, 37.44717164226833], [-121.89920818299714, 37.447346783268536]]}, "properties": {"type": "Service", "diameter": "0.5", "material": "Plastic", "owner": "Gas Company", "owner_id": "Not Available", "location_d": "Not Available", "install_da": "Not Available", "other": "Branch", "source_dat": "6/1/2022", "load_date": "2022-06-07", "Shape_Leng": 40.3776298347}}, {"type": "Feature", "geometry": {"type": "LineString", "coordinates": [[-121.90083627524513, 37.44711305692172], [-121.90097370760212, 37.44710526536532], [-121.90098959430794, 37.447283375507105]]}, "properties": {"type": "Service", "diameter": "0.5", "material": "Plastic", "owner": "Gas Company", "owner_id": "Not Available", "location_d": "Not Available", "install_da": "Not Available", "other": "Branch", "source_dat": "6/1/2022", "load_date": "2022-06-07", "Shape_Leng": 40.3742972194}}, {"type": "Feature", "geometry": {"type": "LineString", "coordinates": [[-121.89323644529617, 37.44806788551647], [-121.8932526679719, 37.448135792041434], [-121.8932814946324, 37.44825645600161]]}, "properties": {"type": "Service", "diameter": "0.5", "material": "Plastic", "owner": "Gas Company", "owner_id": "Not Available", "location_d": "Not Available", "install_da": "Not Available", "other": "Mother", "source_dat": "6/1/2022", "load_date": "2022-06-07", "Shape_Leng": 34.7250054054}}, {"type": "Feature", "geometry": {"type": "LineString", "coordinates": [[-121.90084590564129, 37.446159993541485], [-121.90085988386907, 37.446316911133195]]}, "properties": {"type": "Service", "diameter": "0.5", "material": "Plastic", "owner": "Gas Company", "owner_id": "Not Available", "location_d": "Not Available", "install_da": "Not Available", "other": "Service", "source_dat": "6/1/2022", "load_date": "2022-06-07", "Shape_Leng": 30.8136727469}}, {"type": "Feature", "geometry": {"type": "LineString", "coordinates": [[-121.89828782308784, 37.4463294097014], [-121.89828073804331, 37.44647250625709]]}, "properties": {"type": "Service", "diameter": "0.5", "material": "Plastic", "owner": "Gas Company", "owner_id": "Not Available", "location_d": "Not Available", "install_da": "Not Available", "other": "Branch", "source_dat": "6/1/2022", "load_date": "2022-06-07", "Shape_Leng": 40.378561012}}, {"type": "Feature", "geometry": {"type": "LineString", "coordinates": [[-121.89891751422233, 37.44714063866841], [-121.89890551183181, 37.447002856780585], [-121.89888999433363, 37.4468247260017]]}, "properties": {"type": "Service", "diameter": "0.5", "material": "Plastic", "owner": "Gas Company", "owner_id": "Not Available", "location_d": "Not Available", "install_da": "Not Available", "other": "Mother", "source_dat": "6/1/2022", "load_date": "2022-06-07", "Shape_Leng": 44.4017092981}}, {"type": "Feature", "geometry": {"type": "LineString", "coordinates": [[-121.89303768764961, 37.44808016071465], [-121.89302578048056, 37.447939234728906], [-121.89301072561469, 37.44776107907868]]}, "properties": {"type": "Service", "diameter": "0.5", "material": "Plastic", "owner": "Gas Company", "owner_id": "Not Available", "location_d": "Not Available", "install_da": "Not Available", "other": "Mother", "source_dat": "6/1/2022", "load_date": "2022-06-07", "Shape_Leng": 44.8413602236}}, {"type": "Feature", "geometry": {"type": "LineString", "coordinates": [[-121.89408368686483, 37.44785597114739], [-121.8942148624559, 37.44788968310288], [-121.89414615121808, 37.44805963192087]]}, "properties": {"type": "Service", "diameter": "0.5", "material": "Plastic", "owner": "Gas Company", "owner_id": "Not Available", "location_d": "Not Available", "install_da": "Not Available", "other": "Branch", "source_dat": "6/1/2022", "load_date": "2022-06-07", "Shape_Leng": 40.3757260365}}, {"type": "Feature", "geometry": {"type": "LineString", "coordinates": [[-121.89297942561527, 37.44739040727509], [-121.89299122678311, 37.447530164676316], [-121.89300626997088, 37.44770832158961]]}, "properties": {"type": "Service", "diameter": "0.5", "material": "Plastic", "owner": "Gas Company", "owner_id": "Not Available", "location_d": "Not Available", "install_da": "Not Available", "other": "Mother", "source_dat": "6/1/2022", "load_date": "2022-06-07", "Shape_Leng": 44.6769509963}}, {"type": "Feature", "geometry": {"type": "LineString", "coordinates": [[-121.89277123565827, 37.44800733036266], [-121.8926853674969, 37.448012768340014], [-121.89246210830099, 37.4480269049397]]}, "properties": {"type": "Service", "diameter": "0.5", "material": "Plastic", "owner": "Gas Company", "owner_id": "Not Available", "location_d": "Not Available", "install_da": "Not Available", "other": "Mother", "source_dat": "6/1/2022", "load_date": "2022-06-07", "Shape_Leng": 34.5211853762}}, {"type": "Feature", "geometry": {"type": "LineString", "coordinates": [[-121.89443539616319, 37.44791012992781], [-121.89457249614357, 37.447898889523636], [-121.89459540677656, 37.448076511389466]]}, "properties": {"type": "Service", "diameter": "0.5", "material": "Plastic", "owner": "Gas Company", "owner_id": "Not Available", "location_d": "Not Available", "install_da": "Not Available", "other": "Branch", "source_dat": "6/1/2022", "load_date": "2022-06-07", "Shape_Leng": 40.3790090919}}, {"type": "Feature", "geometry": {"type": "LineString", "coordinates": [[-121.90096177528017, 37.447037300136785], [-121.90095622728501, 37.4469384096134], [-121.90095207167853, 37.44686431224073], [-121.9009574957062, 37.446857296607284]]}, "properties": {"type": "Service", "diameter": "0.5", "material": "Plastic", "owner": "Gas Company", "owner_id": "Not Available", "location_d": "Not Available", "install_da": "Not Available", "other": "Service", "source_dat": "6/1/2022", "load_date": "2022-06-07", "Shape_Leng": 25.4338679931}}, {"type": "Feature", "geometry": {"type": "LineString", "coordinates": [[-121.89384046889992, 37.447359500045586], [-121.89388763943553, 37.44731351038974], [-121.8938793506804, 37.447094814337184]]}, "properties": {"type": "Service", "diameter": "0.5", "material": "Plastic", "owner": "Gas Company", "owner_id": "Not Available", "location_d": "Not Available", "install_da": "Not Available", "other": "Service", "source_dat": "6/1/2022", "load_date": "2022-06-07", "Shape_Leng": 38.994596742}}, {"type": "Feature", "geometry": {"type": "LineString", "coordinates": [[-121.9007258369926, 37.44743333431313], [-121.90072464789293, 37.44742058419244]]}, "properties": {"type": "Service", "diameter": "UNK", "material": "Plastic", "owner": "Gas Company", "owner_id": "Not Available", "location_d": "Not Available", "install_da": "Not Available", "other": "Service", "source_dat": "6/1/2022", "load_date": "2022-06-07", "Shape_Leng": 34.6658882657}}, {"type": "Feature", "geometry": {"type": "LineString", "coordinates": [[-121.89562811451881, 37.44766028817239], [-121.89564510076251, 37.44772761596516], [-121.89568926643345, 37.44790266936909]]}, "properties": {"type": "Service", "diameter": "0.5", "material": "Plastic", "owner": "Gas Company", "owner_id": "Not Available", "location_d": "Not Available", "install_da": "Not Available", "other": "Mother", "source_dat": "6/1/2022", "load_date": "2022-06-07", "Shape_Leng": 34.6610572595}}, {"type": "Feature", "geometry": {"type": "LineString", "coordinates": [[-121.8980254772637, 37.447351226402716], [-121.89816051201724, 37.44732924322705], [-121.89820531998357, 37.44750419272545]]}, "properties": {"type": "Service", "diameter": "0.5", "material": "Plastic", "owner": "Gas Company", "owner_id": "Not Available", "location_d": "Not Available", "install_da": "Not Available", "other": "Branch", "source_dat": "6/1/2022", "load_date": "2022-06-07", "Shape_Leng": 40.3775624194}}, {"type": "Feature", "geometry": {"type": "LineString", "coordinates": [[-121.90104465205165, 37.447032755711454], [-121.9010667398279, 37.447279828841545]]}, "properties": {"type": "Service", "diameter": "0.5", "material": "Plastic", "owner": "Gas Company", "owner_id": "Not Available", "location_d": "Not Available", "install_da": "Not Available", "other": "Service", "source_dat": "6/1/2022", "load_date": "2022-06-07", "Shape_Leng": 34.7307460044}}, {"type": "Feature", "geometry": {"type": "LineString", "coordinates": [[-121.90045462008798, 37.44747737750104], [-121.90045400526077, 37.447470831482065]]}, "properties": {"type": "Service", "diameter": "UNK", "material": "Plastic", "owner": "Gas Company", "owner_id": "Not Available", "location_d": "Not Available", "install_da": "Not Available", "other": "Branch", "source_dat": "6/1/2022", "load_date": "2022-06-07", "Shape_Leng": 37.0571228361}}, {"type": "Feature", "geometry": {"type": "LineString", "coordinates": [[-121.89564510076251, 37.44772761596516], [-121.89578021636441, 37.4477059466994], [-121.89582438293365, 37.44788100015415]]}, "properties": {"type": "Service", "diameter": "0.5", "material": "Plastic", "owner": "Gas Company", "owner_id": "Not Available", "location_d": "Not Available", "install_da": "Not Available", "other": "Branch", "source_dat": "6/1/2022", "load_date": "2022-06-07", "Shape_Leng": 40.3778904312}}, {"type": "Feature", "geometry": {"type": "LineString", "coordinates": [[-121.89866774476536, 37.44630424835173], [-121.89869351840794, 37.44643557573906]]}, "properties": {"type": "Service", "diameter": "0.5", "material": "Plastic", "owner": "Gas Company", "owner_id": "Not Available", "location_d": "Not Available", "install_da": "Not Available", "other": "Branch", "source_dat": "6/1/2022", "load_date": "2022-06-07", "Shape_Leng": 40.3776329683}}, {"type": "Feature", "geometry": {"type": "LineString", "coordinates": [[-121.8966411069355, 37.446992696718496], [-121.89655063311164, 37.4470070217923], [-121.89633096358367, 37.44704180177065]]}, "properties": {"type": "Service", "diameter": "0.5", "material": "Plastic", "owner": "Gas Company", "owner_id": "Not Available", "location_d": "Not Available", "install_da": "Not Available", "other": "Mother", "source_dat": "6/1/2022", "load_date": "2022-06-07", "Shape_Leng": 35.2048715526}}, {"type": "Feature", "geometry": {"type": "LineString", "coordinates": [[-121.89969983005385, 37.44705827067348], [-121.89975809388488, 37.44695868909925], [-121.89996105564691, 37.44703417423973]]}, "properties": {"type": "Service", "diameter": "0.5", "material": "Plastic", "owner": "Gas Company", "owner_id": "Not Available", "location_d": "Not Available", "install_da": "Not Available", "other": "Branch", "source_dat": "6/1/2022", "load_date": "2022-06-07", "Shape_Leng": 40.3456323507}}, {"type": "Feature", "geometry": {"type": "LineString", "coordinates": [[-121.89332515932036, 37.44806962709425], [-121.89335910934986, 37.44775173785001]]}, "properties": {"type": "Service", "diameter": "0.5", "material": "Plastic", "owner": "Gas Company", "owner_id": "Not Available", "location_d": "Not Available", "install_da": "Not Available", "other": "Service", "source_dat": "6/1/2022", "load_date": "2022-06-07", "Shape_Leng": 44.7335324516}}, {"type": "Feature", "geometry": {"type": "LineString", "coordinates": [[-121.8948341924538, 37.44785610522502], [-121.89496930715733, 37.44783443029111], [-121.89501348450644, 37.44800948201884]]}, "properties": {"type": "Service", "diameter": "0.5", "material": "Plastic", "owner": "Gas Company", "owner_id": "Not Available", "location_d": "Not Available", "install_da": "Not Available", "other": "Branch", "source_dat": "6/1/2022", "load_date": "2022-06-07", "Shape_Leng": 40.3779904441}}, {"type": "Feature", "geometry": {"type": "LineString", "coordinates": [[-121.89971889338003, 37.44623463312267], [-121.89975724677355, 37.446263097098615]]}, "properties": {"type": "Service", "diameter": "0.5", "material": "Plastic", "owner": "Gas Company", "owner_id": "Not Available", "location_d": "Not Available", "install_da": "Not Available", "other": "Service", "source_dat": "6/1/2022", "load_date": "2022-06-07", "Shape_Leng": 30.6866877201}}, {"type": "Feature", "geometry": {"type": "LineString", "coordinates": [[-121.89790283746449, 37.44704532990465], [-121.897893088947, 37.446935721609414], [-121.89811648648343, 37.446923091769165]]}, "properties": {"type": "Service", "diameter": "0.5", "material": "Plastic", "owner": "Gas Company", "owner_id": "Not Available", "location_d": "Not Available", "install_da": "Not Available", "other": "Branch", "source_dat": "6/1/2022", "load_date": "2022-06-07", "Shape_Leng": 40.338539331}}, {"type": "Feature", "geometry": {"type": "LineString", "coordinates": [[-121.89531371944067, 37.44757008787697], [-121.89517860563548, 37.44759176217433], [-121.89513443098134, 37.44741671018242]]}, "properties": {"type": "Service", "diameter": "0.5", "material": "Plastic", "owner": "Gas Company", "owner_id": "Not Available", "location_d": "Not Available", "install_da": "Not Available", "other": "Branch", "source_dat": "6/1/2022", "load_date": "2022-06-07", "Shape_Leng": 40.3777156315}}, {"type": "Feature", "geometry": {"type": "LineString", "coordinates": [[-121.9015497223772, 37.446113381245645], [-121.90156318478653, 37.44626457840254]]}, "properties": {"type": "Service", "diameter": "0.5", "material": "Plastic", "owner": "Gas Company", "owner_id": "Not Available", "location_d": "Not Available", "install_da": "Not Available", "other": "Branch", "source_dat": "6/1/2022", "load_date": "2022-06-07", "Shape_Leng": 40.378467382}}, {"type": "Feature", "geometry": {"type": "LineString", "coordinates": [[-121.89781691270923, 37.44705018741803], [-121.89783409748064, 37.447049216058055], [-121.89786309150476, 37.447047576442216]]}, "properties": {"type": "Service", "diameter": "0.5", "material": "Plastic", "owner": "Gas Company", "owner_id": "Not Available", "location_d": "Not Available", "install_da": "Not Available", "other": "Mother", "source_dat": "6/1/2022", "load_date": "2022-06-07", "Shape_Leng": 5.15361985308}}, {"type": "Feature", "geometry": {"type": "LineString", "coordinates": [[-121.89273301144462, 37.44762398940591], [-121.89264714418154, 37.44762943026389], [-121.8924238867823, 37.44764357763372]]}, "properties": {"type": "Service", "diameter": "0.5", "material": "Plastic", "owner": "Gas Company", "owner_id": "Not Available", "location_d": "Not Available", "install_da": "Not Available", "other": "Mother", "source_dat": "6/1/2022", "load_date": "2022-06-07", "Shape_Leng": 34.5210374441}}, {"type": "Feature", "geometry": {"type": "LineString", "coordinates": [[-121.90132238778136, 37.44701513714581], [-121.90135727205873, 37.447013159478644], [-121.90139163980493, 37.44701121176535]]}, "properties": {"type": "Service", "diameter": "0.5", "material": "Plastic", "owner": "Gas Company", "owner_id": "Not Available", "location_d": "Not Available", "install_da": "Not Available", "other": "Service", "source_dat": "6/1/2022", "load_date": "2022-06-07", "Shape_Leng": 7.72872324408}}, {"type": "Feature", "geometry": {"type": "LineString", "coordinates": [[-121.89409189028, 37.447255278893806], [-121.89417786713751, 37.447250856436284], [-121.89440136259037, 37.447239358473354]]}, "properties": {"type": "Service", "diameter": "0.5", "material": "Plastic", "owner": "Gas Company", "owner_id": "Not Available", "location_d": "Not Available", "install_da": "Not Available", "other": "Mother", "source_dat": "6/1/2022", "load_date": "2022-06-07", "Shape_Leng": 34.5225481887}}, {"type": "Feature", "geometry": {"type": "LineString", "coordinates": [[-121.90043519274208, 37.4471452893519], [-121.90042338079441, 37.447392101085335]]}, "properties": {"type": "Service", "diameter": "0.5", "material": "Plastic", "owner": "Gas Company", "owner_id": "Not Available", "location_d": "Not Available", "install_da": "Not Available", "other": "Service", "source_dat": "6/1/2022", "load_date": "2022-06-07", "Shape_Leng": 34.6319709382}}, {"type": "Feature", "geometry": {"type": "LineString", "coordinates": [[-121.90056794307988, 37.447159961004594], [-121.90070359497595, 37.4471530637877], [-121.90071633129007, 37.44733209738873]]}, "properties": {"type": "Service", "diameter": "0.5", "material": "Plastic", "owner": "Gas Company", "owner_id": "Not Available", "location_d": "Not Available", "install_da": "Not Available", "other": "Branch", "source_dat": "6/1/2022", "load_date": "2022-06-07", "Shape_Leng": 40.2750421553}}, {"type": "Feature", "geometry": {"type": "LineString", "coordinates": [[-121.9009239202741, 37.44703937622301], [-121.90091837497388, 37.44694052350131], [-121.90091421846904, 37.446866426130754]]}, "properties": {"type": "Service", "diameter": "0.5", "material": "Plastic", "owner": "Gas Company", "owner_id": "Not Available", "location_d": "Not Available", "install_da": "Not Available", "other": "Service", "source_dat": "6/1/2022", "load_date": "2022-06-07", "Shape_Leng": 24.2743372716}}, {"type": "Feature", "geometry": {"type": "LineString", "coordinates": [[-121.89719740394656, 37.44741185197954], [-121.89721417459461, 37.44747921422867], [-121.89725777702186, 37.4476543573615]]}, "properties": {"type": "Service", "diameter": "0.5", "material": "Plastic", "owner": "Gas Company", "owner_id": "Not Available", "location_d": "Not Available", "install_da": "Not Available", "other": "Mother", "source_dat": "6/1/2022", "load_date": "2022-06-07", "Shape_Leng": 34.6611052862}}, {"type": "Feature", "geometry": {"type": "LineString", "coordinates": [[-121.8949081821922, 37.44721455176572], [-121.89521195379372, 37.447197393960494], [-121.89539919683494, 37.447186817424665]]}, "properties": {"type": "Service", "diameter": "0.5", "material": "Plastic", "owner": "Gas Company", "owner_id": "Not Available", "location_d": "Not Available", "install_da": "Not Available", "other": "Mother", "source_dat": "6/1/2022", "load_date": "2022-06-07", "Shape_Leng": 54.7976614996}}, {"type": "Feature", "geometry": {"type": "LineString", "coordinates": [[-121.89761967411386, 37.44741523318035], [-121.8977548579877, 37.447393837686484], [-121.89779846670316, 37.447568980306045]]}, "properties": {"type": "Service", "diameter": "0.5", "material": "Plastic", "owner": "Gas Company", "owner_id": "Not Available", "location_d": "Not Available", "install_da": "Not Available", "other": "Branch", "source_dat": "6/1/2022", "load_date": "2022-06-07", "Shape_Leng": 40.3778282521}}, {"type": "Feature", "geometry": {"type": "LineString", "coordinates": [[-121.89694384457616, 37.44752188178093], [-121.89680866249894, 37.447543285083185], [-121.89685228558743, 37.44771842521331]]}, "properties": {"type": "Service", "diameter": "0.5", "material": "Plastic", "owner": "Gas Company", "owner_id": "Not Available", "location_d": "Not Available", "install_da": "Not Available", "other": "Branch", "source_dat": "6/1/2022", "load_date": "2022-06-07", "Shape_Leng": 40.3778632332}}, {"type": "Feature", "geometry": {"type": "LineString", "coordinates": [[-121.90034647602296, 37.44710447087612], [-121.9003199793153, 37.44712219639857], [-121.90024432140544, 37.44733405436515]]}, "properties": {"type": "Service", "diameter": "0.5", "material": "Plastic", "owner": "Gas Company", "owner_id": "Not Available", "location_d": "Not Available", "install_da": "Not Available", "other": "Service", "source_dat": "6/1/2022", "load_date": "2022-06-07", "Shape_Leng": 34.7338713972}}, {"type": "Feature", "geometry": {"type": "LineString", "coordinates": [[-121.90129981940643, 37.44697820760889], [-121.90132075823738, 37.44695089253447], [-121.90134771039088, 37.44691573381109], [-121.90146450485256, 37.44676337677511]]}, "properties": {"type": "Service", "diameter": "UNK", "material": "Plastic", "owner": "Gas Company", "owner_id": "Not Available", "location_d": "Not Available", "install_da": "Not Available", "other": "Mother", "source_dat": "6/1/2022", "load_date": "2022-06-07", "Shape_Leng": 35.2627128889}}, {"type": "Feature", "geometry": {"type": "LineString", "coordinates": [[-121.89326648945085, 37.44737421016821], [-121.8932604114496, 37.447305703877326], [-121.89324460649051, 37.44712758950953]]}, "properties": {"type": "Service", "diameter": "0.5", "material": "Plastic", "owner": "Gas Company", "owner_id": "Not Available", "location_d": "Not Available", "install_da": "Not Available", "other": "Mother", "source_dat": "6/1/2022", "load_date": "2022-06-07", "Shape_Leng": 34.6658957504}}, {"type": "Feature", "geometry": {"type": "LineString", "coordinates": [[-121.89422250819324, 37.446579458422505], [-121.89422530267609, 37.44662207245745]]}, "properties": {"type": "Service", "diameter": "0.5", "material": "Plastic", "owner": "Gas Company", "owner_id": "Not Available", "location_d": "Not Available", "install_da": "Not Available", "other": "Mother", "source_dat": "6/1/2022", "load_date": "2022-06-07", "Shape_Leng": 34.6665820839}}, {"type": "Feature", "geometry": {"type": "LineString", "coordinates": [[-121.89522267428835, 37.44772453716685], [-121.89523966143034, 37.447791864901774], [-121.89528382530467, 37.447966918868595]]}, "properties": {"type": "Service", "diameter": "0.5", "material": "Plastic", "owner": "Gas Company", "owner_id": "Not Available", "location_d": "Not Available", "install_da": "Not Available", "other": "Mother", "source_dat": "6/1/2022", "load_date": "2022-06-07", "Shape_Leng": 34.6611356749}}, {"type": "Feature", "geometry": {"type": "LineString", "coordinates": [[-121.89890551183181, 37.447002856780585], [-121.89876802288093, 37.44701047076415], [-121.89875250448445, 37.446832339290175]]}, "properties": {"type": "Service", "diameter": "0.5", "material": "Plastic", "owner": "Gas Company", "owner_id": "Not Available", "location_d": "Not Available", "install_da": "Not Available", "other": "Branch", "source_dat": "6/1/2022", "load_date": "2022-06-07", "Shape_Leng": 40.3788588315}}, {"type": "Feature", "geometry": {"type": "LineString", "coordinates": [[-121.89403580666014, 37.447541810936364], [-121.89411892867172, 37.44756010690056], [-121.89433481269914, 37.44760762546525]]}, "properties": {"type": "Service", "diameter": "0.5", "material": "Plastic", "owner": "Gas Company", "owner_id": "Not Available", "location_d": "Not Available", "install_da": "Not Available", "other": "Mother", "source_dat": "6/1/2022", "load_date": "2022-06-07", "Shape_Leng": 34.5407883505}}, {"type": "Feature", "geometry": {"type": "LineString", "coordinates": [[-121.89442656662226, 37.44784167547648], [-121.89443539616319, 37.44791012992781], [-121.89445830589788, 37.448087752480106]]}, "properties": {"type": "Service", "diameter": "0.5", "material": "Plastic", "owner": "Gas Company", "owner_id": "Not Available", "location_d": "Not Available", "install_da": "Not Available", "other": "Mother", "source_dat": "6/1/2022", "load_date": "2022-06-07", "Shape_Leng": 34.6847260494}}, {"type": "Feature", "geometry": {"type": "LineString", "coordinates": [[-121.89945448264356, 37.44625214446232], [-121.89947373128332, 37.4463818794666]]}, "properties": {"type": "Service", "diameter": "0.5", "material": "Plastic", "owner": "Gas Company", "owner_id": "Not Available", "location_d": "Not Available", "install_da": "Not Available", "other": "Service", "source_dat": "6/1/2022", "load_date": "2022-06-07", "Shape_Leng": 30.8125679214}}, {"type": "Feature", "geometry": {"type": "LineString", "coordinates": [[-121.90132219194862, 37.447239857702634], [-121.90158963054516, 37.44722468672249]]}, "properties": {"type": "Service", "diameter": "UNK", "material": "Plastic", "owner": "Gas Company", "owner_id": "Not Available", "location_d": "Not Available", "install_da": "Not Available", "other": "Service", "source_dat": "6/1/2022", "load_date": "2022-06-07", "Shape_Leng": 34.3872461934}}, {"type": "Feature", "geometry": {"type": "LineString", "coordinates": [[-121.89481720171855, 37.44778877826111], [-121.8948341924538, 37.44785610522502], [-121.89487837070116, 37.44803115690207]]}, "properties": {"type": "Service", "diameter": "0.5", "material": "Plastic", "owner": "Gas Company", "owner_id": "Not Available", "location_d": "Not Available", "install_da": "Not Available", "other": "Mother", "source_dat": "6/1/2022", "load_date": "2022-06-07", "Shape_Leng": 34.6611363234}}, {"type": "Feature", "geometry": {"type": "LineString", "coordinates": [[-121.89901260987828, 37.44712568031125], [-121.89902938501794, 37.447193042818036], [-121.89907300091993, 37.447368183768084]]}, "properties": {"type": "Service", "diameter": "0.5", "material": "Plastic", "owner": "Gas Company", "owner_id": "Not Available", "location_d": "Not Available", "install_da": "Not Available", "other": "Mother", "source_dat": "6/1/2022", "load_date": "2022-06-07", "Shape_Leng": 34.6611007253}}, {"type": "Feature", "geometry": {"type": "LineString", "coordinates": [[-121.89478467192545, 37.44710799758077], [-121.89479440427323, 37.447217605623564], [-121.89457100494016, 37.44723021473171]]}, "properties": {"type": "Service", "diameter": "0.5", "material": "Plastic", "owner": "Gas Company", "owner_id": "Not Available", "location_d": "Not Available", "install_da": "Not Available", "other": "Branch", "source_dat": "6/1/2022", "load_date": "2022-06-07", "Shape_Leng": 40.3384063268}}, {"type": "Feature", "geometry": {"type": "LineString", "coordinates": [[-121.89961627864756, 37.44702719570796], [-121.89969983005385, 37.44705827067348], [-121.89990279271422, 37.44713375571345]]}, "properties": {"type": "Service", "diameter": "0.5", "material": "Plastic", "owner": "Gas Company", "owner_id": "Not Available", "location_d": "Not Available", "install_da": "Not Available", "other": "Mother", "source_dat": "6/1/2022", "load_date": "2022-06-07", "Shape_Leng": 35.2208878811}}, {"type": "Feature", "geometry": {"type": "LineString", "coordinates": [[-121.8976029025675, 37.447347870873585], [-121.89761967411386, 37.44741523318035], [-121.89766328282936, 37.44759037574979]]}, "properties": {"type": "Service", "diameter": "0.5", "material": "Plastic", "owner": "Gas Company", "owner_id": "Not Available", "location_d": "Not Available", "install_da": "Not Available", "other": "Mother", "source_dat": "6/1/2022", "load_date": "2022-06-07", "Shape_Leng": 34.6611623096}}, {"type": "Feature", "geometry": {"type": "LineString", "coordinates": [[-121.89273265750838, 37.44744498217801], [-121.89267212543125, 37.44739455015654], [-121.89251728372405, 37.44726554304514]]}, "properties": {"type": "Service", "diameter": "0.5", "material": "Plastic", "owner": "Gas Company", "owner_id": "Not Available", "location_d": "Not Available", "install_da": "Not Available", "other": "Mother", "source_dat": "6/1/2022", "load_date": "2022-06-07", "Shape_Leng": 34.7542185398}}, {"type": "Feature", "geometry": {"type": "LineString", "coordinates": [[-121.90122353686897, 37.4461349838265], [-121.90123672533413, 37.4462830629622]]}, "properties": {"type": "Service", "diameter": "0.5", "material": "Plastic", "owner": "Gas Company", "owner_id": "Not Available", "location_d": "Not Available", "install_da": "Not Available", "other": "Service", "source_dat": "6/1/2022", "load_date": "2022-06-07", "Shape_Leng": 30.8136445309}}]}