{"type": "FeatureCollection", "features": [{"type": "Feature", "geometry": {"type": "Polygon", "coordinates": [[[-121.89168228280104, 37.44736711000013], [-121.89164115880094, 37.44671879300007], [-121.89578881680123, 37.44649491300017], [-121.90156381380146, 37.446112448000065], [-121.9015814388014, 37.44706860500004], [-121.90159318880141, 37.44729248400016], [-121.90030071680142, 37.44750237000009], [-121.89978372880138, 37.44732046900012], [-121.8944963448012, 37.44816000800018], [-121.89285138180112, 37.44829060300006], [-121.89175865580107, 37.448174000999984], [-121.89168228280104, 37.44736711000013]]]}, "properties": {"Shape_Leng": 19188613.307, "Shape_Area": 21364059925700.0, "Polygon": "Project Extent"}}]}