{"type": "FeatureCollection", "features": [{"type": "Feature", "geometry": {"type": "Point", "coordinates": [-121.89689600479568, 37.44742199986061]}, "properties": {"type": "Manhole", "subtype": "Not Available", "material": "Not Available", "owner": "City", "owner_id": "2080", "install_da": "01/01/1980", "other": "Not Available", "source_dat": "Not Available", "load_date": "2022-06-22"}}, {"type": "Feature", "geometry": {"type": "Point", "coordinates": [-121.89359070491162, 37.44811820012315]}, "properties": {"type": "Manhole", "subtype": "Not Available", "material": "Not Available", "owner": "City", "owner_id": "2089", "install_da": "01/01/1991", "other": "Not Available", "source_dat": "Not Available", "load_date": "2022-06-22"}}, {"type": "Feature", "geometry": {"type": "Point", "coordinates": [-121.8933862052338, 37.4480342000289]}, "properties": {"type": "Manhole", "subtype": "Not Available", "material": "Not Available", "owner": "City", "owner_id": "2090", "install_da": "01/01/1974", "other": "Not Available", "source_dat": "Not Available", "load_date": "2022-06-22"}}, {"type": "Feature", "geometry": {"type": "Point", "coordinates": [-121.89283450490204, 37.44805300008875]}, "properties": {"type": "Manhole", "subtype": "Not Available", "material": "Not Available", "owner": "City", "owner_id": "2091", "install_da": "01/01/1974", "other": "Not Available", "source_dat": "Not Available", "load_date": "2022-06-22"}}, {"type": "Feature", "geometry": {"type": "Point", "coordinates": [-121.89369690464282, 37.44796190023648]}, "properties": {"type": "Manhole", "subtype": "Not Available", "material": "Not Available", "owner": "City", "owner_id": "2093", "install_da": "01/01/1996", "other": "Not Available", "source_dat": "Not Available", "load_date": "2022-06-22"}}, {"type": "Feature", "geometry": {"type": "Point", "coordinates": [-121.89388290441566, 37.44771420033406]}, "properties": {"type": "Manhole", "subtype": "Not Available", "material": "Not Available", "owner": "City", "owner_id": "2094", "install_da": "01/01/1996", "other": "Not Available", "source_dat": "Not Available", "load_date": "2022-06-22"}}, {"type": "Feature", "geometry": {"type": "Point", "coordinates": [-121.89403320513911, 37.44757690018687]}, "properties": {"type": "Manhole", "subtype": "Not Available", "material": "Not Available", "owner": "City", "owner_id": "2095", "install_da": "Not Available", "other": "Not Available", "source_dat": "Not Available", "load_date": "2022-06-22"}}, {"type": "Feature", "geometry": {"type": "Point", "coordinates": [-121.8949581051658, 37.44774150015305]}, "properties": {"type": "Manhole", "subtype": "Not Available", "material": "Not Available", "owner": "City", "owner_id": "2096", "install_da": "01/01/1980", "other": "Not Available", "source_dat": "Not Available", "load_date": "2022-06-22"}}, {"type": "Feature", "geometry": {"type": "Point", "coordinates": [-121.89958320447546, 37.44699489975326]}, "properties": {"type": "Manhole", "subtype": "Not Available", "material": "Not Available", "owner": "City", "owner_id": "2199", "install_da": "01/01/1980", "other": "Not Available", "source_dat": "Not Available", "load_date": "2022-06-22"}}, {"type": "Feature", "geometry": {"type": "Point", "coordinates": [-121.8995581046481, 37.44668479968292]}, "properties": {"type": "Manhole", "subtype": "Not Available", "material": "Not Available", "owner": "City", "owner_id": "2200", "install_da": "01/01/1980", "other": "Not Available", "source_dat": "Not Available", "load_date": "2022-06-22"}}, {"type": "Feature", "geometry": {"type": "Point", "coordinates": [-121.89878230519567, 37.44712340025625]}, "properties": {"type": "Manhole", "subtype": "Not Available", "material": "Not Available", "owner": "City", "owner_id": "2201", "install_da": "01/01/1980", "other": "Not Available", "source_dat": "Not Available", "load_date": "2022-06-22"}}, {"type": "Feature", "geometry": {"type": "Point", "coordinates": [-121.89194850462209, 37.447040100107436]}, "properties": {"type": "Manhole", "subtype": "Not Available", "material": "Not Available", "owner": "City", "owner_id": "2204", "install_da": "01/01/1973", "other": "Not Available", "source_dat": "Not Available", "load_date": "2022-06-22"}}, {"type": "Feature", "geometry": {"type": "Point", "coordinates": [-121.89404140496103, 37.44714110009954]}, "properties": {"type": "Manhole", "subtype": "Not Available", "material": "Not Available", "owner": "City", "owner_id": "2205", "install_da": "01/01/1991", "other": "Not Available", "source_dat": "Not Available", "load_date": "2022-06-22"}}, {"type": "Feature", "geometry": {"type": "Point", "coordinates": [-121.89320660505902, 37.44696989969084]}, "properties": {"type": "Manhole", "subtype": "Not Available", "material": "Not Available", "owner": "City", "owner_id": "2206", "install_da": "Not Available", "other": "Not Available", "source_dat": "Not Available", "load_date": "2022-06-22"}}, {"type": "Feature", "geometry": {"type": "Point", "coordinates": [-121.89318650435624, 37.4470642999513]}, "properties": {"type": "Manhole", "subtype": "Not Available", "material": "Not Available", "owner": "City", "owner_id": "2207", "install_da": "01/01/1974", "other": "Not Available", "source_dat": "Not Available", "load_date": "2022-06-22"}}, {"type": "Feature", "geometry": {"type": "Point", "coordinates": [-121.89321380505605, 37.447407500136386]}, "properties": {"type": "Manhole", "subtype": "Not Available", "material": "Not Available", "owner": "City", "owner_id": "2208", "install_da": "01/01/1974", "other": "Not Available", "source_dat": "Not Available", "load_date": "2022-06-22"}}, {"type": "Feature", "geometry": {"type": "Point", "coordinates": [-121.89277260469075, 37.44742970009667]}, "properties": {"type": "Manhole", "subtype": "Not Available", "material": "Not Available", "owner": "City", "owner_id": "2209", "install_da": "01/01/1974", "other": "Not Available", "source_dat": "Not Available", "load_date": "2022-06-22"}}, {"type": "Feature", "geometry": {"type": "Point", "coordinates": [-121.89375740438058, 37.44737589969972]}, "properties": {"type": "Manhole", "subtype": "Not Available", "material": "Not Available", "owner": "City", "owner_id": "2210", "install_da": "01/01/1974", "other": "Not Available", "source_dat": "Not Available", "load_date": "2022-06-22"}}, {"type": "Feature", "geometry": {"type": "Point", "coordinates": [-121.89402800479193, 37.4467402002608]}, "properties": {"type": "Manhole", "subtype": "Not Available", "material": "Not Available", "owner": "City", "owner_id": "2211", "install_da": "Not Available", "other": "Not Available", "source_dat": "Not Available", "load_date": "2022-06-22"}}, {"type": "Feature", "geometry": {"type": "Point", "coordinates": [-121.89402590453079, 37.44679550023803]}, "properties": {"type": "Manhole", "subtype": "Not Available", "material": "Not Available", "owner": "City", "owner_id": "2212", "install_da": "Not Available", "other": "Not Available", "source_dat": "Not Available", "load_date": "2022-06-22"}}, {"type": "Feature", "geometry": {"type": "Point", "coordinates": [-121.89408170518129, 37.4469748000004]}, "properties": {"type": "Manhole", "subtype": "Not Available", "material": "Not Available", "owner": "City", "owner_id": "2213", "install_da": "01/01/1980", "other": "Not Available", "source_dat": "Not Available", "load_date": "2022-06-22"}}, {"type": "Feature", "geometry": {"type": "Point", "coordinates": [-121.89538510496308, 37.4467019996839]}, "properties": {"type": "Manhole", "subtype": "Not Available", "material": "Not Available", "owner": "City", "owner_id": "2214", "install_da": "01/01/1980", "other": "Not Available", "source_dat": "Not Available", "load_date": "2022-06-22"}}, {"type": "Feature", "geometry": {"type": "Point", "coordinates": [-121.89510480454327, 37.44691829986075]}, "properties": {"type": "Manhole", "subtype": "Not Available", "material": "Not Available", "owner": "City", "owner_id": "2215", "install_da": "01/01/1980", "other": "Not Available", "source_dat": "Not Available", "load_date": "2022-06-22"}}, {"type": "Feature", "geometry": {"type": "Point", "coordinates": [-121.89678050480634, 37.44702140035236]}, "properties": {"type": "Manhole", "subtype": "Not Available", "material": "Not Available", "owner": "City", "owner_id": "2216", "install_da": "01/01/1980", "other": "Not Available", "source_dat": "Not Available", "load_date": "2022-06-22"}}, {"type": "Feature", "geometry": {"type": "Point", "coordinates": [-121.89780450517854, 37.447277000352514]}, "properties": {"type": "Manhole", "subtype": "Not Available", "material": "Not Available", "owner": "City", "owner_id": "2217", "install_da": "01/01/1980", "other": "Not Available", "source_dat": "Not Available", "load_date": "2022-06-22"}}, {"type": "Feature", "geometry": {"type": "Point", "coordinates": [-121.90128330477827, 37.446978900113635]}, "properties": {"type": "Manhole", "subtype": "Not Available", "material": "Not Available", "owner": "City", "owner_id": "2349", "install_da": "01/01/1988", "other": "Not Available", "source_dat": "Not Available", "load_date": "2022-06-22"}}, {"type": "Feature", "geometry": {"type": "Point", "coordinates": [-121.90043140454654, 37.447027299833216]}, "properties": {"type": "Manhole", "subtype": "Not Available", "material": "Not Available", "owner": "City", "owner_id": "2361", "install_da": "01/01/1988", "other": "Not Available", "source_dat": "Not Available", "load_date": "2022-06-22"}}, {"type": "Feature", "geometry": {"type": "Point", "coordinates": [-121.90021820468519, 37.44654059965992]}, "properties": {"type": "Manhole", "subtype": "Not Available", "material": "Not Available", "owner": "City", "owner_id": "2362", "install_da": "01/01/1974", "other": "Not Available", "source_dat": "Not Available", "load_date": "2022-06-22"}}, {"type": "Feature", "geometry": {"type": "Point", "coordinates": [-121.90009020463867, 37.446651199868576]}, "properties": {"type": "Manhole", "subtype": "Not Available", "material": "Not Available", "owner": "City", "owner_id": "2363", "install_da": "Not Available", "other": "Not Available", "source_dat": "Not Available", "load_date": "2022-06-22"}}]}