{"type": "FeatureCollection", "features": [{"type": "Feature", "geometry": {"type": "Polygon", "coordinates": [[[-121.89209321800703, 37.44820970129766], [-121.89220763354732, 37.448203023127576], [-121.8923777268514, 37.44815844964454], [-121.89263244594684, 37.44803238427995], [-121.89312706013898, 37.4476658267334], [-121.89412755968499, 37.44714333379696], [-121.89432979381165, 37.447012981181935], [-121.89484870383892, 37.44677081391215], [-121.89506305803539, 37.4466544891022], [-121.8954405031683, 37.44657016000975], [-121.89566784851523, 37.446501442569165], [-121.89578881680121, 37.446494913000144], [-121.89608332554869, 37.44647540839868], [-121.89633118726414, 37.4464996810074], [-121.89680582112769, 37.44660442526743], [-121.89699702124773, 37.446671970820304], [-121.89715658000848, 37.44680016734626], [-121.89725416938765, 37.44685110827179], [-121.89803881005916, 37.44717346659643], [-121.89881634056515, 37.44741954865076], [-121.89891967303213, 37.447457665754015], [-121.89449634480117, 37.44816000800015], [-121.89285138180108, 37.448290603000004], [-121.89209321800703, 37.44820970129766]]]}, "properties": {"AREASYMBOL": "CA641", "SPATIALVER": 3.0, "MUSYM": "317", "MUKEY": "2027484", "Shape_Leng": 40806.4804858, "Shape_Area": 13906068.5805}}, {"type": "Feature", "geometry": {"type": "Polygon", "coordinates": [[[-121.8929096120452, 37.44665032520034], [-121.89292742663503, 37.44671253991561], [-121.89303616410692, 37.446844432114844], [-121.89313893856196, 37.446893316889216], [-121.89330815600866, 37.44690266892284], [-121.89365355464216, 37.44682812791149], [-121.8939214385481, 37.44665934307507], [-121.89405788964137, 37.4465883441148], [-121.89546598049198, 37.446512338904725], [-121.8954405031683, 37.44657016000975], [-121.89506305803539, 37.4466544891022], [-121.89484870383892, 37.44677081391215], [-121.89432979381165, 37.447012981181935], [-121.89412755968499, 37.44714333379696], [-121.89312706013898, 37.4476658267334], [-121.89263244594684, 37.44803238427995], [-121.8923777268514, 37.44815844964454], [-121.89220763354732, 37.448203023127576], [-121.89209321800703, 37.44820970129766], [-121.8917586558011, 37.448174000999984], [-121.89168228280104, 37.4473671100001], [-121.89164115880101, 37.44671879300005], [-121.8929096120452, 37.44665032520034]]]}, "properties": {"AREASYMBOL": "CA641", "SPATIALVER": 3.0, "MUSYM": "145", "MUKEY": "1543362", "Shape_Leng": 23477.9412137, "Shape_Area": 6809961.51752}}, {"type": "Feature", "geometry": {"type": "Polygon", "coordinates": [[[-121.89546598049198, 37.446512338904725], [-121.89566784851523, 37.446501442569165], [-121.8954405031683, 37.44657016000975], [-121.89546598049198, 37.446512338904725]], [[-121.90030071680141, 37.447502370000116], [-121.8997837288014, 37.44732046900006], [-121.89891967303213, 37.447457665754015], [-121.89881634056515, 37.44741954865076], [-121.89803881005916, 37.44717346659643], [-121.89725416938765, 37.44685110827179], [-121.89715658000848, 37.44680016734626], [-121.89699702124773, 37.446671970820304], [-121.89680582112769, 37.44660442526743], [-121.89633118726414, 37.4464996810074], [-121.89608332554869, 37.44647540839868], [-121.9015638138015, 37.446112448000065], [-121.90158143880144, 37.44706860499999], [-121.9015931888014, 37.44729248400016], [-121.90030071680141, 37.447502370000116]]]}, "properties": {"AREASYMBOL": "CA641", "SPATIALVER": 3.0, "MUSYM": "165", "MUKEY": "1602811", "Shape_Leng": 13506.6020168, "Shape_Area": 4412727.57243}}, {"type": "Feature", "geometry": {"type": "Polygon", "coordinates": [[[-121.8929096120452, 37.44665032520034], [-121.89405788964137, 37.4465883441148], [-121.8939214385481, 37.44665934307507], [-121.89365355464216, 37.44682812791149], [-121.89330815600866, 37.44690266892284], [-121.89313893856196, 37.446893316889216], [-121.89303616410692, 37.446844432114844], [-121.89292742663503, 37.44671253991561], [-121.8929096120452, 37.44665032520034]]]}, "properties": {"AREASYMBOL": "CA641", "SPATIALVER": 3.0, "MUSYM": "150", "MUKEY": "1543361", "Shape_Leng": 10906.329294, "Shape_Area": 1926662.63405}}]}