{"type": "FeatureCollection", "features": [{"type": "Feature", "geometry": {"type": "LineString", "coordinates": [[-121.89407370478538, 37.44732369964881], [-121.89406840472519, 37.4472369999715], [-121.89405950511572, 37.44709169985354], [-121.89405380440684, 37.44699759987935]]}, "properties": {"type": "Main", "diameter": "27", "material": "Reinforced Concrete", "up_elev": "18.55", "down_elev": "18.18", "vert_dat": "NGVD29", "slope": "0.0043", "owner": "City", "owner_id": "4874", "install_da": "01/01/1980", "other": "Not Available", "source_dat": "Not Available", "load_date": "2022-06-22", "Shape_Leng": 45.7780342251}}, {"type": "Feature", "geometry": {"type": "LineString", "coordinates": [[-121.89871140476353, 37.447084799777606], [-121.89936880446493, 37.44698390026882], [-121.89954590462824, 37.44694939983309]]}, "properties": {"type": "Main", "diameter": "24", "material": "Reinforced Concrete", "up_elev": "15.03", "down_elev": "17.33", "vert_dat": "NGVD29", "slope": "0.0200", "owner": "City", "owner_id": "4831", "install_da": "01/01/1980", "other": "Not Available", "source_dat": "Not Available", "load_date": "2022-06-22", "Shape_Leng": 94.835925781}}, {"type": "Feature", "geometry": {"type": "LineString", "coordinates": [[-121.89386920510753, 37.44701659989197], [-121.89405380440684, 37.44699759987935]]}, "properties": {"type": "Main", "diameter": "12", "material": "Reinforced Concrete", "up_elev": "18.85", "down_elev": "18.08", "vert_dat": "NGVD29", "slope": "0.0100", "owner": "City", "owner_id": "4875", "install_da": "01/01/1980", "other": "Not Available", "source_dat": "Not Available", "load_date": "2022-06-22", "Shape_Leng": 20.7214714497}}, {"type": "Feature", "geometry": {"type": "LineString", "coordinates": [[-121.89420180454492, 37.44699769972551], [-121.89405380440684, 37.44699759987935]]}, "properties": {"type": "Main", "diameter": "12", "material": "Reinforced Concrete", "up_elev": "18.68", "down_elev": "18.08", "vert_dat": "NGVD29", "slope": "0.0100", "owner": "City", "owner_id": "4876", "install_da": "01/01/1980", "other": "Not Available", "source_dat": "Not Available", "load_date": "2022-06-22", "Shape_Leng": 16.4753059493}}, {"type": "Feature", "geometry": {"type": "LineString", "coordinates": [[-121.89342440519293, 37.44798919996506], [-121.89367340471499, 37.44805319977827]]}, "properties": {"type": "Main", "diameter": "15", "material": "Reinforced Concrete", "up_elev": "Not Available", "down_elev": "20.18", "vert_dat": "NGVD29", "slope": "0.0010", "owner": "City", "owner_id": "4990", "install_da": "Not Available", "other": "Not Available", "source_dat": "Not Available", "load_date": "2022-06-22", "Shape_Leng": 29.1349639333}}, {"type": "Feature", "geometry": {"type": "LineString", "coordinates": [[-121.89187710472672, 37.44719760007097], [-121.89183940512916, 37.446814600148436]]}, "properties": {"type": "Main", "diameter": "24", "material": "Reinforced Concrete", "up_elev": "Not Available", "down_elev": "Not Available", "vert_dat": "NGVD29", "slope": "Not Available", "owner": "City", "owner_id": "4808", "install_da": "Not Available", "other": "Not Available", "source_dat": "Not Available", "load_date": "2022-06-22", "Shape_Leng": 53.8663302805}}, {"type": "Feature", "geometry": {"type": "LineString", "coordinates": [[-121.89325910440088, 37.44681270021362], [-121.89404090459942, 37.44676530024655]]}, "properties": {"type": "Main", "diameter": "12", "material": "Reinforced Concrete", "up_elev": "18.68", "down_elev": "18.00", "vert_dat": "NGVD29", "slope": "0.0030", "owner": "City", "owner_id": "4871", "install_da": "01/01/1980", "other": "Not Available", "source_dat": "Not Available", "load_date": "2022-06-22", "Shape_Leng": 87.2830066543}}, {"type": "Feature", "geometry": {"type": "LineString", "coordinates": [[-121.89958950436053, 37.447042599826396], [-121.89954590462824, 37.44694939983309]]}, "properties": {"type": "Main", "diameter": "12", "material": "Reinforced Concrete", "up_elev": "18.70", "down_elev": "18.33", "vert_dat": "NGVD29", "slope": "0.0050", "owner": "City", "owner_id": "4830", "install_da": "01/01/1980", "other": "Not Available", "source_dat": "Not Available", "load_date": "2022-06-22", "Shape_Leng": 13.94029052}}, {"type": "Feature", "geometry": {"type": "LineString", "coordinates": [[-121.89359835505623, 37.4482313001916], [-121.89360500519258, 37.44821159977586], [-121.89361710460122, 37.44818010023665], [-121.89367340471499, 37.44805319977827]]}, "properties": {"type": "Main", "diameter": "27", "material": "Reinforced Concrete", "up_elev": "20.75", "down_elev": "19.85", "vert_dat": "NGVD29", "slope": "0.0043", "owner": "City", "owner_id": "4922", "install_da": "Not Available", "other": "Not Available", "source_dat": "Not Available", "load_date": "2022-06-22", "Shape_Leng": 85.8030500919}}, {"type": "Feature", "geometry": {"type": "LineString", "coordinates": [[-121.8995428045422, 37.44684100025184], [-121.8995135050909, 37.44665129971524]]}, "properties": {"type": "Main", "diameter": "24", "material": "Reinforced Concrete", "up_elev": "14.20", "down_elev": "14.01", "vert_dat": "NGVD29", "slope": "0.0029", "owner": "City", "owner_id": "4828", "install_da": "01/01/1980", "other": "Not Available", "source_dat": "Not Available", "load_date": "2022-06-22", "Shape_Leng": 26.7981252265}}, {"type": "Feature", "geometry": {"type": "LineString", "coordinates": [[-121.89918250465475, 37.446623200011715], [-121.89929390473316, 37.44646820000352]]}, "properties": {"type": "Main", "diameter": "6", "material": "Reinforced Concrete", "up_elev": "20.30", "down_elev": "18.82", "vert_dat": "NGVD29", "slope": "0.0260", "owner": "City", "owner_id": "4826", "install_da": "01/01/1980", "other": "Not Available", "source_dat": "Not Available", "load_date": "2022-06-22", "Shape_Leng": 25.022412552}}, {"type": "Feature", "geometry": {"type": "LineString", "coordinates": [[-121.89409730442621, 37.44768260002694], [-121.89397000506561, 37.44765490009203]]}, "properties": {"type": "Main", "diameter": "12", "material": "Reinforced Concrete", "up_elev": "19.94", "down_elev": "19.80", "vert_dat": "NGVD29", "slope": "Not Available", "owner": "City", "owner_id": "4987", "install_da": "01/01/1980", "other": "Not Available", "source_dat": "Not Available", "load_date": "2022-06-22", "Shape_Leng": 14.6935313265}}, {"type": "Feature", "geometry": {"type": "LineString", "coordinates": [[-121.89931770469828, 37.44670789990313], [-121.89929390473316, 37.44646820000352]]}, "properties": {"type": "Main", "diameter": "12", "material": "Reinforced Concrete", "up_elev": "19.14", "down_elev": "18.82", "vert_dat": "NGVD29", "slope": "0.0050", "owner": "City", "owner_id": "4827", "install_da": "01/01/1980", "other": "Not Available", "source_dat": "Not Available", "load_date": "2022-06-22", "Shape_Leng": 33.7137629315}}, {"type": "Feature", "geometry": {"type": "LineString", "coordinates": [[-121.89929390473316, 37.44646820000352], [-121.90008470515254, 37.44643699998422]]}, "properties": {"type": "Main", "diameter": "12", "material": "Reinforced Concrete", "up_elev": "13.53", "down_elev": "11.68", "vert_dat": "NGVD29", "slope": "0.0026", "owner": "City", "owner_id": "4799", "install_da": "01/01/1980", "other": "Not Available", "source_dat": "Not Available", "load_date": "2022-06-22", "Shape_Leng": 88.1401327001}}, {"type": "Feature", "geometry": {"type": "LineString", "coordinates": [[-121.89793460458787, 37.44655830035427], [-121.89929390473316, 37.44646820000352]]}, "properties": {"type": "Main", "diameter": "12", "material": "Reinforced Concrete", "up_elev": "Not Available", "down_elev": "13.53", "vert_dat": "NGVD29", "slope": "0.0026", "owner": "City", "owner_id": "4822", "install_da": "01/01/1980", "other": "Not Available", "source_dat": "Not Available", "load_date": "2022-06-22", "Shape_Leng": 151.84306448}}, {"type": "Feature", "geometry": {"type": "LineString", "coordinates": [[-121.8938135050684, 37.447865499929115], [-121.89397000506561, 37.44765490009203]]}, "properties": {"type": "Main", "diameter": "27", "material": "Reinforced Concrete", "up_elev": "19.49", "down_elev": "19.05", "vert_dat": "NGVD29", "slope": "0.0043", "owner": "City", "owner_id": "4988", "install_da": "Not Available", "other": "Not Available", "source_dat": "Not Available", "load_date": "2022-06-22", "Shape_Leng": 34.2857382098}}, {"type": "Feature", "geometry": {"type": "LineString", "coordinates": [[-121.89954590462824, 37.44694939983309], [-121.8995428045422, 37.44684100025184]]}, "properties": {"type": "Main", "diameter": "24", "material": "Reinforced Concrete", "up_elev": "17.33", "down_elev": "14.20", "vert_dat": "NGVD29", "slope": "0.0029", "owner": "City", "owner_id": "4829", "install_da": "01/01/1980", "other": "Not Available", "source_dat": "Not Available", "load_date": "2022-06-22", "Shape_Leng": 15.2032172403}}, {"type": "Feature", "geometry": {"type": "LineString", "coordinates": [[-121.8979689049604, 37.447203000308384], [-121.89871140476353, 37.447084799777606]]}, "properties": {"type": "Main", "diameter": "12", "material": "Reinforced Concrete", "up_elev": "18.06", "down_elev": "12.91", "vert_dat": "NGVD29", "slope": "0.0100", "owner": "City", "owner_id": "4834", "install_da": "01/01/1980", "other": "Not Available", "source_dat": "Not Available", "load_date": "2022-06-22", "Shape_Leng": 84.2999623314}}, {"type": "Feature", "geometry": {"type": "LineString", "coordinates": [[-121.90010520470732, 37.44661740034577], [-121.90008470515254, 37.44643699998422]]}, "properties": {"type": "Main", "diameter": "27", "material": "Reinforced Concrete", "up_elev": "12.12", "down_elev": "11.68", "vert_dat": "NGVD29", "slope": "0.0100", "owner": "City", "owner_id": "4019", "install_da": "01/01/1980", "other": "Not Available", "source_dat": "Not Available", "load_date": "2022-06-22", "Shape_Leng": 25.3975280483}}, {"type": "Feature", "geometry": {"type": "LineString", "coordinates": [[-121.89500110482346, 37.4470164001997], [-121.8949943045768, 37.44695459968275]]}, "properties": {"type": "Main", "diameter": "12", "material": "Reinforced Concrete", "up_elev": "19.95", "down_elev": "19.83", "vert_dat": "NGVD29", "slope": "0.0050", "owner": "City", "owner_id": "4878", "install_da": "01/01/1980", "other": "Not Available", "source_dat": "Not Available", "load_date": "2022-06-22", "Shape_Leng": 8.69840250458}}, {"type": "Feature", "geometry": {"type": "LineString", "coordinates": [[-121.89671380489652, 37.447402500009524], [-121.89705600462926, 37.44734849990163]]}, "properties": {"type": "Main", "diameter": "12", "material": "Reinforced Concrete", "up_elev": "19.30", "down_elev": "18.00", "vert_dat": "NGVD29", "slope": "0.0030", "owner": "City", "owner_id": "4838", "install_da": "01/01/1980", "other": "Not Available", "source_dat": "Not Available", "load_date": "2022-06-22", "Shape_Leng": 38.8387098536}}, {"type": "Feature", "geometry": {"type": "LineString", "coordinates": [[-121.89758140498446, 37.44680729994802], [-121.89793280436402, 37.44678699973864]]}, "properties": {"type": "Main", "diameter": "12", "material": "Reinforced Concrete", "up_elev": "18.87", "down_elev": "18.57", "vert_dat": "NGVD29", "slope": "0.0030", "owner": "City", "owner_id": "4824", "install_da": "01/01/1980", "other": "Not Available", "source_dat": "Not Available", "load_date": "2022-06-22", "Shape_Leng": 39.2210227134}}, {"type": "Feature", "geometry": {"type": "LineString", "coordinates": [[-121.9012298047132, 37.44694209964582], [-121.9011287047179, 37.44694630032031], [-121.90053240482888, 37.44698229987691], [-121.90030000437665, 37.446939199825266]]}, "properties": {"type": "Main", "diameter": "21", "material": "Reinforced Concrete", "up_elev": "15.30", "down_elev": "13.97", "vert_dat": "NGVD29", "slope": "0.0051", "owner": "City", "owner_id": "4030", "install_da": "Not Available", "other": "Not Available", "source_dat": "Not Available", "load_date": "2022-06-22", "Shape_Leng": 104.408417243}}, {"type": "Feature", "geometry": {"type": "LineString", "coordinates": [[-121.90031950500486, 37.44673420019762], [-121.90011470439141, 37.44674480033268]]}, "properties": {"type": "Main", "diameter": "12", "material": "Reinforced Concrete", "up_elev": "14.80", "down_elev": "12.80", "vert_dat": "NGVD29", "slope": "Not Available", "owner": "City", "owner_id": "4020", "install_da": "01/01/1980", "other": "Not Available", "source_dat": "Not Available", "load_date": "2022-06-22", "Shape_Leng": 22.846697148}}, {"type": "Feature", "geometry": {"type": "LineString", "coordinates": [[-121.89271920523699, 37.44745769965163], [-121.89340510488908, 37.447441300015434]]}, "properties": {"type": "Main", "diameter": "Not Available", "material": "Unknown", "up_elev": "20.13", "down_elev": "19.32", "vert_dat": "NGVD29", "slope": "Not Available", "owner": "City", "owner_id": "4868", "install_da": "01/01/1990", "other": "Not Available", "source_dat": "Not Available", "load_date": "2022-06-22", "Shape_Leng": 76.3886183708}}, {"type": "Feature", "geometry": {"type": "LineString", "coordinates": [[-121.89331420436547, 37.447046199992194], [-121.89385090462862, 37.44701389976664], [-121.89386920510753, 37.44701659989197]]}, "properties": {"type": "Main", "diameter": "12", "material": "Reinforced Concrete", "up_elev": "21.00", "down_elev": "18.85", "vert_dat": "NGVD29", "slope": "0.0510", "owner": "City", "owner_id": "4869", "install_da": "01/01/1980", "other": "Not Available", "source_dat": "Not Available", "load_date": "2022-06-22", "Shape_Leng": 61.9886966052}}, {"type": "Feature", "geometry": {"type": "LineString", "coordinates": [[-121.89206000441348, 37.44670609981213], [-121.89188790517134, 37.44672099977161]]}, "properties": {"type": "Main", "diameter": "18", "material": "Reinforced Concrete", "up_elev": "Not Available", "down_elev": "Not Available", "vert_dat": "NGVD29", "slope": "Not Available", "owner": "City", "owner_id": "4809", "install_da": "Not Available", "other": "Not Available", "source_dat": "Not Available", "load_date": "2022-06-22", "Shape_Leng": 19.2715780522}}, {"type": "Feature", "geometry": {"type": "LineString", "coordinates": [[-121.89405230511866, 37.44777029977885], [-121.89409730442621, 37.44768260002694]]}, "properties": {"type": "Main", "diameter": "12", "material": "Reinforced Concrete", "up_elev": "20.04", "down_elev": "19.94", "vert_dat": "NGVD29", "slope": "Not Available", "owner": "City", "owner_id": "4986", "install_da": "01/01/1980", "other": "Not Available", "source_dat": "Not Available", "load_date": "2022-06-22", "Shape_Leng": 13.2781510551}}, {"type": "Feature", "geometry": {"type": "LineString", "coordinates": [[-121.89705600462926, 37.44734849990163], [-121.89764680503208, 37.44725530028932], [-121.89769850487329, 37.447239899780605]]}, "properties": {"type": "Main", "diameter": "12", "material": "Reinforced Concrete", "up_elev": "18.00", "down_elev": "18.47", "vert_dat": "NGVD29", "slope": "0.0030", "owner": "City", "owner_id": "4837", "install_da": "01/01/1980", "other": "Not Available", "source_dat": "Not Available", "load_date": "2022-06-22", "Shape_Leng": 73.2003329727}}, {"type": "Feature", "geometry": {"type": "LineString", "coordinates": [[-121.89793280436402, 37.44678699973864], [-121.89793460458787, 37.44655830035427]]}, "properties": {"type": "Main", "diameter": "12", "material": "Reinforced Concrete", "up_elev": "15.00", "down_elev": "Not Available", "vert_dat": "NGVD29", "slope": "0.0050", "owner": "City", "owner_id": "4823", "install_da": "01/01/1980", "other": "Not Available", "source_dat": "Not Available", "load_date": "2022-06-22", "Shape_Leng": 32.0677261867}}, {"type": "Feature", "geometry": {"type": "LineString", "coordinates": [[-121.89673620438809, 37.44749629993787], [-121.89671380489652, 37.447402500009524]]}, "properties": {"type": "Main", "diameter": "12", "material": "Reinforced Concrete", "up_elev": "19.40", "down_elev": "19.30", "vert_dat": "NGVD29", "slope": "0.0030", "owner": "City", "owner_id": "4931", "install_da": "01/01/1980", "other": "Not Available", "source_dat": "Not Available", "load_date": "2022-06-22", "Shape_Leng": 13.3865805023}}, {"type": "Feature", "geometry": {"type": "LineString", "coordinates": [[-121.89397000506561, 37.44765490009203], [-121.89398450477258, 37.44763109982055], [-121.89399800465468, 37.44760690016006], [-121.89401040499888, 37.44758229968371], [-121.89402170490686, 37.447557399662976], [-121.8940319043786, 37.44753220009752], [-121.89404110492373, 37.44750680011944], [-121.89404910442134, 37.44748109988296], [-121.89405600438103, 37.44745519994646], [-121.89406180480283, 37.44742910030986], [-121.89406650478838, 37.44740290010524], [-121.89407000462472, 37.44737660004586], [-121.89407240492315, 37.44735010028575], [-121.89407370478538, 37.44732369964881]]}, "properties": {"type": "Main", "diameter": "27", "material": "Reinforced Concrete", "up_elev": "19.05", "down_elev": "18.55", "vert_dat": "NGVD29", "slope": "0.0043", "owner": "City", "owner_id": "4781", "install_da": "Not Available", "other": "Not Available", "source_dat": "Not Available", "load_date": "2022-06-22", "Shape_Leng": 48.2507502189}}, {"type": "Feature", "geometry": {"type": "LineString", "coordinates": [[-121.89367340471499, 37.44805319977827], [-121.8938135050684, 37.447865499929115]]}, "properties": {"type": "Main", "diameter": "27", "material": "Reinforced Concrete", "up_elev": "19.85", "down_elev": "19.49", "vert_dat": "NGVD29", "slope": "Not Available", "owner": "City", "owner_id": "4989", "install_da": "Not Available", "other": "Not Available", "source_dat": "Not Available", "load_date": "2022-06-22", "Shape_Leng": 30.5926679117}}, {"type": "Feature", "geometry": {"type": "LineString", "coordinates": [[-121.89340290491492, 37.44734899984335], [-121.89340510488908, 37.447441300015434]]}, "properties": {"type": "Main", "diameter": "Not Available", "material": "Unknown", "up_elev": "19.47", "down_elev": "19.32", "vert_dat": "NGVD29", "slope": "Not Available", "owner": "City", "owner_id": "4867", "install_da": "01/01/1990", "other": "Not Available", "source_dat": "Not Available", "load_date": "2022-06-22", "Shape_Leng": 12.9443169018}}, {"type": "Feature", "geometry": {"type": "LineString", "coordinates": [[-121.89862580519844, 37.44719650033954], [-121.89871140476353, 37.447084799777606]]}, "properties": {"type": "Main", "diameter": "12", "material": "Reinforced Concrete", "up_elev": "18.50", "down_elev": "18.03", "vert_dat": "NGVD29", "slope": "0.0100", "owner": "City", "owner_id": "4833", "install_da": "01/01/1980", "other": "Not Available", "source_dat": "Not Available", "load_date": "2022-06-22", "Shape_Leng": 18.3331515001}}, {"type": "Feature", "geometry": {"type": "LineString", "coordinates": [[-121.90011470439141, 37.44674480033268], [-121.90010520470732, 37.44661740034577]]}, "properties": {"type": "Main", "diameter": "27", "material": "Reinforced Concrete", "up_elev": "12.87", "down_elev": "12.31", "vert_dat": "NGVD29", "slope": "Not Available", "owner": "City", "owner_id": "4021", "install_da": "Not Available", "other": "Not Available", "source_dat": "Not Available", "load_date": "2022-06-22", "Shape_Leng": 17.8946742276}}, {"type": "Feature", "geometry": {"type": "LineString", "coordinates": [[-121.89404090459942, 37.44676530024655], [-121.89401956802567, 37.44659041261836]]}, "properties": {"type": "Main", "diameter": "48", "material": "Reinforced Concrete", "up_elev": "17.06", "down_elev": "16.98", "vert_dat": "NGVD29", "slope": "0.0005", "owner": "City", "owner_id": "4865", "install_da": "01/01/1980", "other": "Not Available", "source_dat": "Not Available", "load_date": "2022-06-22", "Shape_Leng": 60.5041359988}}, {"type": "Feature", "geometry": {"type": "LineString", "coordinates": [[-121.89417460445641, 37.44675909977916], [-121.89404090459942, 37.44676530024655]]}, "properties": {"type": "Main", "diameter": "12", "material": "Reinforced Concrete", "up_elev": "18.20", "down_elev": "18.00", "vert_dat": "NGVD29", "slope": "0.0050", "owner": "City", "owner_id": "4872", "install_da": "01/01/1980", "other": "Not Available", "source_dat": "Not Available", "load_date": "2022-06-22", "Shape_Leng": 14.9087709736}}, {"type": "Feature", "geometry": {"type": "LineString", "coordinates": [[-121.90008470515254, 37.44643699998422], [-121.90008680451534, 37.44633459975622], [-121.90007390370694, 37.44621112156565]]}, "properties": {"type": "Main", "diameter": "27", "material": "Reinforced Concrete", "up_elev": "11.68", "down_elev": "9.16", "vert_dat": "NGVD29", "slope": "0.0081", "owner": "City", "owner_id": "3919", "install_da": "01/01/1980", "other": "Not Available", "source_dat": "Not Available", "load_date": "2022-06-22", "Shape_Leng": 119.472419323}}, {"type": "Feature", "geometry": {"type": "LineString", "coordinates": [[-121.89729000498097, 37.446680099760755], [-121.89758140498446, 37.44680729994802]]}, "properties": {"type": "Main", "diameter": "6", "material": "Reinforced Concrete", "up_elev": "22.00", "down_elev": "18.87", "vert_dat": "NGVD29", "slope": "0.0200", "owner": "City", "owner_id": "4825", "install_da": "01/01/1980", "other": "Not Available", "source_dat": "Not Available", "load_date": "2022-06-22", "Shape_Leng": 37.018343771}}, {"type": "Feature", "geometry": {"type": "LineString", "coordinates": [[-121.8949943045768, 37.44695459968275], [-121.8949808046947, 37.44695079982003], [-121.8942164048632, 37.446991499990574], [-121.89420180454492, 37.44699769972551]]}, "properties": {"type": "Main", "diameter": "12", "material": "Reinforced Concrete", "up_elev": "19.83", "down_elev": "18.68", "vert_dat": "NGVD29", "slope": "0.0050", "owner": "City", "owner_id": "4877", "install_da": "01/01/1980", "other": "Not Available", "source_dat": "Not Available", "load_date": "2022-06-22", "Shape_Leng": 88.7213766654}}, {"type": "Feature", "geometry": {"type": "LineString", "coordinates": [[-121.89340510488908, 37.447441300015434], [-121.89407370478538, 37.44732369964881]]}, "properties": {"type": "Main", "diameter": "18", "material": "Reinforced Concrete", "up_elev": "19.32", "down_elev": "18.99", "vert_dat": "NGVD29", "slope": "0.0040", "owner": "City", "owner_id": "4866", "install_da": "Not Available", "other": "Not Available", "source_dat": "Not Available", "load_date": "2022-06-22", "Shape_Leng": 76.2329362243}}, {"type": "Feature", "geometry": {"type": "LineString", "coordinates": [[-121.89405380440684, 37.44699759987935], [-121.89404090459942, 37.44676530024655]]}, "properties": {"type": "Main", "diameter": "36", "material": "Reinforced Concrete", "up_elev": "18.06", "down_elev": "17.84", "vert_dat": "NGVD29", "slope": "0.0010", "owner": "City", "owner_id": "4873", "install_da": "01/01/1980", "other": "Not Available", "source_dat": "Not Available", "load_date": "2022-06-22", "Shape_Leng": 32.6036390575}}, {"type": "Feature", "geometry": {"type": "LineString", "coordinates": [[-121.89340200480305, 37.448082599778886], [-121.89342440519293, 37.44798919996506]]}, "properties": {"type": "Main", "diameter": "12", "material": "Reinforced Concrete", "up_elev": "Not Available", "down_elev": "Not Available", "vert_dat": "NGVD29", "slope": "Not Available", "owner": "City", "owner_id": "4991", "install_da": "01/01/1980", "other": "Not Available", "source_dat": "Not Available", "load_date": "2022-06-22", "Shape_Leng": 13.3315833496}}, {"type": "Feature", "geometry": {"type": "LineString", "coordinates": [[-121.8995135050909, 37.44665129971524], [-121.90010520470732, 37.44661740034577]]}, "properties": {"type": "Main", "diameter": "24", "material": "Reinforced Concrete", "up_elev": "14.01", "down_elev": "13.50", "vert_dat": "NGVD29", "slope": "0.0030", "owner": "City", "owner_id": "3711", "install_da": "01/01/1980", "other": "Not Available", "source_dat": "Not Available", "load_date": "2022-06-22", "Shape_Leng": 66.0389795023}}, {"type": "Feature", "geometry": {"type": "LineString", "coordinates": [[-121.89769850487329, 37.447239899780605], [-121.8979689049604, 37.447203000308384]]}, "properties": {"type": "Main", "diameter": "12", "material": "Reinforced Concrete", "up_elev": "18.47", "down_elev": "18.06", "vert_dat": "NGVD29", "slope": "0.0040", "owner": "City", "owner_id": "4836", "install_da": "01/01/1980", "other": "Not Available", "source_dat": "Not Available", "load_date": "2022-06-22", "Shape_Leng": 30.5422232633}}, {"type": "Feature", "geometry": {"type": "LineString", "coordinates": [[-121.8978840051829, 37.44732039974687], [-121.8979689049604, 37.447203000308384]]}, "properties": {"type": "Main", "diameter": "12", "material": "Reinforced Concrete", "up_elev": "18.41", "down_elev": "18.06", "vert_dat": "NGVD29", "slope": "0.0070", "owner": "City", "owner_id": "4835", "install_da": "01/01/1980", "other": "Not Available", "source_dat": "Not Available", "load_date": "2022-06-22", "Shape_Leng": 18.9814593406}}, {"type": "Feature", "geometry": {"type": "LineString", "coordinates": [[-121.89880904288064, 37.44747523184468], [-121.89871140476353, 37.447084799777606]]}, "properties": {"type": "Main", "diameter": "21", "material": "Reinforced Concrete", "up_elev": "15.99", "down_elev": "15.28", "vert_dat": "NGVD29", "slope": "0.0030", "owner": "City", "owner_id": "4832", "install_da": "01/01/1980", "other": "Not Available", "source_dat": "Not Available", "load_date": "2022-06-22", "Shape_Leng": 91.9761655104}}, {"type": "Feature", "geometry": {"type": "LineString", "coordinates": [[-121.90010585943168, 37.44743380994928], [-121.90023620512687, 37.44708669970553], [-121.90030000437665, 37.446939199825266]]}, "properties": {"type": "Main", "diameter": "12", "material": "Reinforced Concrete", "up_elev": "19.00", "down_elev": "15.83", "vert_dat": "NGVD29", "slope": "0.0092", "owner": "City", "owner_id": "4092", "install_da": "Not Available", "other": "Not Available", "source_dat": "Not Available", "load_date": "2022-06-22", "Shape_Leng": 138.524372103}}, {"type": "Feature", "geometry": {"type": "LineString", "coordinates": [[-121.90030000437665, 37.446939199825266], [-121.90011470439141, 37.44674480033268]]}, "properties": {"type": "Main", "diameter": "27", "material": "Reinforced Concrete", "up_elev": "13.97", "down_elev": "13.01", "vert_dat": "NGVD29", "slope": "0.0100", "owner": "City", "owner_id": "4022", "install_da": "01/01/1980", "other": "Not Available", "source_dat": "Not Available", "load_date": "2022-06-22", "Shape_Leng": 34.1830574607}}, {"type": "Feature", "geometry": {"type": "LineString", "coordinates": [[-121.89331990507429, 37.446942600303444], [-121.89331420436547, 37.447046199992194]]}, "properties": {"type": "Main", "diameter": "6", "material": "Polyvinly Chloride", "up_elev": "21.50", "down_elev": "21.00", "vert_dat": "NGVD29", "slope": "Not Available", "owner": "City", "owner_id": "4870", "install_da": "01/01/1980", "other": "Not Available", "source_dat": "Not Available", "load_date": "2022-06-22", "Shape_Leng": 14.5401550547}}]}