{"type": "FeatureCollection", "features": [{"type": "Feature", "geometry": {"type": "Point", "coordinates": [-121.89183940512918, 37.446814600148414]}, "properties": {"type": "Plug", "subtype": "Not Available", "material": "Not Available", "owner": "City", "owner_id": "273", "install_da": "Not Available", "other": "Not Available", "source_dat": "Not Available", "load_date": "2022-06-22"}}, {"type": "Feature", "geometry": {"type": "Point", "coordinates": [-121.8918771047267, 37.44719760007097]}, "properties": {"type": "Plug", "subtype": "Not Available", "material": "Not Available", "owner": "City", "owner_id": "274", "install_da": "Not Available", "other": "Not Available", "source_dat": "Not Available", "load_date": "2022-06-22"}}, {"type": "Feature", "geometry": {"type": "Point", "coordinates": [-121.89188790517136, 37.446720999771635]}, "properties": {"type": "Plug", "subtype": "Not Available", "material": "Not Available", "owner": "City", "owner_id": "275", "install_da": "Not Available", "other": "Not Available", "source_dat": "Not Available", "load_date": "2022-06-22"}}, {"type": "Feature", "geometry": {"type": "Point", "coordinates": [-121.90122980471321, 37.44694209964582]}, "properties": {"type": "Manhole", "subtype": "Not Available", "material": "Not Available", "owner": "City", "owner_id": "1147", "install_da": "01/01/1980", "other": "Not Available", "source_dat": "Not Available", "load_date": "2022-06-22"}}, {"type": "Feature", "geometry": {"type": "Point", "coordinates": [-121.90030000437665, 37.44693919982524]}, "properties": {"type": "Manhole", "subtype": "Not Available", "material": "Not Available", "owner": "City", "owner_id": "1148", "install_da": "Not Available", "other": "Not Available", "source_dat": "Not Available", "load_date": "2022-06-22"}}, {"type": "Feature", "geometry": {"type": "Point", "coordinates": [-121.90008470515251, 37.44643699998424]}, "properties": {"type": "Manhole", "subtype": "Not Available", "material": "Not Available", "owner": "City", "owner_id": "1153", "install_da": "01/01/1980", "other": "Not Available", "source_dat": "Not Available", "load_date": "2022-06-22"}}, {"type": "Feature", "geometry": {"type": "Point", "coordinates": [-121.9001052047073, 37.44661740034577]}, "properties": {"type": "Manhole", "subtype": "Not Available", "material": "Not Available", "owner": "City", "owner_id": "1154", "install_da": "01/01/1980", "other": "Not Available", "source_dat": "Not Available", "load_date": "2022-06-22"}}, {"type": "Feature", "geometry": {"type": "Point", "coordinates": [-121.89407370478538, 37.447323699648784]}, "properties": {"type": "Manhole", "subtype": "Not Available", "material": "Not Available", "owner": "City", "owner_id": "1401", "install_da": "Not Available", "other": "Not Available", "source_dat": "Not Available", "load_date": "2022-06-22"}}, {"type": "Feature", "geometry": {"type": "Point", "coordinates": [-121.89405380440688, 37.44699759987935]}, "properties": {"type": "Manhole", "subtype": "Not Available", "material": "Not Available", "owner": "City", "owner_id": "1402", "install_da": "01/01/1980", "other": "Not Available", "source_dat": "Not Available", "load_date": "2022-06-22"}}, {"type": "Feature", "geometry": {"type": "Point", "coordinates": [-121.89404090459942, 37.44676530024652]}, "properties": {"type": "Manhole", "subtype": "Not Available", "material": "Not Available", "owner": "City", "owner_id": "1403", "install_da": "01/01/1980", "other": "Not Available", "source_dat": "Not Available", "load_date": "2022-06-22"}}, {"type": "Feature", "geometry": {"type": "Point", "coordinates": [-121.89954590462824, 37.44694939983306]}, "properties": {"type": "Manhole", "subtype": "Not Available", "material": "Not Available", "owner": "City", "owner_id": "1425", "install_da": "01/01/1980", "other": "Not Available", "source_dat": "Not Available", "load_date": "2022-06-22"}}, {"type": "Feature", "geometry": {"type": "Point", "coordinates": [-121.89951350509088, 37.44665129971524]}, "properties": {"type": "Manhole", "subtype": "Not Available", "material": "Not Available", "owner": "City", "owner_id": "1426", "install_da": "01/01/1980", "other": "Not Available", "source_dat": "Not Available", "load_date": "2022-06-22"}}, {"type": "Feature", "geometry": {"type": "Point", "coordinates": [-121.89397000506561, 37.44765490009203]}, "properties": {"type": "Manhole", "subtype": "Not Available", "material": "Not Available", "owner": "City", "owner_id": "1449", "install_da": "Not Available", "other": "Not Available", "source_dat": "Not Available", "load_date": "2022-06-22"}}, {"type": "Feature", "geometry": {"type": "Point", "coordinates": [-121.89381350506838, 37.447865499929115]}, "properties": {"type": "Manhole", "subtype": "Not Available", "material": "Not Available", "owner": "City", "owner_id": "1450", "install_da": "Not Available", "other": "Not Available", "source_dat": "Not Available", "load_date": "2022-06-22"}}, {"type": "Feature", "geometry": {"type": "Point", "coordinates": [-121.89367340471497, 37.44805319977827]}, "properties": {"type": "Manhole", "subtype": "Not Available", "material": "Not Available", "owner": "City", "owner_id": "1451", "install_da": "Not Available", "other": "Not Available", "source_dat": "Not Available", "load_date": "2022-06-22"}}, {"type": "Feature", "geometry": {"type": "Point", "coordinates": [-121.90011470439144, 37.44674480033265]}, "properties": {"type": "Inlet", "subtype": "Not Available", "material": "Not Available", "owner": "City", "owner_id": "2652", "install_da": "Not Available", "other": "Not Available", "source_dat": "Not Available", "load_date": "2022-06-22"}}, {"type": "Feature", "geometry": {"type": "Point", "coordinates": [-121.90031950500484, 37.44673420019762]}, "properties": {"type": "Inlet", "subtype": "Not Available", "material": "Not Available", "owner": "City", "owner_id": "2653", "install_da": "Not Available", "other": "Not Available", "source_dat": "Not Available", "load_date": "2022-06-22"}}, {"type": "Feature", "geometry": {"type": "Point", "coordinates": [-121.8920600044135, 37.446706099812104]}, "properties": {"type": "Inlet", "subtype": "Not Available", "material": "Not Available", "owner": "City", "owner_id": "3194", "install_da": "Not Available", "other": "Not Available", "source_dat": "Not Available", "load_date": "2022-06-22"}}, {"type": "Feature", "geometry": {"type": "Point", "coordinates": [-121.89954280454218, 37.446841000251816]}, "properties": {"type": "Inlet", "subtype": "Not Available", "material": "Not Available", "owner": "City", "owner_id": "3201", "install_da": "Not Available", "other": "Not Available", "source_dat": "Not Available", "load_date": "2022-06-22"}}, {"type": "Feature", "geometry": {"type": "Point", "coordinates": [-121.89918250465473, 37.44662320001174]}, "properties": {"type": "Inlet", "subtype": "Not Available", "material": "Not Available", "owner": "City", "owner_id": "3202", "install_da": "Not Available", "other": "Not Available", "source_dat": "Not Available", "load_date": "2022-06-22"}}, {"type": "Feature", "geometry": {"type": "Point", "coordinates": [-121.89331990507425, 37.446942600303416]}, "properties": {"type": "Inlet", "subtype": "Not Available", "material": "Not Available", "owner": "City", "owner_id": "3209", "install_da": "Not Available", "other": "Not Available", "source_dat": "Not Available", "load_date": "2022-06-22"}}, {"type": "Feature", "geometry": {"type": "Point", "coordinates": [-121.89788400518286, 37.44732039974687]}, "properties": {"type": "Inlet", "subtype": "Not Available", "material": "Not Available", "owner": "City", "owner_id": "3210", "install_da": "Not Available", "other": "Not Available", "source_dat": "Not Available", "load_date": "2022-06-22"}}, {"type": "Feature", "geometry": {"type": "Point", "coordinates": [-121.89729000498097, 37.446680099760734]}, "properties": {"type": "Inlet", "subtype": "Not Available", "material": "Not Available", "owner": "City", "owner_id": "3211", "install_da": "Not Available", "other": "Not Available", "source_dat": "Not Available", "load_date": "2022-06-22"}}, {"type": "Feature", "geometry": {"type": "Point", "coordinates": [-121.89793460458787, 37.44655830035427]}, "properties": {"type": "Inlet", "subtype": "Not Available", "material": "Not Available", "owner": "City", "owner_id": "3212", "install_da": "Not Available", "other": "Not Available", "source_dat": "Not Available", "load_date": "2022-06-22"}}, {"type": "Feature", "geometry": {"type": "Point", "coordinates": [-121.89871140476353, 37.447084799777606]}, "properties": {"type": "Inlet", "subtype": "Not Available", "material": "Not Available", "owner": "City", "owner_id": "3220", "install_da": "Not Available", "other": "Not Available", "source_dat": "Not Available", "load_date": "2022-06-22"}}, {"type": "Feature", "geometry": {"type": "Point", "coordinates": [-121.89862580519844, 37.44719650033954]}, "properties": {"type": "Inlet", "subtype": "Not Available", "material": "Not Available", "owner": "City", "owner_id": "3221", "install_da": "Not Available", "other": "Not Available", "source_dat": "Not Available", "load_date": "2022-06-22"}}, {"type": "Feature", "geometry": {"type": "Point", "coordinates": [-121.89500110482349, 37.4470164001997]}, "properties": {"type": "Inlet", "subtype": "Not Available", "material": "Not Available", "owner": "City", "owner_id": "3235", "install_da": "Not Available", "other": "Not Available", "source_dat": "Not Available", "load_date": "2022-06-22"}}, {"type": "Feature", "geometry": {"type": "Point", "coordinates": [-121.8949943045768, 37.44695459968275]}, "properties": {"type": "Inlet", "subtype": "Not Available", "material": "Not Available", "owner": "City", "owner_id": "3236", "install_da": "Not Available", "other": "Not Available", "source_dat": "Not Available", "load_date": "2022-06-22"}}, {"type": "Feature", "geometry": {"type": "Point", "coordinates": [-121.8942018045449, 37.44699769972551]}, "properties": {"type": "Inlet", "subtype": "Not Available", "material": "Not Available", "owner": "City", "owner_id": "3237", "install_da": "Not Available", "other": "Not Available", "source_dat": "Not Available", "load_date": "2022-06-22"}}, {"type": "Feature", "geometry": {"type": "Point", "coordinates": [-121.89417460445642, 37.446759099779136]}, "properties": {"type": "Inlet", "subtype": "Not Available", "material": "Not Available", "owner": "City", "owner_id": "3238", "install_da": "Not Available", "other": "Not Available", "source_dat": "Not Available", "load_date": "2022-06-22"}}, {"type": "Feature", "geometry": {"type": "Point", "coordinates": [-121.89325910440088, 37.44681270021359]}, "properties": {"type": "Inlet", "subtype": "Not Available", "material": "Not Available", "owner": "City", "owner_id": "3239", "install_da": "Not Available", "other": "Not Available", "source_dat": "Not Available", "load_date": "2022-06-22"}}, {"type": "Feature", "geometry": {"type": "Point", "coordinates": [-121.89331420436545, 37.44704619999222]}, "properties": {"type": "Inlet", "subtype": "Not Available", "material": "Not Available", "owner": "City", "owner_id": "3240", "install_da": "Not Available", "other": "Not Available", "source_dat": "Not Available", "load_date": "2022-06-22"}}, {"type": "Feature", "geometry": {"type": "Point", "coordinates": [-121.89386920510758, 37.44701659989197]}, "properties": {"type": "Inlet", "subtype": "Not Available", "material": "Not Available", "owner": "City", "owner_id": "3241", "install_da": "Not Available", "other": "Not Available", "source_dat": "Not Available", "load_date": "2022-06-22"}}, {"type": "Feature", "geometry": {"type": "Point", "coordinates": [-121.89340290491494, 37.44734899984335]}, "properties": {"type": "Inlet", "subtype": "Not Available", "material": "Not Available", "owner": "City", "owner_id": "3242", "install_da": "Not Available", "other": "Not Available", "source_dat": "Not Available", "load_date": "2022-06-22"}}, {"type": "Feature", "geometry": {"type": "Point", "coordinates": [-121.89340510488908, 37.447441300015406]}, "properties": {"type": "Inlet", "subtype": "Not Available", "material": "Not Available", "owner": "City", "owner_id": "3243", "install_da": "Not Available", "other": "Not Available", "source_dat": "Not Available", "load_date": "2022-06-22"}}, {"type": "Feature", "geometry": {"type": "Point", "coordinates": [-121.89271920523699, 37.44745769965163]}, "properties": {"type": "Inlet", "subtype": "Not Available", "material": "Not Available", "owner": "City", "owner_id": "3244", "install_da": "Not Available", "other": "Not Available", "source_dat": "Not Available", "load_date": "2022-06-22"}}, {"type": "Feature", "geometry": {"type": "Point", "coordinates": [-121.89671380489649, 37.447402500009524]}, "properties": {"type": "Inlet", "subtype": "Not Available", "material": "Not Available", "owner": "City", "owner_id": "3251", "install_da": "Not Available", "other": "Not Available", "source_dat": "Not Available", "load_date": "2022-06-22"}}, {"type": "Feature", "geometry": {"type": "Point", "coordinates": [-121.89705600462926, 37.44734849990163]}, "properties": {"type": "Inlet", "subtype": "Not Available", "material": "Not Available", "owner": "City", "owner_id": "3252", "install_da": "Not Available", "other": "Not Available", "source_dat": "Not Available", "load_date": "2022-06-22"}}, {"type": "Feature", "geometry": {"type": "Point", "coordinates": [-121.89769850487332, 37.447239899780584]}, "properties": {"type": "Inlet", "subtype": "Not Available", "material": "Not Available", "owner": "City", "owner_id": "3253", "install_da": "Not Available", "other": "Not Available", "source_dat": "Not Available", "load_date": "2022-06-22"}}, {"type": "Feature", "geometry": {"type": "Point", "coordinates": [-121.89796890496038, 37.447203000308384]}, "properties": {"type": "Inlet", "subtype": "Not Available", "material": "Not Available", "owner": "City", "owner_id": "3254", "install_da": "Not Available", "other": "Not Available", "source_dat": "Not Available", "load_date": "2022-06-22"}}, {"type": "Feature", "geometry": {"type": "Point", "coordinates": [-121.89758140498445, 37.44680729994802]}, "properties": {"type": "Inlet", "subtype": "Not Available", "material": "Not Available", "owner": "City", "owner_id": "3255", "install_da": "Not Available", "other": "Not Available", "source_dat": "Not Available", "load_date": "2022-06-22"}}, {"type": "Feature", "geometry": {"type": "Point", "coordinates": [-121.89793280436405, 37.44678699973864]}, "properties": {"type": "Inlet", "subtype": "Not Available", "material": "Not Available", "owner": "City", "owner_id": "3256", "install_da": "Not Available", "other": "Not Available", "source_dat": "Not Available", "load_date": "2022-06-22"}}, {"type": "Feature", "geometry": {"type": "Point", "coordinates": [-121.89958950436053, 37.447042599826396]}, "properties": {"type": "Inlet", "subtype": "Not Available", "material": "Not Available", "owner": "City", "owner_id": "3287", "install_da": "Not Available", "other": "Not Available", "source_dat": "Not Available", "load_date": "2022-06-22"}}, {"type": "Feature", "geometry": {"type": "Point", "coordinates": [-121.89931770469828, 37.44670789990313]}, "properties": {"type": "Inlet", "subtype": "Not Available", "material": "Not Available", "owner": "City", "owner_id": "3288", "install_da": "Not Available", "other": "Not Available", "source_dat": "Not Available", "load_date": "2022-06-22"}}, {"type": "Feature", "geometry": {"type": "Point", "coordinates": [-121.89929390473313, 37.446468200003494]}, "properties": {"type": "Inlet", "subtype": "Not Available", "material": "Not Available", "owner": "City", "owner_id": "3289", "install_da": "Not Available", "other": "Not Available", "source_dat": "Not Available", "load_date": "2022-06-22"}}, {"type": "Feature", "geometry": {"type": "Point", "coordinates": [-121.89409730442621, 37.44768260002694]}, "properties": {"type": "Inlet", "subtype": "Not Available", "material": "Not Available", "owner": "City", "owner_id": "3297", "install_da": "Not Available", "other": "Not Available", "source_dat": "Not Available", "load_date": "2022-06-22"}}, {"type": "Feature", "geometry": {"type": "Point", "coordinates": [-121.89340200480301, 37.448082599778886]}, "properties": {"type": "Inlet", "subtype": "Not Available", "material": "Not Available", "owner": "City", "owner_id": "3346", "install_da": "Not Available", "other": "Not Available", "source_dat": "Not Available", "load_date": "2022-06-22"}}, {"type": "Feature", "geometry": {"type": "Point", "coordinates": [-121.89342440519293, 37.447989199965086]}, "properties": {"type": "Inlet", "subtype": "Not Available", "material": "Not Available", "owner": "City", "owner_id": "3347", "install_da": "Not Available", "other": "Not Available", "source_dat": "Not Available", "load_date": "2022-06-22"}}, {"type": "Feature", "geometry": {"type": "Point", "coordinates": [-121.89405230511869, 37.44777029977888]}, "properties": {"type": "Inlet", "subtype": "Not Available", "material": "Not Available", "owner": "City", "owner_id": "3348", "install_da": "Not Available", "other": "Not Available", "source_dat": "Not Available", "load_date": "2022-06-22"}}, {"type": "Feature", "geometry": {"type": "Point", "coordinates": [-121.89673620438809, 37.44749629993789]}, "properties": {"type": "Inlet", "subtype": "Not Available", "material": "Not Available", "owner": "City", "owner_id": "3358", "install_da": "Not Available", "other": "Not Available", "source_dat": "Not Available", "load_date": "2022-06-22"}}]}