{"type": "FeatureCollection", "features": [{"type": "Feature", "geometry": {"type": "Point", "coordinates": [-121.89728380480892, 37.44742849980984]}, "properties": {"type": "Hydrant", "subtype": "Not Available", "material": "Not Available", "owner": "City", "owner_id": "41080", "install_da": "01/01/1980", "other": "Not Available", "source_dat": "Not Available", "load_date": "2022-06-22"}}, {"type": "Feature", "geometry": {"type": "Point", "coordinates": [-121.8982950050866, 37.447268599753684]}, "properties": {"type": "Hydrant", "subtype": "Not Available", "material": "Not Available", "owner": "City", "owner_id": "41081", "install_da": "01/01/1980", "other": "Not Available", "source_dat": "Not Available", "load_date": "2022-06-22"}}, {"type": "Feature", "geometry": {"type": "Point", "coordinates": [-121.89950190514561, 37.447074900039645]}, "properties": {"type": "Hydrant", "subtype": "Not Available", "material": "Not Available", "owner": "City", "owner_id": "41082", "install_da": "01/01/1987", "other": "Not Available", "source_dat": "Not Available", "load_date": "2022-06-22"}}, {"type": "Feature", "geometry": {"type": "Point", "coordinates": [-121.89301640476391, 37.44681680033569]}, "properties": {"type": "Hydrant", "subtype": "Not Available", "material": "Not Available", "owner": "City", "owner_id": "41099", "install_da": "Not Available", "other": "Not Available", "source_dat": "Not Available", "load_date": "2022-06-22"}}, {"type": "Feature", "geometry": {"type": "Point", "coordinates": [-121.89355710522504, 37.44731970011339]}, "properties": {"type": "Hydrant", "subtype": "Not Available", "material": "Not Available", "owner": "City", "owner_id": "41118", "install_da": "01/01/1995", "other": "Not Available", "source_dat": "Not Available", "load_date": "2022-06-22"}}, {"type": "Feature", "geometry": {"type": "Point", "coordinates": [-121.90104990450115, 37.44705340032323]}, "properties": {"type": "Hydrant", "subtype": "Not Available", "material": "Not Available", "owner": "City", "owner_id": "41186", "install_da": "01/01/1988", "other": "Not Available", "source_dat": "Not Available", "load_date": "2022-06-22"}}, {"type": "Feature", "geometry": {"type": "Point", "coordinates": [-121.90049090445939, 37.4466594001303]}, "properties": {"type": "Hydrant", "subtype": "Not Available", "material": "Not Available", "owner": "City", "owner_id": "41188", "install_da": "01/01/1988", "other": "Not Available", "source_dat": "Not Available", "load_date": "2022-06-22"}}, {"type": "Feature", "geometry": {"type": "Point", "coordinates": [-121.89288110500742, 37.44774240018608]}, "properties": {"type": "Hydrant", "subtype": "Not Available", "material": "Not Available", "owner": "City", "owner_id": "41278", "install_da": "Not Available", "other": "Not Available", "source_dat": "Not Available", "load_date": "2022-06-22"}}, {"type": "Feature", "geometry": {"type": "Point", "coordinates": [-121.89378280514354, 37.44798799968723]}, "properties": {"type": "Hydrant", "subtype": "Not Available", "material": "Not Available", "owner": "City", "owner_id": "41279", "install_da": "01/01/1995", "other": "Not Available", "source_dat": "Not Available", "load_date": "2022-06-22"}}, {"type": "Feature", "geometry": {"type": "Point", "coordinates": [-121.89570940486549, 37.44767370024722]}, "properties": {"type": "Hydrant", "subtype": "Not Available", "material": "Not Available", "owner": "City", "owner_id": "41311", "install_da": "01/01/1980", "other": "Not Available", "source_dat": "Not Available", "load_date": "2022-06-22"}}, {"type": "Feature", "geometry": {"type": "Point", "coordinates": [-121.89482970447064, 37.4474925999482]}, "properties": {"type": "Hydrant", "subtype": "Not Available", "material": "Not Available", "owner": "City", "owner_id": "41312", "install_da": "01/01/1980", "other": "Not Available", "source_dat": "Not Available", "load_date": "2022-06-22"}}, {"type": "Feature", "geometry": {"type": "Point", "coordinates": [-121.89676200490138, 37.44751000016769]}, "properties": {"type": "Meter", "subtype": "Meter", "material": "Not Available", "owner": "City", "owner_id": "19200", "install_da": "01/01/1980", "other": "Not Available", "source_dat": "Not Available", "load_date": "2022-06-22"}}, {"type": "Feature", "geometry": {"type": "Point", "coordinates": [-121.89697410522481, 37.44747310011559]}, "properties": {"type": "Meter", "subtype": "Meter", "material": "Not Available", "owner": "City", "owner_id": "19201", "install_da": "01/01/1980", "other": "Not Available", "source_dat": "Not Available", "load_date": "2022-06-22"}}, {"type": "Feature", "geometry": {"type": "Point", "coordinates": [-121.8971644052329, 37.447446200294124]}, "properties": {"type": "Meter", "subtype": "Meter", "material": "Not Available", "owner": "City", "owner_id": "19538", "install_da": "01/01/1980", "other": "Not Available", "source_dat": "Not Available", "load_date": "2022-06-22"}}, {"type": "Feature", "geometry": {"type": "Point", "coordinates": [-121.89738840464058, 37.44739970005243]}, "properties": {"type": "Meter", "subtype": "Meter", "material": "Not Available", "owner": "City", "owner_id": "19539", "install_da": "01/01/1980", "other": "Not Available", "source_dat": "Not Available", "load_date": "2022-06-22"}}, {"type": "Feature", "geometry": {"type": "Point", "coordinates": [-121.89757020478947, 37.447382299807295]}, "properties": {"type": "Meter", "subtype": "Meter", "material": "Not Available", "owner": "City", "owner_id": "19540", "install_da": "01/01/1980", "other": "Not Available", "source_dat": "Not Available", "load_date": "2022-06-22"}}, {"type": "Feature", "geometry": {"type": "Point", "coordinates": [-121.89782070449806, 37.44734069981152]}, "properties": {"type": "Meter", "subtype": "Meter", "material": "Not Available", "owner": "City", "owner_id": "19541", "install_da": "01/01/1980", "other": "Not Available", "source_dat": "Not Available", "load_date": "2022-06-22"}}, {"type": "Feature", "geometry": {"type": "Point", "coordinates": [-121.89797830493151, 37.447320299901065]}, "properties": {"type": "Meter", "subtype": "Meter", "material": "Not Available", "owner": "City", "owner_id": "19542", "install_da": "01/01/1980", "other": "Not Available", "source_dat": "Not Available", "load_date": "2022-06-22"}}, {"type": "Feature", "geometry": {"type": "Point", "coordinates": [-121.89820470463762, 37.4472817002372]}, "properties": {"type": "Meter", "subtype": "Meter", "material": "Not Available", "owner": "City", "owner_id": "19543", "install_da": "01/01/1980", "other": "Not Available", "source_dat": "Not Available", "load_date": "2022-06-22"}}, {"type": "Feature", "geometry": {"type": "Point", "coordinates": [-121.89838480517398, 37.4472528997101]}, "properties": {"type": "Meter", "subtype": "Meter", "material": "Not Available", "owner": "City", "owner_id": "19544", "install_da": "01/01/1980", "other": "Not Available", "source_dat": "Not Available", "load_date": "2022-06-22"}}, {"type": "Feature", "geometry": {"type": "Point", "coordinates": [-121.89861650494028, 37.44721899990009]}, "properties": {"type": "Meter", "subtype": "Meter", "material": "Not Available", "owner": "City", "owner_id": "19545", "install_da": "01/01/1980", "other": "Not Available", "source_dat": "Not Available", "load_date": "2022-06-22"}}, {"type": "Feature", "geometry": {"type": "Point", "coordinates": [-121.89898110506299, 37.44715789989858]}, "properties": {"type": "Meter", "subtype": "Meter", "material": "Not Available", "owner": "City", "owner_id": "19546", "install_da": "01/01/1980", "other": "Not Available", "source_dat": "Not Available", "load_date": "2022-06-22"}}, {"type": "Feature", "geometry": {"type": "Point", "coordinates": [-121.89921240507898, 37.44712329969706]}, "properties": {"type": "Meter", "subtype": "Meter", "material": "Not Available", "owner": "City", "owner_id": "19547", "install_da": "01/01/1980", "other": "Not Available", "source_dat": "Not Available", "load_date": "2022-06-22"}}, {"type": "Feature", "geometry": {"type": "Point", "coordinates": [-121.89938600450765, 37.44709449982216]}, "properties": {"type": "Meter", "subtype": "Meter", "material": "Not Available", "owner": "City", "owner_id": "19548", "install_da": "01/01/1980", "other": "Not Available", "source_dat": "Not Available", "load_date": "2022-06-22"}}, {"type": "Feature", "geometry": {"type": "Point", "coordinates": [-121.89963150509166, 37.4470527998202]}, "properties": {"type": "Meter", "subtype": "Meter", "material": "Not Available", "owner": "City", "owner_id": "19549", "install_da": "01/01/1980", "other": "Not Available", "source_dat": "Not Available", "load_date": "2022-06-22"}}, {"type": "Feature", "geometry": {"type": "Point", "coordinates": [-121.89964820477279, 37.44704460031476]}, "properties": {"type": "Meter", "subtype": "Meter", "material": "Not Available", "owner": "City", "owner_id": "19550", "install_da": "01/01/1980", "other": "Not Available", "source_dat": "Not Available", "load_date": "2022-06-22"}}, {"type": "Feature", "geometry": {"type": "Point", "coordinates": [-121.89963070469274, 37.446821600095696]}, "properties": {"type": "Meter", "subtype": "Meter", "material": "Not Available", "owner": "City", "owner_id": "19551", "install_da": "01/01/1980", "other": "Not Available", "source_dat": "Not Available", "load_date": "2022-06-22"}}, {"type": "Feature", "geometry": {"type": "Point", "coordinates": [-121.8994240050408, 37.446879899682116]}, "properties": {"type": "Meter", "subtype": "Meter", "material": "Not Available", "owner": "City", "owner_id": "19552", "install_da": "01/01/1980", "other": "Not Available", "source_dat": "Not Available", "load_date": "2022-06-22"}}, {"type": "Feature", "geometry": {"type": "Point", "coordinates": [-121.89896340465863, 37.44702539990374]}, "properties": {"type": "Meter", "subtype": "Meter", "material": "Not Available", "owner": "City", "owner_id": "19553", "install_da": "01/01/1980", "other": "Not Available", "source_dat": "Not Available", "load_date": "2022-06-22"}}, {"type": "Feature", "geometry": {"type": "Point", "coordinates": [-121.89872560443324, 37.447062400022816]}, "properties": {"type": "Meter", "subtype": "Meter", "material": "Not Available", "owner": "City", "owner_id": "19554", "install_da": "01/01/1980", "other": "Not Available", "source_dat": "Not Available", "load_date": "2022-06-22"}}, {"type": "Feature", "geometry": {"type": "Point", "coordinates": [-121.89854820513092, 37.44709039971525]}, "properties": {"type": "Meter", "subtype": "Meter", "material": "Not Available", "owner": "City", "owner_id": "19555", "install_da": "01/01/1980", "other": "Not Available", "source_dat": "Not Available", "load_date": "2022-06-22"}}, {"type": "Feature", "geometry": {"type": "Point", "coordinates": [-121.89831970516366, 37.44712749964817]}, "properties": {"type": "Meter", "subtype": "Meter", "material": "Not Available", "owner": "City", "owner_id": "19556", "install_da": "01/01/1980", "other": "Not Available", "source_dat": "Not Available", "load_date": "2022-06-22"}}, {"type": "Feature", "geometry": {"type": "Point", "coordinates": [-121.89786600474119, 37.447075700234635]}, "properties": {"type": "Meter", "subtype": "Meter", "material": "Not Available", "owner": "City", "owner_id": "19557", "install_da": "01/01/1980", "other": "Not Available", "source_dat": "Not Available", "load_date": "2022-06-22"}}, {"type": "Feature", "geometry": {"type": "Point", "coordinates": [-121.89784690476164, 37.44689950022893]}, "properties": {"type": "Meter", "subtype": "Meter", "material": "Not Available", "owner": "City", "owner_id": "19558", "install_da": "01/01/1980", "other": "Not Available", "source_dat": "Not Available", "load_date": "2022-06-22"}}, {"type": "Feature", "geometry": {"type": "Point", "coordinates": [-121.89768830450326, 37.44692230013076]}, "properties": {"type": "Meter", "subtype": "Meter", "material": "Not Available", "owner": "City", "owner_id": "19559", "install_da": "01/01/1980", "other": "Not Available", "source_dat": "Not Available", "load_date": "2022-06-22"}}, {"type": "Feature", "geometry": {"type": "Point", "coordinates": [-121.89770750509415, 37.44713119965582]}, "properties": {"type": "Meter", "subtype": "Meter", "material": "Not Available", "owner": "City", "owner_id": "19560", "install_da": "01/01/1980", "other": "Not Available", "source_dat": "Not Available", "load_date": "2022-06-22"}}, {"type": "Feature", "geometry": {"type": "Point", "coordinates": [-121.89731170468501, 37.44728569977464]}, "properties": {"type": "Meter", "subtype": "Meter", "material": "Not Available", "owner": "City", "owner_id": "19561", "install_da": "01/01/1980", "other": "Not Available", "source_dat": "Not Available", "load_date": "2022-06-22"}}, {"type": "Feature", "geometry": {"type": "Point", "coordinates": [-121.89707240517139, 37.447327699897194]}, "properties": {"type": "Meter", "subtype": "Meter", "material": "Not Available", "owner": "City", "owner_id": "19562", "install_da": "01/01/1980", "other": "Not Available", "source_dat": "Not Available", "load_date": "2022-06-22"}}, {"type": "Feature", "geometry": {"type": "Point", "coordinates": [-121.89677710468301, 37.44727710019834]}, "properties": {"type": "Meter", "subtype": "Meter", "material": "Not Available", "owner": "City", "owner_id": "19563", "install_da": "01/01/1980", "other": "Not Available", "source_dat": "Not Available", "load_date": "2022-06-22"}}, {"type": "Feature", "geometry": {"type": "Point", "coordinates": [-121.89666330520447, 37.44712440014272]}, "properties": {"type": "Meter", "subtype": "Meter", "material": "Not Available", "owner": "City", "owner_id": "19564", "install_da": "01/01/1980", "other": "Not Available", "source_dat": "Not Available", "load_date": "2022-06-22"}}, {"type": "Feature", "geometry": {"type": "Point", "coordinates": [-121.89663790444149, 37.44695069997381]}, "properties": {"type": "Meter", "subtype": "Meter", "material": "Not Available", "owner": "City", "owner_id": "19565", "install_da": "01/01/1980", "other": "Not Available", "source_dat": "Not Available", "load_date": "2022-06-22"}}, {"type": "Feature", "geometry": {"type": "Point", "coordinates": [-121.89689240524635, 37.4469613999244]}, "properties": {"type": "Meter", "subtype": "Meter", "material": "Not Available", "owner": "City", "owner_id": "19566", "install_da": "01/01/1980", "other": "Not Available", "source_dat": "Not Available", "load_date": "2022-06-22"}}, {"type": "Feature", "geometry": {"type": "Point", "coordinates": [-121.89602900478232, 37.44690949983639]}, "properties": {"type": "Meter", "subtype": "Meter", "material": "Not Available", "owner": "City", "owner_id": "19567", "install_da": "Not Available", "other": "Not Available", "source_dat": "Not Available", "load_date": "2022-06-22"}}, {"type": "Feature", "geometry": {"type": "Point", "coordinates": [-121.89598700494955, 37.44676939965805]}, "properties": {"type": "Meter", "subtype": "Meter", "material": "Not Available", "owner": "City", "owner_id": "19568", "install_da": "Not Available", "other": "Not Available", "source_dat": "Not Available", "load_date": "2022-06-22"}}, {"type": "Feature", "geometry": {"type": "Point", "coordinates": [-121.89510680509142, 37.44721920030503]}, "properties": {"type": "Meter", "subtype": "Meter", "material": "Not Available", "owner": "City", "owner_id": "19640", "install_da": "01/01/1980", "other": "Not Available", "source_dat": "Not Available", "load_date": "2022-06-22"}}, {"type": "Feature", "geometry": {"type": "Point", "coordinates": [-121.89513990441635, 37.44706109988402]}, "properties": {"type": "Meter", "subtype": "Meter", "material": "Not Available", "owner": "City", "owner_id": "19641", "install_da": "01/01/1980", "other": "Not Available", "source_dat": "Not Available", "load_date": "2022-06-22"}}, {"type": "Feature", "geometry": {"type": "Point", "coordinates": [-121.89485890510728, 37.44707879974204]}, "properties": {"type": "Meter", "subtype": "Meter", "material": "Not Available", "owner": "City", "owner_id": "19642", "install_da": "01/01/1980", "other": "Not Available", "source_dat": "Not Available", "load_date": "2022-06-22"}}, {"type": "Feature", "geometry": {"type": "Point", "coordinates": [-121.89488370489732, 37.447238700203904]}, "properties": {"type": "Meter", "subtype": "Meter", "material": "Not Available", "owner": "City", "owner_id": "19643", "install_da": "01/01/1980", "other": "Not Available", "source_dat": "Not Available", "load_date": "2022-06-22"}}, {"type": "Feature", "geometry": {"type": "Point", "coordinates": [-121.89482710474623, 37.44740050024394]}, "properties": {"type": "Meter", "subtype": "Meter", "material": "Not Available", "owner": "City", "owner_id": "19644", "install_da": "01/01/1980", "other": "Not Available", "source_dat": "Not Available", "load_date": "2022-06-22"}}, {"type": "Feature", "geometry": {"type": "Point", "coordinates": [-121.89303820507925, 37.4468156998855]}, "properties": {"type": "Meter", "subtype": "Meter", "material": "Not Available", "owner": "City", "owner_id": "19645", "install_da": "Not Available", "other": "Not Available", "source_dat": "Not Available", "load_date": "2022-06-22"}}, {"type": "Feature", "geometry": {"type": "Point", "coordinates": [-121.89303180458285, 37.44681550019267]}, "properties": {"type": "Meter", "subtype": "Meter", "material": "Not Available", "owner": "City", "owner_id": "19646", "install_da": "Not Available", "other": "Not Available", "source_dat": "Not Available", "load_date": "2022-06-22"}}, {"type": "Feature", "geometry": {"type": "Point", "coordinates": [-121.89302630509667, 37.4468156998855]}, "properties": {"type": "Meter", "subtype": "Meter", "material": "Not Available", "owner": "City", "owner_id": "19647", "install_da": "Not Available", "other": "Not Available", "source_dat": "Not Available", "load_date": "2022-06-22"}}, {"type": "Feature", "geometry": {"type": "Point", "coordinates": [-121.89311720472195, 37.44692769967485]}, "properties": {"type": "Meter", "subtype": "Meter", "material": "Not Available", "owner": "City", "owner_id": "19648", "install_da": "Not Available", "other": "Not Available", "source_dat": "Not Available", "load_date": "2022-06-22"}}, {"type": "Feature", "geometry": {"type": "Point", "coordinates": [-121.89415610455144, 37.44675449970811]}, "properties": {"type": "Meter", "subtype": "Meter", "material": "Not Available", "owner": "City", "owner_id": "19649", "install_da": "01/01/1980", "other": "Not Available", "source_dat": "Not Available", "load_date": "2022-06-22"}}, {"type": "Feature", "geometry": {"type": "Point", "coordinates": [-121.89339180443298, 37.447330400011275]}, "properties": {"type": "Meter", "subtype": "Meter", "material": "Not Available", "owner": "City", "owner_id": "19658", "install_da": "01/01/1995", "other": "Not Available", "source_dat": "Not Available", "load_date": "2022-06-22"}}, {"type": "Feature", "geometry": {"type": "Point", "coordinates": [-121.89371210503575, 37.44728630027583]}, "properties": {"type": "Meter", "subtype": "Meter", "material": "Not Available", "owner": "City", "owner_id": "19659", "install_da": "01/01/1995", "other": "Not Available", "source_dat": "Not Available", "load_date": "2022-06-22"}}, {"type": "Feature", "geometry": {"type": "Point", "coordinates": [-121.89373440481435, 37.4472809000444]}, "properties": {"type": "Meter", "subtype": "Meter", "material": "Not Available", "owner": "City", "owner_id": "19660", "install_da": "01/01/1995", "other": "Not Available", "source_dat": "Not Available", "load_date": "2022-06-22"}}, {"type": "Feature", "geometry": {"type": "Point", "coordinates": [-121.89369780475474, 37.447525300062225]}, "properties": {"type": "Meter", "subtype": "Meter", "material": "Not Available", "owner": "City", "owner_id": "19661", "install_da": "01/01/1995", "other": "Not Available", "source_dat": "Not Available", "load_date": "2022-06-22"}}, {"type": "Feature", "geometry": {"type": "Point", "coordinates": [-121.89368320443641, 37.44751889996687]}, "properties": {"type": "Meter", "subtype": "Meter", "material": "Not Available", "owner": "City", "owner_id": "19662", "install_da": "01/01/1995", "other": "Not Available", "source_dat": "Not Available", "load_date": "2022-06-22"}}, {"type": "Feature", "geometry": {"type": "Point", "coordinates": [-121.8932531045531, 37.447468699779535]}, "properties": {"type": "Meter", "subtype": "Meter", "material": "Not Available", "owner": "City", "owner_id": "19663", "install_da": "01/01/1995", "other": "Not Available", "source_dat": "Not Available", "load_date": "2022-06-22"}}, {"type": "Feature", "geometry": {"type": "Point", "coordinates": [-121.89323320507292, 37.44747089994755]}, "properties": {"type": "Meter", "subtype": "Meter", "material": "Not Available", "owner": "City", "owner_id": "19664", "install_da": "01/01/1995", "other": "Not Available", "source_dat": "Not Available", "load_date": "2022-06-22"}}, {"type": "Feature", "geometry": {"type": "Point", "coordinates": [-121.89395210523526, 37.44735940019991]}, "properties": {"type": "Meter", "subtype": "Meter", "material": "Not Available", "owner": "City", "owner_id": "19665", "install_da": "Not Available", "other": "Not Available", "source_dat": "Not Available", "load_date": "2022-06-22"}}, {"type": "Feature", "geometry": {"type": "Point", "coordinates": [-121.89413990523192, 37.447189799965116]}, "properties": {"type": "Meter", "subtype": "Meter", "material": "Not Available", "owner": "City", "owner_id": "19666", "install_da": "01/01/1995", "other": "Not Available", "source_dat": "Not Available", "load_date": "2022-06-22"}}, {"type": "Feature", "geometry": {"type": "Point", "coordinates": [-121.89414180516876, 37.447215899685226]}, "properties": {"type": "Meter", "subtype": "Meter", "material": "Not Available", "owner": "City", "owner_id": "19667", "install_da": "01/01/1995", "other": "Not Available", "source_dat": "Not Available", "load_date": "2022-06-22"}}, {"type": "Feature", "geometry": {"type": "Point", "coordinates": [-121.89270110508232, 37.4474571997106]}, "properties": {"type": "Meter", "subtype": "Meter", "material": "Not Available", "owner": "City", "owner_id": "19724", "install_da": "01/01/1995", "other": "Not Available", "source_dat": "Not Available", "load_date": "2022-06-22"}}, {"type": "Feature", "geometry": {"type": "Point", "coordinates": [-121.8927060044939, 37.44743589979527]}, "properties": {"type": "Meter", "subtype": "Meter", "material": "Not Available", "owner": "City", "owner_id": "19725", "install_da": "01/01/1995", "other": "Not Available", "source_dat": "Not Available", "load_date": "2022-06-22"}}, {"type": "Feature", "geometry": {"type": "Point", "coordinates": [-121.89285200498209, 37.4473539001281]}, "properties": {"type": "Meter", "subtype": "Meter", "material": "Not Available", "owner": "City", "owner_id": "19726", "install_da": "01/01/1995", "other": "Not Available", "source_dat": "Not Available", "load_date": "2022-06-22"}}, {"type": "Feature", "geometry": {"type": "Point", "coordinates": [-121.89302290497332, 37.4473493999394]}, "properties": {"type": "Meter", "subtype": "Meter", "material": "Not Available", "owner": "City", "owner_id": "19727", "install_da": "01/01/1995", "other": "Not Available", "source_dat": "Not Available", "load_date": "2022-06-22"}}, {"type": "Feature", "geometry": {"type": "Point", "coordinates": [-121.89303900457985, 37.44735089976459]}, "properties": {"type": "Meter", "subtype": "Meter", "material": "Not Available", "owner": "City", "owner_id": "19728", "install_da": "01/01/1995", "other": "Not Available", "source_dat": "Not Available", "load_date": "2022-06-22"}}, {"type": "Feature", "geometry": {"type": "Point", "coordinates": [-121.89337220499011, 37.44733329981667]}, "properties": {"type": "Meter", "subtype": "Meter", "material": "Not Available", "owner": "City", "owner_id": "19729", "install_da": "01/01/1995", "other": "Not Available", "source_dat": "Not Available", "load_date": "2022-06-22"}}, {"type": "Feature", "geometry": {"type": "Point", "coordinates": [-121.89971990470549, 37.44690230020475]}, "properties": {"type": "Meter", "subtype": "Meter", "material": "Not Available", "owner": "City", "owner_id": "20559", "install_da": "01/01/1980", "other": "Not Available", "source_dat": "Not Available", "load_date": "2022-06-22"}}, {"type": "Feature", "geometry": {"type": "Point", "coordinates": [-121.90137590491439, 37.44727279969665]}, "properties": {"type": "Meter", "subtype": "Meter", "material": "Not Available", "owner": "City", "owner_id": "20560", "install_da": "01/01/1988", "other": "Not Available", "source_dat": "Not Available", "load_date": "2022-06-22"}}, {"type": "Feature", "geometry": {"type": "Point", "coordinates": [-121.90137350461595, 37.4472657997916]}, "properties": {"type": "Meter", "subtype": "Meter", "material": "Not Available", "owner": "City", "owner_id": "20561", "install_da": "01/01/1988", "other": "Not Available", "source_dat": "Not Available", "load_date": "2022-06-22"}}, {"type": "Feature", "geometry": {"type": "Point", "coordinates": [-121.90136920438069, 37.447090799812614]}, "properties": {"type": "Meter", "subtype": "Meter", "material": "Not Available", "owner": "City", "owner_id": "20562", "install_da": "01/01/1988", "other": "Not Available", "source_dat": "Not Available", "load_date": "2022-06-22"}}, {"type": "Feature", "geometry": {"type": "Point", "coordinates": [-121.90137000477961, 37.4469934997671]}, "properties": {"type": "Meter", "subtype": "Meter", "material": "Not Available", "owner": "City", "owner_id": "20563", "install_da": "01/01/1988", "other": "Not Available", "source_dat": "Not Available", "load_date": "2022-06-22"}}, {"type": "Feature", "geometry": {"type": "Point", "coordinates": [-121.9013570043608, 37.44697779966581]}, "properties": {"type": "Meter", "subtype": "Meter", "material": "Not Available", "owner": "City", "owner_id": "20564", "install_da": "01/01/1988", "other": "Not Available", "source_dat": "Not Available", "load_date": "2022-06-22"}}, {"type": "Feature", "geometry": {"type": "Point", "coordinates": [-121.90122320479081, 37.44690090021684]}, "properties": {"type": "Meter", "subtype": "Meter", "material": "Not Available", "owner": "City", "owner_id": "20565", "install_da": "01/01/1988", "other": "Not Available", "source_dat": "Not Available", "load_date": "2022-06-22"}}, {"type": "Feature", "geometry": {"type": "Point", "coordinates": [-121.90121190488286, 37.44689889972466]}, "properties": {"type": "Meter", "subtype": "Meter", "material": "Not Available", "owner": "City", "owner_id": "20566", "install_da": "01/01/1988", "other": "Not Available", "source_dat": "Not Available", "load_date": "2022-06-22"}}, {"type": "Feature", "geometry": {"type": "Point", "coordinates": [-121.90096730441078, 37.446929399914275]}, "properties": {"type": "Meter", "subtype": "Meter", "material": "Not Available", "owner": "City", "owner_id": "20567", "install_da": "01/01/1988", "other": "Not Available", "source_dat": "Not Available", "load_date": "2022-06-22"}}, {"type": "Feature", "geometry": {"type": "Point", "coordinates": [-121.90082060503327, 37.44693800024375]}, "properties": {"type": "Meter", "subtype": "Meter", "material": "Not Available", "owner": "City", "owner_id": "20568", "install_da": "01/01/1988", "other": "Not Available", "source_dat": "Not Available", "load_date": "2022-06-22"}}, {"type": "Feature", "geometry": {"type": "Point", "coordinates": [-121.9008154046861, 37.44693829978249]}, "properties": {"type": "Meter", "subtype": "Meter", "material": "Not Available", "owner": "City", "owner_id": "20569", "install_da": "01/01/1988", "other": "Not Available", "source_dat": "Not Available", "load_date": "2022-06-22"}}, {"type": "Feature", "geometry": {"type": "Point", "coordinates": [-121.90055880451847, 37.446945900222076]}, "properties": {"type": "Meter", "subtype": "Meter", "material": "Not Available", "owner": "City", "owner_id": "20570", "install_da": "01/01/1988", "other": "Not Available", "source_dat": "Not Available", "load_date": "2022-06-22"}}, {"type": "Feature", "geometry": {"type": "Point", "coordinates": [-121.90038160464213, 37.447162400098854]}, "properties": {"type": "Meter", "subtype": "Meter", "material": "Not Available", "owner": "City", "owner_id": "20571", "install_da": "01/01/1988", "other": "Not Available", "source_dat": "Not Available", "load_date": "2022-06-22"}}, {"type": "Feature", "geometry": {"type": "Point", "coordinates": [-121.90039170440086, 37.44716520006482]}, "properties": {"type": "Meter", "subtype": "Meter", "material": "Not Available", "owner": "City", "owner_id": "20572", "install_da": "01/01/1988", "other": "Not Available", "source_dat": "Not Available", "load_date": "2022-06-22"}}, {"type": "Feature", "geometry": {"type": "Point", "coordinates": [-121.9005260052308, 37.44715920003572]}, "properties": {"type": "Meter", "subtype": "Meter", "material": "Not Available", "owner": "City", "owner_id": "20573", "install_da": "01/01/1988", "other": "Not Available", "source_dat": "Not Available", "load_date": "2022-06-22"}}, {"type": "Feature", "geometry": {"type": "Point", "coordinates": [-121.9007797047384, 37.447074499942126]}, "properties": {"type": "Meter", "subtype": "Meter", "material": "Not Available", "owner": "City", "owner_id": "20574", "install_da": "01/01/1988", "other": "Not Available", "source_dat": "Not Available", "load_date": "2022-06-22"}}, {"type": "Feature", "geometry": {"type": "Point", "coordinates": [-121.90077310481601, 37.44707530013711]}, "properties": {"type": "Meter", "subtype": "Meter", "material": "Not Available", "owner": "City", "owner_id": "20575", "install_da": "01/01/1988", "other": "Not Available", "source_dat": "Not Available", "load_date": "2022-06-22"}}, {"type": "Feature", "geometry": {"type": "Point", "coordinates": [-121.90100880478026, 37.44706259971498]}, "properties": {"type": "Meter", "subtype": "Meter", "material": "Not Available", "owner": "City", "owner_id": "20576", "install_da": "01/01/1988", "other": "Not Available", "source_dat": "Not Available", "load_date": "2022-06-22"}}, {"type": "Feature", "geometry": {"type": "Point", "coordinates": [-121.90115980439302, 37.44706420010522]}, "properties": {"type": "Meter", "subtype": "Meter", "material": "Not Available", "owner": "City", "owner_id": "20577", "install_da": "01/01/1988", "other": "Not Available", "source_dat": "Not Available", "load_date": "2022-06-22"}}, {"type": "Feature", "geometry": {"type": "Point", "coordinates": [-121.9003509047173, 37.44677610007011]}, "properties": {"type": "Meter", "subtype": "Meter", "material": "Not Available", "owner": "City", "owner_id": "20578", "install_da": "01/01/1981", "other": "Not Available", "source_dat": "Not Available", "load_date": "2022-06-22"}}, {"type": "Feature", "geometry": {"type": "Point", "coordinates": [-121.8961676049492, 37.447467399647834]}, "properties": {"type": "Meter", "subtype": "Meter", "material": "Not Available", "owner": "City", "owner_id": "21094", "install_da": "01/01/1980", "other": "Not Available", "source_dat": "Not Available", "load_date": "2022-06-22"}}, {"type": "Feature", "geometry": {"type": "Point", "coordinates": [-121.89596230487248, 37.4474948001156]}, "properties": {"type": "Meter", "subtype": "Meter", "material": "Not Available", "owner": "City", "owner_id": "21095", "install_da": "01/01/1980", "other": "Not Available", "source_dat": "Not Available", "load_date": "2022-06-22"}}, {"type": "Feature", "geometry": {"type": "Point", "coordinates": [-121.89599780449589, 37.447629699846274]}, "properties": {"type": "Meter", "subtype": "Meter", "material": "Not Available", "owner": "City", "owner_id": "21096", "install_da": "01/01/1980", "other": "Not Available", "source_dat": "Not Available", "load_date": "2022-06-22"}}, {"type": "Feature", "geometry": {"type": "Point", "coordinates": [-121.89621320522966, 37.447585200192535]}, "properties": {"type": "Meter", "subtype": "Meter", "material": "Not Available", "owner": "City", "owner_id": "21097", "install_da": "01/01/1980", "other": "Not Available", "source_dat": "Not Available", "load_date": "2022-06-22"}}, {"type": "Feature", "geometry": {"type": "Point", "coordinates": [-121.89577710460024, 37.44752840026419]}, "properties": {"type": "Meter", "subtype": "Meter", "material": "Not Available", "owner": "City", "owner_id": "21112", "install_da": "01/01/1980", "other": "Not Available", "source_dat": "Not Available", "load_date": "2022-06-22"}}, {"type": "Feature", "geometry": {"type": "Point", "coordinates": [-121.89551080442416, 37.44757019984649]}, "properties": {"type": "Meter", "subtype": "Meter", "material": "Not Available", "owner": "City", "owner_id": "21113", "install_da": "01/01/1980", "other": "Not Available", "source_dat": "Not Available", "load_date": "2022-06-22"}}, {"type": "Feature", "geometry": {"type": "Point", "coordinates": [-121.89537680452983, 37.44759199966371]}, "properties": {"type": "Meter", "subtype": "Meter", "material": "Not Available", "owner": "City", "owner_id": "21114", "install_da": "01/01/1980", "other": "Not Available", "source_dat": "Not Available", "load_date": "2022-06-22"}}, {"type": "Feature", "geometry": {"type": "Point", "coordinates": [-121.89516760486646, 37.44762869996657]}, "properties": {"type": "Meter", "subtype": "Meter", "material": "Not Available", "owner": "City", "owner_id": "21115", "install_da": "01/01/1980", "other": "Not Available", "source_dat": "Not Available", "load_date": "2022-06-22"}}, {"type": "Feature", "geometry": {"type": "Point", "coordinates": [-121.89484650476308, 37.447568899716494]}, "properties": {"type": "Meter", "subtype": "Meter", "material": "Not Available", "owner": "City", "owner_id": "21116", "install_da": "01/01/1980", "other": "Not Available", "source_dat": "Not Available", "load_date": "2022-06-22"}}, {"type": "Feature", "geometry": {"type": "Point", "coordinates": [-121.89427750467559, 37.44785250010601]}, "properties": {"type": "Meter", "subtype": "Meter", "material": "Not Available", "owner": "City", "owner_id": "21117", "install_da": "01/01/1980", "other": "Not Available", "source_dat": "Not Available", "load_date": "2022-06-22"}}, {"type": "Feature", "geometry": {"type": "Point", "coordinates": [-121.89437690505841, 37.44786419980429]}, "properties": {"type": "Meter", "subtype": "Meter", "material": "Not Available", "owner": "City", "owner_id": "21118", "install_da": "01/01/1980", "other": "Not Available", "source_dat": "Not Available", "load_date": "2022-06-22"}}, {"type": "Feature", "geometry": {"type": "Point", "coordinates": [-121.89459720520377, 37.44784560010023]}, "properties": {"type": "Meter", "subtype": "Meter", "material": "Not Available", "owner": "City", "owner_id": "21119", "install_da": "01/01/1980", "other": "Not Available", "source_dat": "Not Available", "load_date": "2022-06-22"}}, {"type": "Feature", "geometry": {"type": "Point", "coordinates": [-121.89478110471546, 37.44782080001224]}, "properties": {"type": "Meter", "subtype": "Meter", "material": "Not Available", "owner": "City", "owner_id": "21120", "install_da": "01/01/1980", "other": "Not Available", "source_dat": "Not Available", "load_date": "2022-06-22"}}, {"type": "Feature", "geometry": {"type": "Point", "coordinates": [-121.89501710471703, 37.44778259998711]}, "properties": {"type": "Meter", "subtype": "Meter", "material": "Not Available", "owner": "City", "owner_id": "21121", "install_da": "01/01/1980", "other": "Not Available", "source_dat": "Not Available", "load_date": "2022-06-22"}}, {"type": "Feature", "geometry": {"type": "Point", "coordinates": [-121.89518500523351, 37.44775670015504]}, "properties": {"type": "Meter", "subtype": "Meter", "material": "Not Available", "owner": "City", "owner_id": "21122", "install_da": "01/01/1980", "other": "Not Available", "source_dat": "Not Available", "load_date": "2022-06-22"}}, {"type": "Feature", "geometry": {"type": "Point", "coordinates": [-121.89541290512616, 37.44772300026369]}, "properties": {"type": "Meter", "subtype": "Meter", "material": "Not Available", "owner": "City", "owner_id": "21123", "install_da": "01/01/1980", "other": "Not Available", "source_dat": "Not Available", "load_date": "2022-06-22"}}, {"type": "Feature", "geometry": {"type": "Point", "coordinates": [-121.8955914048647, 37.44769210030344]}, "properties": {"type": "Meter", "subtype": "Meter", "material": "Not Available", "owner": "City", "owner_id": "21124", "install_da": "01/01/1980", "other": "Not Available", "source_dat": "Not Available", "load_date": "2022-06-22"}}, {"type": "Feature", "geometry": {"type": "Point", "coordinates": [-121.89583390507568, 37.44765660031489]}, "properties": {"type": "Meter", "subtype": "Meter", "material": "Not Available", "owner": "City", "owner_id": "21125", "install_da": "01/01/1980", "other": "Not Available", "source_dat": "Not Available", "load_date": "2022-06-22"}}, {"type": "Feature", "geometry": {"type": "Point", "coordinates": [-121.89329360509765, 37.44809309987817]}, "properties": {"type": "Meter", "subtype": "Meter", "material": "Not Available", "owner": "City", "owner_id": "21355", "install_da": "01/01/1995", "other": "Not Available", "source_dat": "Not Available", "load_date": "2022-06-22"}}, {"type": "Feature", "geometry": {"type": "Point", "coordinates": [-121.89303130511954, 37.44811900030699]}, "properties": {"type": "Meter", "subtype": "Meter", "material": "Not Available", "owner": "City", "owner_id": "21356", "install_da": "01/01/1995", "other": "Not Available", "source_dat": "Not Available", "load_date": "2022-06-22"}}, {"type": "Feature", "geometry": {"type": "Point", "coordinates": [-121.89291100453333, 37.4481609999617]}, "properties": {"type": "Meter", "subtype": "Meter", "material": "Not Available", "owner": "City", "owner_id": "21357", "install_da": "01/01/1995", "other": "Not Available", "source_dat": "Not Available", "load_date": "2022-06-22"}}, {"type": "Feature", "geometry": {"type": "Point", "coordinates": [-121.89289120476614, 37.44815969984196]}, "properties": {"type": "Meter", "subtype": "Meter", "material": "Not Available", "owner": "City", "owner_id": "21358", "install_da": "01/01/1995", "other": "Not Available", "source_dat": "Not Available", "load_date": "2022-06-22"}}, {"type": "Feature", "geometry": {"type": "Point", "coordinates": [-121.89276010463357, 37.44807899966299]}, "properties": {"type": "Meter", "subtype": "Meter", "material": "Not Available", "owner": "City", "owner_id": "21785", "install_da": "01/01/1995", "other": "Not Available", "source_dat": "Not Available", "load_date": "2022-06-22"}}, {"type": "Feature", "geometry": {"type": "Point", "coordinates": [-121.8927544048231, 37.44805810001691]}, "properties": {"type": "Meter", "subtype": "Meter", "material": "Not Available", "owner": "City", "owner_id": "21786", "install_da": "01/01/1995", "other": "Not Available", "source_dat": "Not Available", "load_date": "2022-06-22"}}, {"type": "Feature", "geometry": {"type": "Point", "coordinates": [-121.89272980445904, 37.44781920035135]}, "properties": {"type": "Meter", "subtype": "Meter", "material": "Not Available", "owner": "City", "owner_id": "21787", "install_da": "01/01/1995", "other": "Not Available", "source_dat": "Not Available", "load_date": "2022-06-22"}}, {"type": "Feature", "geometry": {"type": "Point", "coordinates": [-121.89272560483508, 37.44780420005224]}, "properties": {"type": "Meter", "subtype": "Meter", "material": "Not Available", "owner": "City", "owner_id": "21788", "install_da": "01/01/1995", "other": "Not Available", "source_dat": "Not Available", "load_date": "2022-06-22"}}, {"type": "Feature", "geometry": {"type": "Point", "coordinates": [-121.8926989051082, 37.44754640026123]}, "properties": {"type": "Meter", "subtype": "Meter", "material": "Not Available", "owner": "City", "owner_id": "21789", "install_da": "01/01/1995", "other": "Not Available", "source_dat": "Not Available", "load_date": "2022-06-22"}}, {"type": "Feature", "geometry": {"type": "Point", "coordinates": [-121.89293510453577, 37.44748479987313]}, "properties": {"type": "Meter", "subtype": "Meter", "material": "Not Available", "owner": "City", "owner_id": "21790", "install_da": "01/01/1995", "other": "Not Available", "source_dat": "Not Available", "load_date": "2022-06-22"}}, {"type": "Feature", "geometry": {"type": "Point", "coordinates": [-121.89297900520369, 37.447974999885446]}, "properties": {"type": "Meter", "subtype": "Meter", "material": "Not Available", "owner": "City", "owner_id": "21791", "install_da": "01/01/1995", "other": "Not Available", "source_dat": "Not Available", "load_date": "2022-06-22"}}, {"type": "Feature", "geometry": {"type": "Point", "coordinates": [-121.89327760520416, 37.44795830011478]}, "properties": {"type": "Meter", "subtype": "Meter", "material": "Not Available", "owner": "City", "owner_id": "21792", "install_da": "01/01/1995", "other": "Not Available", "source_dat": "Not Available", "load_date": "2022-06-22"}}, {"type": "Feature", "geometry": {"type": "Point", "coordinates": [-121.89340490456475, 37.447965600202885]}, "properties": {"type": "Meter", "subtype": "Meter", "material": "Not Available", "owner": "City", "owner_id": "21793", "install_da": "01/01/1995", "other": "Not Available", "source_dat": "Not Available", "load_date": "2022-06-22"}}, {"type": "Feature", "geometry": {"type": "Point", "coordinates": [-121.89355070472863, 37.447976799945884]}, "properties": {"type": "Meter", "subtype": "Meter", "material": "Not Available", "owner": "City", "owner_id": "21794", "install_da": "01/01/1995", "other": "Not Available", "source_dat": "Not Available", "load_date": "2022-06-22"}}, {"type": "Feature", "geometry": {"type": "Point", "coordinates": [-121.89410670439734, 37.44747360005644]}, "properties": {"type": "Meter", "subtype": "Meter", "material": "Not Available", "owner": "City", "owner_id": "21795", "install_da": "01/01/1995", "other": "Not Available", "source_dat": "Not Available", "load_date": "2022-06-22"}}, {"type": "Feature", "geometry": {"type": "Point", "coordinates": [-121.89410060483657, 37.447505999929085]}, "properties": {"type": "Meter", "subtype": "Meter", "material": "Not Available", "owner": "City", "owner_id": "21796", "install_da": "01/01/1995", "other": "Not Available", "source_dat": "Not Available", "load_date": "2022-06-22"}}, {"type": "Feature", "geometry": {"type": "Point", "coordinates": [-121.8940739051097, 37.44780259967786]}, "properties": {"type": "Meter", "subtype": "Meter", "material": "Not Available", "owner": "City", "owner_id": "21797", "install_da": "01/01/1980", "other": "Not Available", "source_dat": "Not Available", "load_date": "2022-06-22"}}, {"type": "Feature", "geometry": {"type": "Point", "coordinates": [-121.89368920518253, 37.448118100278464]}, "properties": {"type": "Meter", "subtype": "Meter", "material": "Not Available", "owner": "City", "owner_id": "21798", "install_da": "01/01/1980", "other": "Not Available", "source_dat": "Not Available", "load_date": "2022-06-22"}}, {"type": "Feature", "geometry": {"type": "Point", "coordinates": [-121.8930152046147, 37.44678010034777]}, "properties": {"type": "Meter", "subtype": "Meter", "material": "Not Available", "owner": "City", "owner_id": "Not Available", "install_da": "Not Available", "other": "Not Available", "source_dat": "Not Available", "load_date": "2022-06-22"}}, {"type": "Feature", "geometry": {"type": "Point", "coordinates": [-121.90027860470997, 37.44663689968828]}, "properties": {"type": "Valve", "subtype": "Valve", "material": "Not Available", "owner": "City", "owner_id": "3049", "install_da": "01/01/1988", "other": "Not Available", "source_dat": "Not Available", "load_date": "2022-06-22"}}, {"type": "Feature", "geometry": {"type": "Point", "coordinates": [-121.8931125047364, 37.44679880016315]}, "properties": {"type": "Valve", "subtype": "Valve", "material": "Not Available", "owner": "City", "owner_id": "3981", "install_da": "Not Available", "other": "Not Available", "source_dat": "Not Available", "load_date": "2022-06-22"}}, {"type": "Feature", "geometry": {"type": "Point", "coordinates": [-121.8930982044554, 37.446798300217715]}, "properties": {"type": "Valve", "subtype": "Valve", "material": "Not Available", "owner": "City", "owner_id": "3982", "install_da": "Not Available", "other": "Not Available", "source_dat": "Not Available", "load_date": "2022-06-22"}}, {"type": "Feature", "geometry": {"type": "Point", "coordinates": [-121.89224700490956, 37.44709209995093]}, "properties": {"type": "Valve", "subtype": "Valve", "material": "Not Available", "owner": "City", "owner_id": "3984", "install_da": "01/01/1981", "other": "Not Available", "source_dat": "Not Available", "load_date": "2022-06-22"}}, {"type": "Feature", "geometry": {"type": "Point", "coordinates": [-121.89312180499454, 37.44703529964827]}, "properties": {"type": "Valve", "subtype": "Valve", "material": "Not Available", "owner": "City", "owner_id": "3985", "install_da": "01/01/1981", "other": "Not Available", "source_dat": "Not Available", "load_date": "2022-06-22"}}, {"type": "Feature", "geometry": {"type": "Point", "coordinates": [-121.89397470505119, 37.446998599767525]}, "properties": {"type": "Valve", "subtype": "Valve", "material": "Not Available", "owner": "City", "owner_id": "3986", "install_da": "01/01/1980", "other": "Not Available", "source_dat": "Not Available", "load_date": "2022-06-22"}}, {"type": "Feature", "geometry": {"type": "Point", "coordinates": [-121.89398770457166, 37.44700689983732]}, "properties": {"type": "Valve", "subtype": "Valve", "material": "Not Available", "owner": "City", "owner_id": "3987", "install_da": "01/01/1980", "other": "Not Available", "source_dat": "Not Available", "load_date": "2022-06-22"}}, {"type": "Feature", "geometry": {"type": "Point", "coordinates": [-121.89302120446247, 37.44680770004691]}, "properties": {"type": "Valve", "subtype": "Hydrant Valve", "material": "Not Available", "owner": "City", "owner_id": "3988", "install_da": "Not Available", "other": "Not Available", "source_dat": "Not Available", "load_date": "2022-06-22"}}, {"type": "Feature", "geometry": {"type": "Point", "coordinates": [-121.89280690506327, 37.44739889986091]}, "properties": {"type": "Valve", "subtype": "Valve", "material": "Not Available", "owner": "City", "owner_id": "4030", "install_da": "01/01/1995", "other": "Not Available", "source_dat": "Not Available", "load_date": "2022-06-22"}}, {"type": "Feature", "geometry": {"type": "Point", "coordinates": [-121.89356170459928, 37.4473456999425]}, "properties": {"type": "Valve", "subtype": "Hydrant Valve", "material": "Not Available", "owner": "City", "owner_id": "4031", "install_da": "01/01/1995", "other": "Not Available", "source_dat": "Not Available", "load_date": "2022-06-22"}}, {"type": "Feature", "geometry": {"type": "Point", "coordinates": [-121.89398250512278, 37.447373899933446]}, "properties": {"type": "Valve", "subtype": "Valve", "material": "Not Available", "owner": "City", "owner_id": "4032", "install_da": "Not Available", "other": "Not Available", "source_dat": "Not Available", "load_date": "2022-06-22"}}, {"type": "Feature", "geometry": {"type": "Point", "coordinates": [-121.89698440440954, 37.447445900044215]}, "properties": {"type": "Valve", "subtype": "Valve", "material": "Not Available", "owner": "City", "owner_id": "4042", "install_da": "01/01/1980", "other": "Not Available", "source_dat": "Not Available", "load_date": "2022-06-22"}}, {"type": "Feature", "geometry": {"type": "Point", "coordinates": [-121.897275604987, 37.4474035997379]}, "properties": {"type": "Valve", "subtype": "Hydrant Valve", "material": "Not Available", "owner": "City", "owner_id": "4043", "install_da": "01/01/1980", "other": "Not Available", "source_dat": "Not Available", "load_date": "2022-06-22"}}, {"type": "Feature", "geometry": {"type": "Point", "coordinates": [-121.89791980484357, 37.44729769981206]}, "properties": {"type": "Valve", "subtype": "Valve", "material": "Not Available", "owner": "City", "owner_id": "4044", "install_da": "01/01/1980", "other": "Not Available", "source_dat": "Not Available", "load_date": "2022-06-22"}}, {"type": "Feature", "geometry": {"type": "Point", "coordinates": [-121.89828850487723, 37.447242900148524]}, "properties": {"type": "Valve", "subtype": "Hydrant Valve", "material": "Not Available", "owner": "City", "owner_id": "4045", "install_da": "01/01/1980", "other": "Not Available", "source_dat": "Not Available", "load_date": "2022-06-22"}}, {"type": "Feature", "geometry": {"type": "Point", "coordinates": [-121.8988433043967, 37.447201200229266]}, "properties": {"type": "Valve", "subtype": "Valve", "material": "Not Available", "owner": "City", "owner_id": "4046", "install_da": "01/01/1980", "other": "Not Available", "source_dat": "Not Available", "load_date": "2022-06-22"}}, {"type": "Feature", "geometry": {"type": "Point", "coordinates": [-121.89888990450208, 37.4471420001398]}, "properties": {"type": "Valve", "subtype": "Valve", "material": "Not Available", "owner": "City", "owner_id": "4047", "install_da": "01/01/1980", "other": "Not Available", "source_dat": "Not Available", "load_date": "2022-06-22"}}, {"type": "Feature", "geometry": {"type": "Point", "coordinates": [-121.8994943045, 37.44705070019916]}, "properties": {"type": "Valve", "subtype": "Hydrant Valve", "material": "Not Available", "owner": "City", "owner_id": "4048", "install_da": "01/01/1987", "other": "Not Available", "source_dat": "Not Available", "load_date": "2022-06-22"}}, {"type": "Feature", "geometry": {"type": "Point", "coordinates": [-121.89783830518941, 37.44717850025835]}, "properties": {"type": "Valve", "subtype": "Valve", "material": "Not Available", "owner": "City", "owner_id": "4049", "install_da": "01/01/1980", "other": "Not Available", "source_dat": "Not Available", "load_date": "2022-06-22"}}, {"type": "Feature", "geometry": {"type": "Point", "coordinates": [-121.896917805111, 37.44734449965434]}, "properties": {"type": "Valve", "subtype": "Valve", "material": "Not Available", "owner": "City", "owner_id": "4050", "install_da": "01/01/1980", "other": "Not Available", "source_dat": "Not Available", "load_date": "2022-06-22"}}, {"type": "Feature", "geometry": {"type": "Point", "coordinates": [-121.89603230519269, 37.44689030010389]}, "properties": {"type": "Valve", "subtype": "Valve", "material": "Not Available", "owner": "City", "owner_id": "4051", "install_da": "01/01/1980", "other": "Not Available", "source_dat": "Not Available", "load_date": "2022-06-22"}}, {"type": "Feature", "geometry": {"type": "Point", "coordinates": [-121.8960462048251, 37.446905500278824]}, "properties": {"type": "Valve", "subtype": "Valve", "material": "Not Available", "owner": "City", "owner_id": "4052", "install_da": "Not Available", "other": "Not Available", "source_dat": "Not Available", "load_date": "2022-06-22"}}, {"type": "Feature", "geometry": {"type": "Point", "coordinates": [-121.9010526048369, 37.447030999845836]}, "properties": {"type": "Valve", "subtype": "Hydrant Valve", "material": "Not Available", "owner": "City", "owner_id": "4194", "install_da": "01/01/1988", "other": "Not Available", "source_dat": "Not Available", "load_date": "2022-06-22"}}, {"type": "Feature", "geometry": {"type": "Point", "coordinates": [-121.90105690507215, 37.44702689973544]}, "properties": {"type": "Valve", "subtype": "Valve", "material": "Not Available", "owner": "City", "owner_id": "4195", "install_da": "01/01/1988", "other": "Not Available", "source_dat": "Not Available", "load_date": "2022-06-22"}}, {"type": "Feature", "geometry": {"type": "Point", "coordinates": [-121.90027000513776, 37.44683790002138]}, "properties": {"type": "Valve", "subtype": "Valve", "material": "Not Available", "owner": "City", "owner_id": "4199", "install_da": "01/01/1980", "other": "Not Available", "source_dat": "Not Available", "load_date": "2022-06-22"}}, {"type": "Feature", "geometry": {"type": "Point", "coordinates": [-121.90049220521992, 37.446633900009225]}, "properties": {"type": "Valve", "subtype": "Hydrant Valve", "material": "Not Available", "owner": "City", "owner_id": "4200", "install_da": "01/01/1988", "other": "Not Available", "source_dat": "Not Available", "load_date": "2022-06-22"}}, {"type": "Feature", "geometry": {"type": "Point", "coordinates": [-121.89486300501824, 37.447492400257204]}, "properties": {"type": "Valve", "subtype": "Hydrant Valve", "material": "Not Available", "owner": "City", "owner_id": "4279", "install_da": "01/01/1980", "other": "Not Available", "source_dat": "Not Available", "load_date": "2022-06-22"}}, {"type": "Feature", "geometry": {"type": "Point", "coordinates": [-121.89490280487689, 37.44765819997927]}, "properties": {"type": "Valve", "subtype": "Valve", "material": "Not Available", "owner": "City", "owner_id": "4280", "install_da": "01/01/1980", "other": "Not Available", "source_dat": "Not Available", "load_date": "2022-06-22"}}, {"type": "Feature", "geometry": {"type": "Point", "coordinates": [-121.89570610445513, 37.447650499766745]}, "properties": {"type": "Valve", "subtype": "Hydrant Valve", "material": "Not Available", "owner": "City", "owner_id": "4281", "install_da": "01/01/1980", "other": "Not Available", "source_dat": "Not Available", "load_date": "2022-06-22"}}, {"type": "Feature", "geometry": {"type": "Point", "coordinates": [-121.89287530458563, 37.448012600030154]}, "properties": {"type": "Valve", "subtype": "Valve", "material": "Not Available", "owner": "City", "owner_id": "4351", "install_da": "Not Available", "other": "Not Available", "source_dat": "Not Available", "load_date": "2022-06-22"}}, {"type": "Feature", "geometry": {"type": "Point", "coordinates": [-121.89285020475825, 37.447742500031275]}, "properties": {"type": "Valve", "subtype": "Hydrant Valve", "material": "Not Available", "owner": "City", "owner_id": "4352", "install_da": "Not Available", "other": "Not Available", "source_dat": "Not Available", "load_date": "2022-06-22"}}, {"type": "Feature", "geometry": {"type": "Point", "coordinates": [-121.89402390488097, 37.447743999848576]}, "properties": {"type": "Valve", "subtype": "Valve", "material": "Not Available", "owner": "City", "owner_id": "4353", "install_da": "01/01/1980", "other": "Not Available", "source_dat": "Not Available", "load_date": "2022-06-22"}}, {"type": "Feature", "geometry": {"type": "Point", "coordinates": [-121.89375770441788, 37.44797660025616]}, "properties": {"type": "Valve", "subtype": "Hydrant Valve", "material": "Not Available", "owner": "City", "owner_id": "4354", "install_da": "01/01/1995", "other": "Not Available", "source_dat": "Not Available", "load_date": "2022-06-22"}}, {"type": "Feature", "geometry": {"type": "Point", "coordinates": [-121.89366950512834, 37.44807510001268]}, "properties": {"type": "Valve", "subtype": "Valve", "material": "Not Available", "owner": "City", "owner_id": "4355", "install_da": "01/01/1995", "other": "Not Available", "source_dat": "Not Available", "load_date": "2022-06-22"}}]}