{"type": "FeatureCollection", "features": [{"type": "Feature", "geometry": {"type": "LineString", "coordinates": [[-121.8936759047264, 37.448077599697115], [-121.89369090479504, 37.44805449989984], [-121.89377420467305, 37.447943699936395], [-121.89370810483781, 37.44785679986121], [-121.89385090462862, 37.44766569978724]]}, "properties": {"type": "Main", "diameter": "16", "material": "ACP", "up_elev": "Not Available", "down_elev": "Not Available", "vert_dat": "Not Available", "slope": "Not Available", "owner": "City", "owner_id": "45951-45975", "install_da": "01/01/1980", "other": "Not Available", "source_dat": "Not Available", "transfer_i": "Not Available", "load_date": "2022-06-22", "Shape_Leng": 67.1273505914}}, {"type": "Feature", "geometry": {"type": "LineString", "coordinates": [[-121.89689460522047, 37.44725730005877], [-121.89691780511097, 37.44734449965434]]}, "properties": {"type": "Main", "diameter": "8", "material": "ACP", "up_elev": "Not Available", "down_elev": "Not Available", "vert_dat": "Not Available", "slope": "Not Available", "owner": "City", "owner_id": "33368-33367", "install_da": "01/01/1980", "other": "Not Available", "source_dat": "Not Available", "transfer_i": "Not Available", "load_date": "2022-06-22", "Shape_Leng": 12.4965779732}}, {"type": "Feature", "geometry": {"type": "LineString", "coordinates": [[-121.89696800476568, 37.447448500308376], [-121.89694460455088, 37.447452200300226]]}, "properties": {"type": "Main", "diameter": "8", "material": "ACP", "up_elev": "Not Available", "down_elev": "Not Available", "vert_dat": "Not Available", "slope": "Not Available", "owner": "City", "owner_id": "33359-46015", "install_da": "01/01/1980", "other": "Not Available", "source_dat": "Not Available", "transfer_i": "Not Available", "load_date": "2022-06-22", "Shape_Leng": 2.65606051488}}, {"type": "Feature", "geometry": {"type": "LineString", "coordinates": [[-121.89398680445976, 37.446997699725486], [-121.89396240442001, 37.446767499722036]]}, "properties": {"type": "Main", "diameter": "16", "material": "ACP", "up_elev": "Not Available", "down_elev": "Not Available", "vert_dat": "Not Available", "slope": "Not Available", "owner": "City", "owner_id": "45889-33297", "install_da": "01/01/1980", "other": "Not Available", "source_dat": "Not Available", "transfer_i": "Not Available", "load_date": "2022-06-22", "Shape_Leng": 32.3916841805}}, {"type": "Feature", "geometry": {"type": "LineString", "coordinates": [[-121.90026950477615, 37.44663740034799], [-121.9002812044344, 37.44677709996124]]}, "properties": {"type": "Main", "diameter": "12", "material": "ACP", "up_elev": "Not Available", "down_elev": "Not Available", "vert_dat": "Not Available", "slope": "Not Available", "owner": "City", "owner_id": "45751-45743", "install_da": "01/01/1981", "other": "Not Available", "source_dat": "Not Available", "transfer_i": "Not Available", "load_date": "2022-06-22", "Shape_Leng": 19.6312503357}}, {"type": "Feature", "geometry": {"type": "LineString", "coordinates": [[-121.8996574044196, 37.44692410021659], [-121.8996441048618, 37.446946500012785]]}, "properties": {"type": "Main", "diameter": "6", "material": "ACP", "up_elev": "Not Available", "down_elev": "Not Available", "vert_dat": "Not Available", "slope": "Not Available", "owner": "City", "owner_id": "33516-33364", "install_da": "01/01/1980", "other": "Not Available", "source_dat": "Not Available", "transfer_i": "Not Available", "load_date": "2022-06-22", "Shape_Leng": 3.47224781432}}, {"type": "Feature", "geometry": {"type": "LineString", "coordinates": [[-121.89398770457167, 37.44700689983732], [-121.89398680445976, 37.446997699725486]]}, "properties": {"type": "Main", "diameter": "16", "material": "ACP", "up_elev": "Not Available", "down_elev": "Not Available", "vert_dat": "Not Available", "slope": "Not Available", "owner": "City", "owner_id": "33304-45889", "install_da": "01/01/1980", "other": "Not Available", "source_dat": "Not Available", "transfer_i": "Not Available", "load_date": "2022-06-22", "Shape_Leng": 1.29388563557}}, {"type": "Feature", "geometry": {"type": "LineString", "coordinates": [[-121.89396240442001, 37.446767499722036], [-121.89394410956955, 37.44659448567416]]}, "properties": {"type": "Main", "diameter": "16", "material": "ACP", "up_elev": "Not Available", "down_elev": "Not Available", "vert_dat": "Not Available", "slope": "Not Available", "owner": "City", "owner_id": "45889-33297", "install_da": "01/01/1980", "other": "Not Available", "source_dat": "Not Available", "transfer_i": "Not Available", "load_date": "2022-06-22", "Shape_Leng": 50.9644475508}}, {"type": "Feature", "geometry": {"type": "LineString", "coordinates": [[-121.8956946051212, 37.44765070017055], [-121.89570570470485, 37.44764869969839], [-121.89582720454194, 37.447629400310284]]}, "properties": {"type": "Main", "diameter": "6", "material": "ACP", "up_elev": "Not Available", "down_elev": "Not Available", "vert_dat": "Not Available", "slope": "Not Available", "owner": "City", "owner_id": "45715-62107", "install_da": "01/01/1980", "other": "Not Available", "source_dat": "Not Available", "transfer_i": "Not Available", "load_date": "2022-06-22", "Shape_Leng": 15.0603966358}}, {"type": "Feature", "geometry": {"type": "LineString", "coordinates": [[-121.89312180499455, 37.44703529964824], [-121.89397470505118, 37.446998599767554]]}, "properties": {"type": "Main", "diameter": "16", "material": "ACP", "up_elev": "Not Available", "down_elev": "Not Available", "vert_dat": "Not Available", "slope": "Not Available", "owner": "City", "owner_id": "33302-33303", "install_da": "01/01/1980", "other": "Not Available", "source_dat": "Not Available", "transfer_i": "Not Available", "load_date": "2022-06-22", "Shape_Leng": 95.0837492865}}, {"type": "Feature", "geometry": {"type": "LineString", "coordinates": [[-121.90132010516223, 37.447093400089194], [-121.90131340462851, 37.44701239993465], [-121.90115600451936, 37.44702129979304]]}, "properties": {"type": "Main", "diameter": "10", "material": "Polyvinly Chloride", "up_elev": "Not Available", "down_elev": "Not Available", "vert_dat": "Not Available", "slope": "Not Available", "owner": "City", "owner_id": "33445-33512", "install_da": "01/01/1988", "other": "Not Available", "source_dat": "Not Available", "transfer_i": "Not Available", "load_date": "2022-06-22", "Shape_Leng": 28.948048686}}, {"type": "Feature", "geometry": {"type": "LineString", "coordinates": [[-121.89493110450327, 37.44777150006017], [-121.89477500515466, 37.44779630016454]]}, "properties": {"type": "Main", "diameter": "8", "material": "ACP", "up_elev": "Not Available", "down_elev": "Not Available", "vert_dat": "Not Available", "slope": "Not Available", "owner": "City", "owner_id": "45974-33672", "install_da": "01/01/1980", "other": "Not Available", "source_dat": "Not Available", "transfer_i": "Not Available", "load_date": "2022-06-22", "Shape_Leng": 17.7214267039}}, {"type": "Feature", "geometry": {"type": "LineString", "coordinates": [[-121.89783020508051, 37.447077600162764], [-121.8978179044493, 37.446923999657095]]}, "properties": {"type": "Main", "diameter": "6", "material": "ACP", "up_elev": "Not Available", "down_elev": "Not Available", "vert_dat": "Not Available", "slope": "Not Available", "owner": "City", "owner_id": "33366-62125", "install_da": "01/01/1980", "other": "Not Available", "source_dat": "Not Available", "transfer_i": "Not Available", "load_date": "2022-06-22", "Shape_Leng": 21.5806850257}}, {"type": "Feature", "geometry": {"type": "LineString", "coordinates": [[-121.89694460455088, 37.447452200300226], [-121.89676980497298, 37.447479900310114]]}, "properties": {"type": "Main", "diameter": "8", "material": "ACP", "up_elev": "Not Available", "down_elev": "Not Available", "vert_dat": "Not Available", "slope": "Not Available", "owner": "City", "owner_id": "46015-62124", "install_da": "01/01/1980", "other": "Not Available", "source_dat": "Not Available", "transfer_i": "Not Available", "load_date": "2022-06-22", "Shape_Leng": 19.8424436477}}, {"type": "Feature", "geometry": {"type": "LineString", "coordinates": [[-121.90028620445729, 37.44683699997738], [-121.90028770464384, 37.446874599980895], [-121.90013630438243, 37.44731489967218], [-121.90011680465258, 37.447317400095166], [-121.90008219328007, 37.44742548307204]]}, "properties": {"type": "Main", "diameter": "12", "material": "Polyvinly Chloride", "up_elev": "Not Available", "down_elev": "Not Available", "vert_dat": "Not Available", "slope": "Not Available", "owner": "City", "owner_id": "45743-33443", "install_da": "01/01/1980", "other": "Not Available", "source_dat": "Not Available", "transfer_i": "Not Available", "load_date": "2022-06-22", "Shape_Leng": 139.736676829}}, {"type": "Feature", "geometry": {"type": "LineString", "coordinates": [[-121.89691780511097, 37.44734449965434], [-121.89694460455088, 37.447452200300226]]}, "properties": {"type": "Main", "diameter": "8", "material": "ACP", "up_elev": "Not Available", "down_elev": "Not Available", "vert_dat": "Not Available", "slope": "Not Available", "owner": "City", "owner_id": "33367-46015", "install_da": "01/01/1980", "other": "Not Available", "source_dat": "Not Available", "transfer_i": "Not Available", "load_date": "2022-06-22", "Shape_Leng": 15.3932569958}}, {"type": "Feature", "geometry": {"type": "LineString", "coordinates": [[-121.89496580462608, 37.4471319998502], [-121.89496500512548, 37.44708719964901]]}, "properties": {"type": "Main", "diameter": "6", "material": "ACP", "up_elev": "Not Available", "down_elev": "Not Available", "vert_dat": "Not Available", "slope": "Not Available", "owner": "City", "owner_id": "33598-62120", "install_da": "01/01/1980", "other": "Not Available", "source_dat": "Not Available", "transfer_i": "Not Available", "load_date": "2022-06-22", "Shape_Leng": 6.28233045072}}, {"type": "Feature", "geometry": {"type": "LineString", "coordinates": [[-121.89298340515195, 37.44802220010961], [-121.89287710480946, 37.4480285003171], [-121.89287530458562, 37.448012600030125]]}, "properties": {"type": "Main", "diameter": "8", "material": "Polyvinly Chloride", "up_elev": "Not Available", "down_elev": "Not Available", "vert_dat": "Not Available", "slope": "Not Available", "owner": "City", "owner_id": "33674-33670", "install_da": "01/01/1995", "other": "Not Available", "source_dat": "Not Available", "transfer_i": "Not Available", "load_date": "2022-06-22", "Shape_Leng": 14.1047171614}}, {"type": "Feature", "geometry": {"type": "LineString", "coordinates": [[-121.89496500512548, 37.44708719964901], [-121.89496450476385, 37.44705990030446]]}, "properties": {"type": "Main", "diameter": "6", "material": "ACP", "up_elev": "Not Available", "down_elev": "Not Available", "vert_dat": "Not Available", "slope": "Not Available", "owner": "City", "owner_id": "33598-62120", "install_da": "01/01/1980", "other": "Not Available", "source_dat": "Not Available", "transfer_i": "Not Available", "load_date": "2022-06-22", "Shape_Leng": 3.82820523437}}, {"type": "Feature", "geometry": {"type": "LineString", "coordinates": [[-121.90133510523083, 37.44727139971566], [-121.90132010516223, 37.447093400089194]]}, "properties": {"type": "Main", "diameter": "10", "material": "Polyvinly Chloride", "up_elev": "Not Available", "down_elev": "Not Available", "vert_dat": "Not Available", "slope": "Not Available", "owner": "City", "owner_id": "33445-33512", "install_da": "01/01/1988", "other": "Not Available", "source_dat": "Not Available", "transfer_i": "Not Available", "load_date": "2022-06-22", "Shape_Leng": 25.0141952255}}, {"type": "Feature", "geometry": {"type": "LineString", "coordinates": [[-121.89281140472453, 37.447438900155326], [-121.89280690506327, 37.44739889986091]]}, "properties": {"type": "Main", "diameter": "8", "material": "Polyvinly Chloride", "up_elev": "Not Available", "down_elev": "Not Available", "vert_dat": "Not Available", "slope": "Not Available", "owner": "City", "owner_id": "33670-33347", "install_da": "01/01/1995", "other": "Not Available", "source_dat": "Not Available", "transfer_i": "Not Available", "load_date": "2022-06-22", "Shape_Leng": 5.63102268648}}, {"type": "Feature", "geometry": {"type": "LineString", "coordinates": [[-121.89385090462862, 37.44766569978724], [-121.89386360501008, 37.44765089986111], [-121.89387580502998, 37.4476359002415], [-121.89388740497523, 37.44762049981108], [-121.89389830513291, 37.44760479984139], [-121.89390850460462, 37.44758890017757], [-121.8939181049001, 37.44757259970239], [-121.89392700450956, 37.447556200091334], [-121.89393520522984, 37.44753950022718], [-121.89394420455233, 37.447521900323665], [-121.89395260469853, 37.44750410001177], [-121.89396020444583, 37.447486100004575], [-121.89396710440552, 37.44746790030195], [-121.89397330457764, 37.447449500190544], [-121.89397880496213, 37.447431000229], [-121.89398350494771, 37.447412399704106], [-121.89398750514566, 37.44739360019648], [-121.89399070494468, 37.44737479997088]]}, "properties": {"type": "Main", "diameter": "16", "material": "ACP", "up_elev": "Not Available", "down_elev": "Not Available", "vert_dat": "Not Available", "slope": "Not Available", "owner": "City", "owner_id": "45975-45017", "install_da": "01/01/1980", "other": "Not Available", "source_dat": "Not Available", "transfer_i": "Not Available", "load_date": "2022-06-22", "Shape_Leng": 44.071476953}}, {"type": "Feature", "geometry": {"type": "LineString", "coordinates": [[-121.90021801776415, 37.44620157720495], [-121.9002259050438, 37.44626699969608], [-121.90026950477615, 37.44663740034799]]}, "properties": {"type": "Main", "diameter": "12", "material": "ACP", "up_elev": "Not Available", "down_elev": "Not Available", "vert_dat": "Not Available", "slope": "Not Available", "owner": "City", "owner_id": "32427-45751", "install_da": "01/01/1981", "other": "Not Available", "source_dat": "Not Available", "transfer_i": "Not Available", "load_date": "2022-06-22", "Shape_Leng": 149.681097726}}, {"type": "Feature", "geometry": {"type": "LineString", "coordinates": [[-121.8988433043967, 37.447201200229266], [-121.89883070462652, 37.44715149977182]]}, "properties": {"type": "Main", "diameter": "8", "material": "ACP", "up_elev": "Not Available", "down_elev": "Not Available", "vert_dat": "Not Available", "slope": "Not Available", "owner": "City", "owner_id": "33363-46014", "install_da": "01/01/1980", "other": "Not Available", "source_dat": "Not Available", "transfer_i": "Not Available", "load_date": "2022-06-22", "Shape_Leng": 7.10854838985}}, {"type": "Feature", "geometry": {"type": "LineString", "coordinates": [[-121.900491504534, 37.44662500010475], [-121.90157214258326, 37.446564286291945]]}, "properties": {"type": "Main", "diameter": "10", "material": "ACP", "up_elev": "Not Available", "down_elev": "Not Available", "vert_dat": "Not Available", "slope": "Not Available", "owner": "City", "owner_id": "32320-33518", "install_da": "01/01/1988", "other": "Not Available", "source_dat": "Not Available", "transfer_i": "Not Available", "load_date": "2022-06-22", "Shape_Leng": 143.213562345}}, {"type": "Feature", "geometry": {"type": "LineString", "coordinates": [[-121.89371350461094, 37.4473478002685], [-121.89395040472445, 37.44737079972507]]}, "properties": {"type": "Main", "diameter": "8", "material": "Polyvinly Chloride", "up_elev": "Not Available", "down_elev": "Not Available", "vert_dat": "Not Available", "slope": "Not Available", "owner": "City", "owner_id": "33347-33349", "install_da": "01/01/1995", "other": "Not Available", "source_dat": "Not Available", "transfer_i": "Not Available", "load_date": "2022-06-22", "Shape_Leng": 26.5680497323}}, {"type": "Feature", "geometry": {"type": "LineString", "coordinates": [[-121.89477500515466, 37.44779630016454], [-121.89468830515332, 37.44781000033941], [-121.89454190491487, 37.44783180008676], [-121.8945188047373, 37.447835099966184], [-121.89449570455982, 37.44783780006195], [-121.89447240495625, 37.44783979981583], [-121.89444910445444, 37.447841300344386], [-121.8944257051379, 37.44784199997293], [-121.89440240463603, 37.447842099818], [-121.89437900442122, 37.44784159987961], [-121.89435560510472, 37.44784040031254], [-121.89433230460284, 37.447838600248744], [-121.89430920442534, 37.44783609984319], [-121.89428610514615, 37.44783299965395], [-121.89426320439459, 37.447829299680976], [-121.89424040515267, 37.44782490007912], [-121.89421790504973, 37.447819899980175], [-121.89418890473742, 37.44781140031029], [-121.89416020446241, 37.44780199989402], [-121.89413200454902, 37.44779189984757], [-121.8941042043859, 37.447781100170594], [-121.89407690458441, 37.4477693997462], [-121.89405020485756, 37.44775710024892], [-121.89402390488097, 37.447743999848605]]}, "properties": {"type": "Main", "diameter": "8", "material": "ACP", "up_elev": "Not Available", "down_elev": "Not Available", "vert_dat": "Not Available", "slope": "Not Available", "owner": "City", "owner_id": "45974-33672", "install_da": "01/01/1980", "other": "Not Available", "source_dat": "Not Available", "transfer_i": "Not Available", "load_date": "2022-06-22", "Shape_Leng": 87.018145081}}, {"type": "Feature", "geometry": {"type": "LineString", "coordinates": [[-121.89679640498686, 37.446980700198125], [-121.89681330499234, 37.44698960006028]]}, "properties": {"type": "Main", "diameter": "8", "material": "ACP", "up_elev": "Not Available", "down_elev": "Not Available", "vert_dat": "Not Available", "slope": "Not Available", "owner": "City", "owner_id": "33368-33367", "install_da": "01/01/1980", "other": "Not Available", "source_dat": "Not Available", "transfer_i": "Not Available", "load_date": "2022-06-22", "Shape_Leng": 2.25755267913}}, {"type": "Feature", "geometry": {"type": "LineString", "coordinates": [[-121.90027000513776, 37.44683790002138], [-121.89968890474333, 37.44687080011423], [-121.8996574044196, 37.44692410021659]]}, "properties": {"type": "Main", "diameter": "6", "material": "ACP", "up_elev": "Not Available", "down_elev": "Not Available", "vert_dat": "Not Available", "slope": "Not Available", "owner": "City", "owner_id": "33516-33364", "install_da": "01/01/1980", "other": "Not Available", "source_dat": "Not Available", "transfer_i": "Not Available", "load_date": "2022-06-22", "Shape_Leng": 73.1073468369}}, {"type": "Feature", "geometry": {"type": "LineString", "coordinates": [[-121.89598950496097, 37.447603700115906], [-121.89599130518482, 37.44760339986664]]}, "properties": {"type": "Main", "diameter": "6", "material": "ACP", "up_elev": "Not Available", "down_elev": "Not Available", "vert_dat": "Not Available", "slope": "Not Available", "owner": "City", "owner_id": "45715-62107", "install_da": "01/01/1980", "other": "Not Available", "source_dat": "Not Available", "transfer_i": "Not Available", "load_date": "2022-06-22", "Shape_Leng": 0.204774434953}}, {"type": "Feature", "geometry": {"type": "LineString", "coordinates": [[-121.89496640470071, 37.447162900041825], [-121.89496580462608, 37.4471319998502]]}, "properties": {"type": "Main", "diameter": "6", "material": "ACP", "up_elev": "Not Available", "down_elev": "Not Available", "vert_dat": "Not Available", "slope": "Not Available", "owner": "City", "owner_id": "33598-62120", "install_da": "01/01/1980", "other": "Not Available", "source_dat": "Not Available", "transfer_i": "Not Available", "load_date": "2022-06-22", "Shape_Leng": 4.33321491773}}, {"type": "Feature", "geometry": {"type": "LineString", "coordinates": [[-121.89603230519269, 37.44689030010394], [-121.89673060518894, 37.44684879968085], [-121.89673780518594, 37.4469498997775], [-121.89676910518534, 37.446966400080775]]}, "properties": {"type": "Main", "diameter": "8", "material": "ACP", "up_elev": "Not Available", "down_elev": "Not Available", "vert_dat": "Not Available", "slope": "Not Available", "owner": "City", "owner_id": "33368-33367", "install_da": "01/01/1980", "other": "Not Available", "source_dat": "Not Available", "transfer_i": "Not Available", "load_date": "2022-06-22", "Shape_Leng": 96.3328081818}}, {"type": "Feature", "geometry": {"type": "LineString", "coordinates": [[-121.89599130518482, 37.44760339986664], [-121.89619360488848, 37.44757140013103]]}, "properties": {"type": "Main", "diameter": "6", "material": "ACP", "up_elev": "Not Available", "down_elev": "Not Available", "vert_dat": "Not Available", "slope": "Not Available", "owner": "City", "owner_id": "45715-62107", "install_da": "01/01/1980", "other": "Not Available", "source_dat": "Not Available", "transfer_i": "Not Available", "load_date": "2022-06-22", "Shape_Leng": 22.9625383551}}, {"type": "Feature", "geometry": {"type": "LineString", "coordinates": [[-121.89594328110408, 37.44648468320391], [-121.89597660515348, 37.446858899854696], [-121.89601000451574, 37.44689160024561], [-121.89603230519269, 37.44689030010394]]}, "properties": {"type": "Main", "diameter": "8", "material": "ACP", "up_elev": "Not Available", "down_elev": "Not Available", "vert_dat": "Not Available", "slope": "Not Available", "owner": "City", "owner_id": "46010-33368", "install_da": "01/01/1974", "other": "Not Available", "source_dat": "Not Available", "transfer_i": "Not Available", "load_date": "2022-06-22", "Shape_Leng": 97.7352388857}}, {"type": "Feature", "geometry": {"type": "LineString", "coordinates": [[-121.89395040472445, 37.44737079972507], [-121.89398250512276, 37.447373899933446]]}, "properties": {"type": "Main", "diameter": "8", "material": "Polyvinly Chloride", "up_elev": "Not Available", "down_elev": "Not Available", "vert_dat": "Not Available", "slope": "Not Available", "owner": "City", "owner_id": "33347-33349", "install_da": "01/01/1995", "other": "Not Available", "source_dat": "Not Available", "transfer_i": "Not Available", "load_date": "2022-06-22", "Shape_Leng": 3.59974327535}}, {"type": "Feature", "geometry": {"type": "LineString", "coordinates": [[-121.90026950477615, 37.44663740034799], [-121.90027860471, 37.44663689968828]]}, "properties": {"type": "Main", "diameter": "10", "material": "ACP", "up_elev": "Not Available", "down_elev": "Not Available", "vert_dat": "Not Available", "slope": "Not Available", "owner": "City", "owner_id": "45751-32320", "install_da": "01/01/1988", "other": "Not Available", "source_dat": "Not Available", "transfer_i": "Not Available", "load_date": "2022-06-22", "Shape_Leng": 1.01542948601}}, {"type": "Feature", "geometry": {"type": "LineString", "coordinates": [[-121.89302210457444, 37.448019900112996], [-121.89298340515195, 37.44802220010961]]}, "properties": {"type": "Main", "diameter": "8", "material": "Polyvinly Chloride", "up_elev": "Not Available", "down_elev": "Not Available", "vert_dat": "Not Available", "slope": "Not Available", "owner": "City", "owner_id": "33674-33670", "install_da": "01/01/1995", "other": "Not Available", "source_dat": "Not Available", "transfer_i": "Not Available", "load_date": "2022-06-22", "Shape_Leng": 4.32005442678}}, {"type": "Feature", "geometry": {"type": "LineString", "coordinates": [[-121.8996441048618, 37.446946500012785], [-121.89959550510663, 37.44702869981874], [-121.89937820443608, 37.447063600315474]]}, "properties": {"type": "Main", "diameter": "6", "material": "ACP", "up_elev": "Not Available", "down_elev": "Not Available", "vert_dat": "Not Available", "slope": "Not Available", "owner": "City", "owner_id": "33516-33364", "install_da": "01/01/1980", "other": "Not Available", "source_dat": "Not Available", "transfer_i": "Not Available", "load_date": "2022-06-22", "Shape_Leng": 37.4121042048}}, {"type": "Feature", "geometry": {"type": "LineString", "coordinates": [[-121.89366950512832, 37.44807510001268], [-121.89353080524847, 37.44802950019149], [-121.8934916045661, 37.44802300029445], [-121.8934522044577, 37.44801769996111], [-121.89341250521035, 37.44801340021512], [-121.89337270445343, 37.448010300033204], [-121.89333280488175, 37.448008199725884], [-121.89329280469875, 37.44800719985124], [-121.89325280451581, 37.44800740025407], [-121.89321280523116, 37.448008599818436], [-121.89302210457444, 37.448019900112996]]}, "properties": {"type": "Main", "diameter": "8", "material": "Polyvinly Chloride", "up_elev": "Not Available", "down_elev": "Not Available", "vert_dat": "Not Available", "slope": "Not Available", "owner": "City", "owner_id": "33674-33670", "install_da": "01/01/1995", "other": "Not Available", "source_dat": "Not Available", "transfer_i": "Not Available", "load_date": "2022-06-22", "Shape_Leng": 73.633004278}}, {"type": "Feature", "geometry": {"type": "LineString", "coordinates": [[-121.89888990450211, 37.44714200013978], [-121.89883070462652, 37.44715149977182]]}, "properties": {"type": "Main", "diameter": "6", "material": "ACP", "up_elev": "Not Available", "down_elev": "Not Available", "vert_dat": "Not Available", "slope": "Not Available", "owner": "City", "owner_id": "33364-46014", "install_da": "01/01/1980", "other": "Not Available", "source_dat": "Not Available", "transfer_i": "Not Available", "load_date": "2022-06-22", "Shape_Leng": 6.72336537843}}, {"type": "Feature", "geometry": {"type": "LineString", "coordinates": [[-121.89397470505118, 37.446998599767554], [-121.89398680445976, 37.446997699725486]]}, "properties": {"type": "Main", "diameter": "16", "material": "ACP", "up_elev": "Not Available", "down_elev": "Not Available", "vert_dat": "Not Available", "slope": "Not Available", "owner": "City", "owner_id": "33303-45889", "install_da": "01/01/1980", "other": "Not Available", "source_dat": "Not Available", "transfer_i": "Not Available", "load_date": "2022-06-22", "Shape_Leng": 1.35279933637}}, {"type": "Feature", "geometry": {"type": "LineString", "coordinates": [[-121.89303340448237, 37.44737880021657], [-121.89323440522212, 37.447367800075405]]}, "properties": {"type": "Main", "diameter": "8", "material": "Polyvinly Chloride", "up_elev": "Not Available", "down_elev": "Not Available", "vert_dat": "Not Available", "slope": "Not Available", "owner": "City", "owner_id": "33347-33349", "install_da": "01/01/1995", "other": "Not Available", "source_dat": "Not Available", "transfer_i": "Not Available", "load_date": "2022-06-22", "Shape_Leng": 22.4283982468}}, {"type": "Feature", "geometry": {"type": "LineString", "coordinates": [[-121.89166690571362, 37.44712469194432], [-121.89224700490955, 37.44709209995091]]}, "properties": {"type": "Main", "diameter": "16", "material": "ACP", "up_elev": "Not Available", "down_elev": "Not Available", "vert_dat": "Not Available", "slope": "Not Available", "owner": "City", "owner_id": "33336-33301", "install_da": "01/01/1985", "other": "Not Available", "source_dat": "Not Available", "transfer_i": "Not Available", "load_date": "2022-06-22", "Shape_Leng": 282.217047613}}, {"type": "Feature", "geometry": {"type": "LineString", "coordinates": [[-121.89784880469846, 37.447308899655056], [-121.8973842050166, 37.44738260005748]]}, "properties": {"type": "Main", "diameter": "8", "material": "ACP", "up_elev": "Not Available", "down_elev": "Not Available", "vert_dat": "Not Available", "slope": "Not Available", "owner": "City", "owner_id": "46016-33359", "install_da": "01/01/1980", "other": "Not Available", "source_dat": "Not Available", "transfer_i": "Not Available", "load_date": "2022-06-22", "Shape_Leng": 52.7413169823}}, {"type": "Feature", "geometry": {"type": "LineString", "coordinates": [[-121.8931114051985, 37.446824199668455], [-121.8931120043748, 37.44681019977371]]}, "properties": {"type": "Main", "diameter": "8", "material": "ACP", "up_elev": "Not Available", "down_elev": "Not Available", "vert_dat": "Not Available", "slope": "Not Available", "owner": "City", "owner_id": "45813-33298", "install_da": "01/01/1981", "other": "Not Available", "source_dat": "Not Available", "transfer_i": "Not Available", "load_date": "2022-06-22", "Shape_Leng": 1.96413285909}}, {"type": "Feature", "geometry": {"type": "LineString", "coordinates": [[-121.89402390488097, 37.447743999848605], [-121.89385090462862, 37.44766569978724]]}, "properties": {"type": "Main", "diameter": "8", "material": "ACP", "up_elev": "Not Available", "down_elev": "Not Available", "vert_dat": "Not Available", "slope": "Not Available", "owner": "City", "owner_id": "33672-45975", "install_da": "01/01/1980", "other": "Not Available", "source_dat": "Not Available", "transfer_i": "Not Available", "load_date": "2022-06-22", "Shape_Leng": 22.1680075741}}, {"type": "Feature", "geometry": {"type": "LineString", "coordinates": [[-121.89715750437489, 37.447418500271716], [-121.89709740438747, 37.44742799986862]]}, "properties": {"type": "Main", "diameter": "8", "material": "ACP", "up_elev": "Not Available", "down_elev": "Not Available", "vert_dat": "Not Available", "slope": "Not Available", "owner": "City", "owner_id": "46016-33359", "install_da": "01/01/1980", "other": "Not Available", "source_dat": "Not Available", "transfer_i": "Not Available", "load_date": "2022-06-22", "Shape_Leng": 6.82160817274}}, {"type": "Feature", "geometry": {"type": "LineString", "coordinates": [[-121.89783830518944, 37.44717850025835], [-121.89783020508051, 37.447077600162764]]}, "properties": {"type": "Main", "diameter": "6", "material": "ACP", "up_elev": "Not Available", "down_elev": "Not Available", "vert_dat": "Not Available", "slope": "Not Available", "owner": "City", "owner_id": "33366-62125", "install_da": "01/01/1980", "other": "Not Available", "source_dat": "Not Available", "transfer_i": "Not Available", "load_date": "2022-06-22", "Shape_Leng": 14.1765054896}}, {"type": "Feature", "geometry": {"type": "LineString", "coordinates": [[-121.89310230436634, 37.44703630024912], [-121.8931114051985, 37.446824199668455]]}, "properties": {"type": "Main", "diameter": "8", "material": "ACP", "up_elev": "Not Available", "down_elev": "Not Available", "vert_dat": "Not Available", "slope": "Not Available", "owner": "City", "owner_id": "45813-33298", "install_da": "01/01/1981", "other": "Not Available", "source_dat": "Not Available", "transfer_i": "Not Available", "load_date": "2022-06-22", "Shape_Leng": 29.7570508548}}, {"type": "Feature", "geometry": {"type": "LineString", "coordinates": [[-121.90105690507212, 37.44702689973547], [-121.90105230479956, 37.447027199987005]]}, "properties": {"type": "Main", "diameter": "6", "material": "Polyvinly Chloride", "up_elev": "Not Available", "down_elev": "Not Available", "vert_dat": "Not Available", "slope": "Not Available", "owner": "City", "owner_id": "33512-60158", "install_da": "01/01/1988", "other": "Not Available", "source_dat": "Not Available", "transfer_i": "Not Available", "load_date": "2022-06-22", "Shape_Leng": 0.51382761673}}, {"type": "Feature", "geometry": {"type": "LineString", "coordinates": [[-121.89681330499234, 37.44698960006028], [-121.8968251043636, 37.44699579979532], [-121.89689460522047, 37.44725730005877]]}, "properties": {"type": "Main", "diameter": "8", "material": "ACP", "up_elev": "Not Available", "down_elev": "Not Available", "vert_dat": "Not Available", "slope": "Not Available", "owner": "City", "owner_id": "33368-33367", "install_da": "01/01/1980", "other": "Not Available", "source_dat": "Not Available", "transfer_i": "Not Available", "load_date": "2022-06-22", "Shape_Leng": 39.0489693573}}, {"type": "Feature", "geometry": {"type": "LineString", "coordinates": [[-121.89698440440954, 37.447445900044215], [-121.89696800476568, 37.447448500308376]]}, "properties": {"type": "Main", "diameter": "8", "material": "ACP", "up_elev": "Not Available", "down_elev": "Not Available", "vert_dat": "Not Available", "slope": "Not Available", "owner": "City", "owner_id": "33359-46015", "install_da": "01/01/1980", "other": "Not Available", "source_dat": "Not Available", "transfer_i": "Not Available", "load_date": "2022-06-22", "Shape_Leng": 1.86165209342}}, {"type": "Feature", "geometry": {"type": "LineString", "coordinates": [[-121.90027860471, 37.44663689968828], [-121.900491504534, 37.44662500010475]]}, "properties": {"type": "Main", "diameter": "10", "material": "ACP", "up_elev": "Not Available", "down_elev": "Not Available", "vert_dat": "Not Available", "slope": "Not Available", "owner": "City", "owner_id": "32320-33518", "install_da": "01/01/1988", "other": "Not Available", "source_dat": "Not Available", "transfer_i": "Not Available", "load_date": "2022-06-22", "Shape_Leng": 23.7585595571}}, {"type": "Feature", "geometry": {"type": "LineString", "coordinates": [[-121.90115600451936, 37.44702129979304], [-121.90105690507212, 37.44702689973547]]}, "properties": {"type": "Main", "diameter": "10", "material": "Polyvinly Chloride", "up_elev": "Not Available", "down_elev": "Not Available", "vert_dat": "Not Available", "slope": "Not Available", "owner": "City", "owner_id": "33445-33512", "install_da": "01/01/1988", "other": "Not Available", "source_dat": "Not Available", "transfer_i": "Not Available", "load_date": "2022-06-22", "Shape_Leng": 11.05960867}}, {"type": "Feature", "geometry": {"type": "LineString", "coordinates": [[-121.8956946051212, 37.44765070017055], [-121.89493110450327, 37.44777150006017]]}, "properties": {"type": "Main", "diameter": "8", "material": "ACP", "up_elev": "Not Available", "down_elev": "Not Available", "vert_dat": "Not Available", "slope": "Not Available", "owner": "City", "owner_id": "45715-45974", "install_da": "01/01/1980", "other": "Not Available", "source_dat": "Not Available", "transfer_i": "Not Available", "load_date": "2022-06-22", "Shape_Leng": 86.6638775711}}, {"type": "Feature", "geometry": {"type": "LineString", "coordinates": [[-121.89284530444837, 37.447742900125206], [-121.89282240459517, 37.44753770015626]]}, "properties": {"type": "Main", "diameter": "8", "material": "Polyvinly Chloride", "up_elev": "Not Available", "down_elev": "Not Available", "vert_dat": "Not Available", "slope": "Not Available", "owner": "City", "owner_id": "33670-33347", "install_da": "01/01/1995", "other": "Not Available", "source_dat": "Not Available", "transfer_i": "Not Available", "load_date": "2022-06-22", "Shape_Leng": 28.8852068877}}, {"type": "Feature", "geometry": {"type": "LineString", "coordinates": [[-121.89398250512276, 37.447373899933446], [-121.89399070494468, 37.44737479997088], [-121.89399530521727, 37.447345900347116], [-121.89399870444231, 37.44731680030744], [-121.89400090441642, 37.44728770025649], [-121.8940019051397, 37.44725860019419], [-121.89400160510239, 37.447229400274686], [-121.89400020462884, 37.44720030018974], [-121.89398770457167, 37.44700689983732]]}, "properties": {"type": "Main", "diameter": "16", "material": "ACP", "up_elev": "Not Available", "down_elev": "Not Available", "vert_dat": "Not Available", "slope": "Not Available", "owner": "City", "owner_id": "33349-33304", "install_da": "01/01/1980", "other": "Not Available", "source_dat": "Not Available", "transfer_i": "Not Available", "load_date": "2022-06-22", "Shape_Leng": 52.6043759225}}, {"type": "Feature", "geometry": {"type": "LineString", "coordinates": [[-121.8972747048751, 37.44739989974369], [-121.89715750437489, 37.447418500271716]]}, "properties": {"type": "Main", "diameter": "8", "material": "ACP", "up_elev": "Not Available", "down_elev": "Not Available", "vert_dat": "Not Available", "slope": "Not Available", "owner": "City", "owner_id": "46016-33359", "install_da": "01/01/1980", "other": "Not Available", "source_dat": "Not Available", "transfer_i": "Not Available", "load_date": "2022-06-22", "Shape_Leng": 13.3048324508}}, {"type": "Feature", "geometry": {"type": "LineString", "coordinates": [[-121.89709740438747, 37.44742799986862], [-121.89698440440954, 37.447445900044215]]}, "properties": {"type": "Main", "diameter": "8", "material": "ACP", "up_elev": "Not Available", "down_elev": "Not Available", "vert_dat": "Not Available", "slope": "Not Available", "owner": "City", "owner_id": "46016-33359", "install_da": "01/01/1980", "other": "Not Available", "source_dat": "Not Available", "transfer_i": "Not Available", "load_date": "2022-06-22", "Shape_Leng": 12.827055581}}, {"type": "Feature", "geometry": {"type": "LineString", "coordinates": [[-121.89897370474169, 37.44712850024777], [-121.89888990450211, 37.44714200013978]]}, "properties": {"type": "Main", "diameter": "6", "material": "ACP", "up_elev": "Not Available", "down_elev": "Not Available", "vert_dat": "Not Available", "slope": "Not Available", "owner": "City", "owner_id": "33516-33364", "install_da": "01/01/1980", "other": "Not Available", "source_dat": "Not Available", "transfer_i": "Not Available", "load_date": "2022-06-22", "Shape_Leng": 9.51871043638}}, {"type": "Feature", "geometry": {"type": "LineString", "coordinates": [[-121.89784880469846, 37.447308899655056], [-121.89783830518944, 37.44717850025835]]}, "properties": {"type": "Main", "diameter": "6", "material": "ACP", "up_elev": "Not Available", "down_elev": "Not Available", "vert_dat": "Not Available", "slope": "Not Available", "owner": "City", "owner_id": "46016-33366", "install_da": "01/01/1980", "other": "Not Available", "source_dat": "Not Available", "transfer_i": "Not Available", "load_date": "2022-06-22", "Shape_Leng": 18.3214193257}}, {"type": "Feature", "geometry": {"type": "LineString", "coordinates": [[-121.8936759047264, 37.448077599697115], [-121.89366950512832, 37.44807510001268]]}, "properties": {"type": "Main", "diameter": "8", "material": "Polyvinly Chloride", "up_elev": "Not Available", "down_elev": "Not Available", "vert_dat": "Not Available", "slope": "Not Available", "owner": "City", "owner_id": "45951-33674", "install_da": "01/01/1995", "other": "Not Available", "source_dat": "Not Available", "transfer_i": "Not Available", "load_date": "2022-06-22", "Shape_Leng": 0.793954664873}}, {"type": "Feature", "geometry": {"type": "LineString", "coordinates": [[-121.89359941584796, 37.44823121597446], [-121.89359970513244, 37.44823039979115], [-121.89361230490263, 37.44819900010442], [-121.89362630514636, 37.448168100340794], [-121.89364150464087, 37.448137500098305], [-121.89365810460907, 37.448107299935394], [-121.8936759047264, 37.448077599697115]]}, "properties": {"type": "Main", "diameter": "16", "material": "ACP", "up_elev": "Not Available", "down_elev": "Not Available", "vert_dat": "Not Available", "slope": "Not Available", "owner": "City", "owner_id": "33675-45951", "install_da": "Not Available", "other": "Not Available", "source_dat": "Not Available", "transfer_i": "Not Available", "load_date": "2022-06-22", "Shape_Leng": 32.2956701785}}, {"type": "Feature", "geometry": {"type": "LineString", "coordinates": [[-121.89282240459517, 37.44753770015626], [-121.89281930450913, 37.44750979976351], [-121.89281140472453, 37.447438900155326]]}, "properties": {"type": "Main", "diameter": "8", "material": "Polyvinly Chloride", "up_elev": "Not Available", "down_elev": "Not Available", "vert_dat": "Not Available", "slope": "Not Available", "owner": "City", "owner_id": "33670-33347", "install_da": "01/01/1995", "other": "Not Available", "source_dat": "Not Available", "transfer_i": "Not Available", "load_date": "2022-06-22", "Shape_Leng": 13.9074114819}}, {"type": "Feature", "geometry": {"type": "LineString", "coordinates": [[-121.89280690506327, 37.44739889986091], [-121.89280610466432, 37.44739120033482], [-121.89292650496355, 37.44738459982355]]}, "properties": {"type": "Main", "diameter": "8", "material": "Polyvinly Chloride", "up_elev": "Not Available", "down_elev": "Not Available", "vert_dat": "Not Available", "slope": "Not Available", "owner": "City", "owner_id": "33347-33349", "install_da": "01/01/1995", "other": "Not Available", "source_dat": "Not Available", "transfer_i": "Not Available", "load_date": "2022-06-22", "Shape_Leng": 14.5180864191}}, {"type": "Feature", "geometry": {"type": "LineString", "coordinates": [[-121.89676910518534, 37.446966400080775], [-121.89679640498686, 37.446980700198125]]}, "properties": {"type": "Main", "diameter": "8", "material": "ACP", "up_elev": "Not Available", "down_elev": "Not Available", "vert_dat": "Not Available", "slope": "Not Available", "owner": "City", "owner_id": "33368-33367", "install_da": "01/01/1980", "other": "Not Available", "source_dat": "Not Available", "transfer_i": "Not Available", "load_date": "2022-06-22", "Shape_Leng": 3.64087174073}}, {"type": "Feature", "geometry": {"type": "LineString", "coordinates": [[-121.8931120043748, 37.44681019977371], [-121.89311250473641, 37.44679880016315]]}, "properties": {"type": "Main", "diameter": "8", "material": "ACP", "up_elev": "Not Available", "down_elev": "Not Available", "vert_dat": "Not Available", "slope": "Not Available", "owner": "City", "owner_id": "45813-33298", "install_da": "01/01/1981", "other": "Not Available", "source_dat": "Not Available", "transfer_i": "Not Available", "load_date": "2022-06-22", "Shape_Leng": 1.59937020095}}, {"type": "Feature", "geometry": {"type": "LineString", "coordinates": [[-121.89292650496355, 37.44738459982355], [-121.89303340448237, 37.44737880021657]]}, "properties": {"type": "Main", "diameter": "8", "material": "Polyvinly Chloride", "up_elev": "Not Available", "down_elev": "Not Available", "vert_dat": "Not Available", "slope": "Not Available", "owner": "City", "owner_id": "33347-33349", "install_da": "01/01/1995", "other": "Not Available", "source_dat": "Not Available", "transfer_i": "Not Available", "load_date": "2022-06-22", "Shape_Leng": 11.9277531078}}, {"type": "Feature", "geometry": {"type": "LineString", "coordinates": [[-121.89310230436634, 37.44703630024912], [-121.89312180499455, 37.44703529964824]]}, "properties": {"type": "Main", "diameter": "16", "material": "ACP", "up_elev": "Not Available", "down_elev": "Not Available", "vert_dat": "Not Available", "slope": "Not Available", "owner": "City", "owner_id": "45813-33302", "install_da": "01/01/1981", "other": "Not Available", "source_dat": "Not Available", "transfer_i": "Not Available", "load_date": "2022-06-22", "Shape_Leng": 2.17532910875}}, {"type": "Feature", "geometry": {"type": "LineString", "coordinates": [[-121.9013402912862, 37.44733355236202], [-121.90133510523083, 37.44727139971566]]}, "properties": {"type": "Main", "diameter": "10", "material": "Polyvinly Chloride", "up_elev": "Not Available", "down_elev": "Not Available", "vert_dat": "Not Available", "slope": "Not Available", "owner": "City", "owner_id": "33445-33512", "install_da": "01/01/1988", "other": "Not Available", "source_dat": "Not Available", "transfer_i": "Not Available", "load_date": "2022-06-22", "Shape_Leng": 32.6718525935}}, {"type": "Feature", "geometry": {"type": "LineString", "coordinates": [[-121.89890772598834, 37.44745956273128], [-121.8988433043967, 37.447201200229266]]}, "properties": {"type": "Main", "diameter": "8", "material": "ACP", "up_elev": "Not Available", "down_elev": "Not Available", "vert_dat": "Not Available", "slope": "Not Available", "owner": "City", "owner_id": "45716-33363", "install_da": "01/01/1980", "other": "Not Available", "source_dat": "Not Available", "transfer_i": "Not Available", "load_date": "2022-06-22", "Shape_Leng": 38.0641952149}}, {"type": "Feature", "geometry": {"type": "LineString", "coordinates": [[-121.89493110450327, 37.44777150006017], [-121.89490280487686, 37.44765819997927]]}, "properties": {"type": "Main", "diameter": "6", "material": "ACP", "up_elev": "Not Available", "down_elev": "Not Available", "vert_dat": "Not Available", "slope": "Not Available", "owner": "City", "owner_id": "45974-33598", "install_da": "01/01/1980", "other": "Not Available", "source_dat": "Not Available", "transfer_i": "Not Available", "load_date": "2022-06-22", "Shape_Leng": 16.1959392903}}, {"type": "Feature", "geometry": {"type": "LineString", "coordinates": [[-121.89791980484358, 37.44729769981206], [-121.89784880469846, 37.447308899655056]]}, "properties": {"type": "Main", "diameter": "8", "material": "ACP", "up_elev": "Not Available", "down_elev": "Not Available", "vert_dat": "Not Available", "slope": "Not Available", "owner": "City", "owner_id": "33361-46016", "install_da": "01/01/1980", "other": "Not Available", "source_dat": "Not Available", "transfer_i": "Not Available", "load_date": "2022-06-22", "Shape_Leng": 8.0582026435}}, {"type": "Feature", "geometry": {"type": "LineString", "coordinates": [[-121.8973842050166, 37.44738260005748], [-121.8972747048751, 37.44739989974369]]}, "properties": {"type": "Main", "diameter": "8", "material": "ACP", "up_elev": "Not Available", "down_elev": "Not Available", "vert_dat": "Not Available", "slope": "Not Available", "owner": "City", "owner_id": "46016-33359", "install_da": "01/01/1980", "other": "Not Available", "source_dat": "Not Available", "transfer_i": "Not Available", "load_date": "2022-06-22", "Shape_Leng": 12.4285128117}}, {"type": "Feature", "geometry": {"type": "LineString", "coordinates": [[-121.9010059050185, 37.447029800265796], [-121.90056840481387, 37.44705440021064]]}, "properties": {"type": "Main", "diameter": "6", "material": "Polyvinly Chloride", "up_elev": "Not Available", "down_elev": "Not Available", "vert_dat": "Not Available", "slope": "Not Available", "owner": "City", "owner_id": "33512-60158", "install_da": "01/01/1988", "other": "Not Available", "source_dat": "Not Available", "transfer_i": "Not Available", "load_date": "2022-06-22", "Shape_Leng": 48.8242941135}}, {"type": "Feature", "geometry": {"type": "LineString", "coordinates": [[-121.89323440522212, 37.447367800075405], [-121.89356210524791, 37.44734989988114], [-121.89367270492737, 37.44734389986687], [-121.89371350461094, 37.4473478002685]]}, "properties": {"type": "Main", "diameter": "8", "material": "Polyvinly Chloride", "up_elev": "Not Available", "down_elev": "Not Available", "vert_dat": "Not Available", "slope": "Not Available", "owner": "City", "owner_id": "33347-33349", "install_da": "01/01/1995", "other": "Not Available", "source_dat": "Not Available", "transfer_i": "Not Available", "load_date": "2022-06-22", "Shape_Leng": 53.4808620685}}, {"type": "Feature", "geometry": {"type": "LineString", "coordinates": [[-121.89287530458562, 37.448012600030125], [-121.89285200498209, 37.447802899926316]]}, "properties": {"type": "Main", "diameter": "8", "material": "Polyvinly Chloride", "up_elev": "Not Available", "down_elev": "Not Available", "vert_dat": "Not Available", "slope": "Not Available", "owner": "City", "owner_id": "33670-33347", "install_da": "01/01/1995", "other": "Not Available", "source_dat": "Not Available", "transfer_i": "Not Available", "load_date": "2022-06-22", "Shape_Leng": 29.517773843}}, {"type": "Feature", "geometry": {"type": "LineString", "coordinates": [[-121.89490280487686, 37.44765819997927], [-121.89487120484014, 37.447485900313524], [-121.89486920519036, 37.44747339965218], [-121.8948677050038, 37.447460799856394], [-121.89486680489188, 37.44744820005847], [-121.89486640514156, 37.447435499699665], [-121.89486650485458, 37.44742289989749], [-121.89486720464221, 37.44741030009317], [-121.89486840479137, 37.44739770028679], [-121.89487010440392, 37.44738509976502], [-121.89487240498939, 37.44737259980005], [-121.89487520503809, 37.44736019967866], [-121.89487850455014, 37.44734790011415], [-121.89488240503509, 37.4473355998344], [-121.89488670437206, 37.44732349995733], [-121.89489160468193, 37.447311499924055], [-121.89489700445506, 37.44729959973459], [-121.89490290458988, 37.44728789994807], [-121.8949093050863, 37.44727630000547], [-121.89491620504599, 37.44726489975277], [-121.89492350475598, 37.447253699903186], [-121.89493130482757, 37.44724269974368], [-121.89493960436249, 37.44723199983322], [-121.89494830454603, 37.44722139976719], [-121.89495750509117, 37.44721109995051], [-121.89496710448834, 37.447201099670174], [-121.89496640470071, 37.447162900041825]]}, "properties": {"type": "Main", "diameter": "6", "material": "ACP", "up_elev": "Not Available", "down_elev": "Not Available", "vert_dat": "Not Available", "slope": "Not Available", "owner": "City", "owner_id": "33598-62120", "install_da": "01/01/1980", "other": "Not Available", "source_dat": "Not Available", "transfer_i": "Not Available", "load_date": "2022-06-22", "Shape_Leng": 72.2555988677}}, {"type": "Feature", "geometry": {"type": "LineString", "coordinates": [[-121.89883070462652, 37.44715149977182], [-121.89828740444102, 37.447238700203876]]}, "properties": {"type": "Main", "diameter": "8", "material": "ACP", "up_elev": "Not Available", "down_elev": "Not Available", "vert_dat": "Not Available", "slope": "Not Available", "owner": "City", "owner_id": "46014-33361", "install_da": "01/01/1980", "other": "Not Available", "source_dat": "Not Available", "transfer_i": "Not Available", "load_date": "2022-06-22", "Shape_Leng": 61.7034471305}}, {"type": "Feature", "geometry": {"type": "LineString", "coordinates": [[-121.89619360488848, 37.44757140013103], [-121.89620910442041, 37.447568899716494]]}, "properties": {"type": "Main", "diameter": "6", "material": "ACP", "up_elev": "Not Available", "down_elev": "Not Available", "vert_dat": "Not Available", "slope": "Not Available", "owner": "City", "owner_id": "45715-62107", "install_da": "01/01/1980", "other": "Not Available", "source_dat": "Not Available", "transfer_i": "Not Available", "load_date": "2022-06-22", "Shape_Leng": 1.76066053494}}, {"type": "Feature", "geometry": {"type": "LineString", "coordinates": [[-121.89937820443608, 37.447063600315474], [-121.89897370474169, 37.44712850024777]]}, "properties": {"type": "Main", "diameter": "6", "material": "ACP", "up_elev": "Not Available", "down_elev": "Not Available", "vert_dat": "Not Available", "slope": "Not Available", "owner": "City", "owner_id": "33516-33364", "install_da": "01/01/1980", "other": "Not Available", "source_dat": "Not Available", "transfer_i": "Not Available", "load_date": "2022-06-22", "Shape_Leng": 45.9390228856}}, {"type": "Feature", "geometry": {"type": "LineString", "coordinates": [[-121.90056840481387, 37.44705440021064], [-121.90034840470588, 37.4470667996695]]}, "properties": {"type": "Main", "diameter": "6", "material": "Polyvinly Chloride", "up_elev": "Not Available", "down_elev": "Not Available", "vert_dat": "Not Available", "slope": "Not Available", "owner": "City", "owner_id": "33512-60158", "install_da": "01/01/1988", "other": "Not Available", "source_dat": "Not Available", "transfer_i": "Not Available", "load_date": "2022-06-22", "Shape_Leng": 24.5519352402}}, {"type": "Feature", "geometry": {"type": "LineString", "coordinates": [[-121.89582720454194, 37.447629400310284], [-121.89598950496097, 37.447603700115906]]}, "properties": {"type": "Main", "diameter": "6", "material": "ACP", "up_elev": "Not Available", "down_elev": "Not Available", "vert_dat": "Not Available", "slope": "Not Available", "owner": "City", "owner_id": "45715-62107", "install_da": "01/01/1980", "other": "Not Available", "source_dat": "Not Available", "transfer_i": "Not Available", "load_date": "2022-06-22", "Shape_Leng": 18.423073817}}, {"type": "Feature", "geometry": {"type": "LineString", "coordinates": [[-121.9002812044344, 37.44677709996124], [-121.90028620445729, 37.44683699997738]]}, "properties": {"type": "Main", "diameter": "12", "material": "ACP", "up_elev": "Not Available", "down_elev": "Not Available", "vert_dat": "Not Available", "slope": "Not Available", "owner": "City", "owner_id": "45751-45743", "install_da": "01/01/1981", "other": "Not Available", "source_dat": "Not Available", "transfer_i": "Not Available", "load_date": "2022-06-22", "Shape_Leng": 8.41732289277}}, {"type": "Feature", "geometry": {"type": "LineString", "coordinates": [[-121.89224700490955, 37.44709209995091], [-121.89249060465842, 37.447070100295896], [-121.89310230436634, 37.44703630024912]]}, "properties": {"type": "Main", "diameter": "16", "material": "ACP", "up_elev": "Not Available", "down_elev": "Not Available", "vert_dat": "Not Available", "slope": "Not Available", "owner": "City", "owner_id": "33301-45813", "install_da": "01/01/1981", "other": "Not Available", "source_dat": "Not Available", "transfer_i": "Not Available", "load_date": "2022-06-22", "Shape_Leng": 95.5511105105}}, {"type": "Feature", "geometry": {"type": "LineString", "coordinates": [[-121.90027000513776, 37.44683790002138], [-121.90028620445729, 37.44683699997738]]}, "properties": {"type": "Main", "diameter": "6", "material": "ACP", "up_elev": "Not Available", "down_elev": "Not Available", "vert_dat": "Not Available", "slope": "Not Available", "owner": "City", "owner_id": "33516-45743", "install_da": "01/01/1980", "other": "Not Available", "source_dat": "Not Available", "transfer_i": "Not Available", "load_date": "2022-06-22", "Shape_Leng": 1.80771052087}}, {"type": "Feature", "geometry": {"type": "LineString", "coordinates": [[-121.89285200498209, 37.447802899926316], [-121.89284530444837, 37.447742900125206]]}, "properties": {"type": "Main", "diameter": "8", "material": "Polyvinly Chloride", "up_elev": "Not Available", "down_elev": "Not Available", "vert_dat": "Not Available", "slope": "Not Available", "owner": "City", "owner_id": "33670-33347", "install_da": "01/01/1995", "other": "Not Available", "source_dat": "Not Available", "transfer_i": "Not Available", "load_date": "2022-06-22", "Shape_Leng": 8.44600116777}}, {"type": "Feature", "geometry": {"type": "LineString", "coordinates": [[-121.89828740444102, 37.447238700203876], [-121.89791980484358, 37.44729769981206]]}, "properties": {"type": "Main", "diameter": "8", "material": "ACP", "up_elev": "Not Available", "down_elev": "Not Available", "vert_dat": "Not Available", "slope": "Not Available", "owner": "City", "owner_id": "46014-33361", "install_da": "01/01/1980", "other": "Not Available", "source_dat": "Not Available", "transfer_i": "Not Available", "load_date": "2022-06-22", "Shape_Leng": 41.7488419749}}, {"type": "Feature", "geometry": {"type": "LineString", "coordinates": [[-121.90105230479956, 37.447027199987005], [-121.9010059050185, 37.447029800265796]]}, "properties": {"type": "Main", "diameter": "6", "material": "Polyvinly Chloride", "up_elev": "Not Available", "down_elev": "Not Available", "vert_dat": "Not Available", "slope": "Not Available", "owner": "City", "owner_id": "33512-60158", "install_da": "01/01/1988", "other": "Not Available", "source_dat": "Not Available", "transfer_i": "Not Available", "load_date": "2022-06-22", "Shape_Leng": 5.17805216356}}]}