{"type": "FeatureCollection", "features": [{"type": "Feature", "geometry": {"type": "LineString", "coordinates": [[-121.89338200471155, 37.44733189983685], [-121.89338440500995, 37.447359599891264]]}, "properties": {"type": "Service", "diameter": "Not Available", "material": "Unknown", "up_elev": "Not Available", "down_elev": "Not Available", "vert_dat": "Not Available", "slope": "Not Available", "owner": "City", "owner_id": "Not Available", "install_da": "Not Available", "other": "Not Available", "source_dat": "Not Available", "load_date": "2022-06-22", "Shape_Leng": 3.89318016631}}, {"type": "Feature", "geometry": {"type": "LineString", "coordinates": [[-121.89537680452986, 37.44759199966368], [-121.89540290508043, 37.447696700316854]]}, "properties": {"type": "Service", "diameter": "Not Available", "material": "Unknown", "up_elev": "Not Available", "down_elev": "Not Available", "vert_dat": "Not Available", "slope": "Not Available", "owner": "City", "owner_id": "Not Available", "install_da": "Not Available", "other": "Not Available", "source_dat": "Not Available", "load_date": "2022-06-22", "Shape_Leng": 14.9655544188}}, {"type": "Feature", "geometry": {"type": "LineString", "coordinates": [[-121.9003917044009, 37.4471652000648], [-121.90038160464212, 37.447162400098854]]}, "properties": {"type": "Service", "diameter": "Not Available", "material": "Unknown", "up_elev": "Not Available", "down_elev": "Not Available", "vert_dat": "Not Available", "slope": "Not Available", "owner": "City", "owner_id": "Not Available", "install_da": "Not Available", "other": "Not Available", "source_dat": "Not Available", "load_date": "2022-06-22", "Shape_Leng": 1.19087583249}}, {"type": "Feature", "geometry": {"type": "LineString", "coordinates": [[-121.9013692043807, 37.44709079981264], [-121.9013201051622, 37.447093400089216]]}, "properties": {"type": "Service", "diameter": "Not Available", "material": "Unknown", "up_elev": "Not Available", "down_elev": "Not Available", "vert_dat": "Not Available", "slope": "Not Available", "owner": "City", "owner_id": "Not Available", "install_da": "Not Available", "other": "Not Available", "source_dat": "Not Available", "load_date": "2022-06-22", "Shape_Leng": 5.47784717364}}, {"type": "Feature", "geometry": {"type": "LineString", "coordinates": [[-121.89368920518255, 37.448118100278464], [-121.89365840464637, 37.448106899843395]]}, "properties": {"type": "Service", "diameter": "Not Available", "material": "Unknown", "up_elev": "Not Available", "down_elev": "Not Available", "vert_dat": "Not Available", "slope": "Not Available", "owner": "City", "owner_id": "Not Available", "install_da": "Not Available", "other": "Not Available", "source_dat": "Not Available", "load_date": "2022-06-22", "Shape_Leng": 3.77126688852}}, {"type": "Feature", "geometry": {"type": "LineString", "coordinates": [[-121.89337220499007, 37.44733329981667], [-121.89338200471155, 37.44733189983685]]}, "properties": {"type": "Service", "diameter": "Not Available", "material": "Unknown", "up_elev": "Not Available", "down_elev": "Not Available", "vert_dat": "Not Available", "slope": "Not Available", "owner": "City", "owner_id": "Not Available", "install_da": "Not Available", "other": "Not Available", "source_dat": "Not Available", "load_date": "2022-06-22", "Shape_Leng": 1.10842072355}}, {"type": "Feature", "geometry": {"type": "LineString", "coordinates": [[-121.89371210503575, 37.44728630027583], [-121.89373440481438, 37.447280900044454]]}, "properties": {"type": "Service", "diameter": "Not Available", "material": "Unknown", "up_elev": "Not Available", "down_elev": "Not Available", "vert_dat": "Not Available", "slope": "Not Available", "owner": "City", "owner_id": "Not Available", "install_da": "Not Available", "other": "Not Available", "source_dat": "Not Available", "load_date": "2022-06-22", "Shape_Leng": 2.5953153189}}, {"type": "Feature", "geometry": {"type": "LineString", "coordinates": [[-121.89311720472195, 37.44692769967488], [-121.89310700525019, 37.44692740013604]]}, "properties": {"type": "Service", "diameter": "Not Available", "material": "Unknown", "up_elev": "Not Available", "down_elev": "Not Available", "vert_dat": "Not Available", "slope": "Not Available", "owner": "City", "owner_id": "Not Available", "install_da": "Not Available", "other": "Not Available", "source_dat": "Not Available", "load_date": "2022-06-22", "Shape_Leng": 1.13617655398}}, {"type": "Feature", "geometry": {"type": "LineString", "coordinates": [[-121.90035090471733, 37.44677610007011], [-121.90028120443436, 37.44677709996129]]}, "properties": {"type": "Service", "diameter": "Not Available", "material": "Unknown", "up_elev": "Not Available", "down_elev": "Not Available", "vert_dat": "Not Available", "slope": "Not Available", "owner": "City", "owner_id": "Not Available", "install_da": "Not Available", "other": "Not Available", "source_dat": "Not Available", "load_date": "2022-06-22", "Shape_Leng": 7.76026655696}}, {"type": "Feature", "geometry": {"type": "LineString", "coordinates": [[-121.89950190514561, 37.447074900039645], [-121.8994943045, 37.44705070019914]]}, "properties": {"type": "Service", "diameter": "Not Available", "material": "Unknown", "up_elev": "Not Available", "down_elev": "Not Available", "vert_dat": "Not Available", "slope": "Not Available", "owner": "City", "owner_id": "Not Available", "install_da": "Not Available", "other": "Not Available", "source_dat": "Not Available", "load_date": "2022-06-22", "Shape_Leng": 3.49709757738}}, {"type": "Feature", "geometry": {"type": "LineString", "coordinates": [[-121.89324320511867, 37.44746980022018], [-121.89323440522213, 37.447367800075384]]}, "properties": {"type": "Service", "diameter": "Not Available", "material": "Unknown", "up_elev": "Not Available", "down_elev": "Not Available", "vert_dat": "Not Available", "slope": "Not Available", "owner": "City", "owner_id": "Not Available", "install_da": "Not Available", "other": "Not Available", "source_dat": "Not Available", "load_date": "2022-06-22", "Shape_Leng": 14.3356088342}}, {"type": "Feature", "geometry": {"type": "LineString", "coordinates": [[-121.89375770441788, 37.44797660025613], [-121.89375160485713, 37.4479736997625]]}, "properties": {"type": "Service", "diameter": "Not Available", "material": "Unknown", "up_elev": "Not Available", "down_elev": "Not Available", "vert_dat": "Not Available", "slope": "Not Available", "owner": "City", "owner_id": "Not Available", "install_da": "Not Available", "other": "Not Available", "source_dat": "Not Available", "load_date": "2022-06-22", "Shape_Leng": 0.79148334599}}, {"type": "Feature", "geometry": {"type": "LineString", "coordinates": [[-121.89414180516876, 37.4472158996852], [-121.89400130506506, 37.4472198000935]]}, "properties": {"type": "Service", "diameter": "Not Available", "material": "Unknown", "up_elev": "Not Available", "down_elev": "Not Available", "vert_dat": "Not Available", "slope": "Not Available", "owner": "City", "owner_id": "Not Available", "install_da": "Not Available", "other": "Not Available", "source_dat": "Not Available", "load_date": "2022-06-22", "Shape_Leng": 15.6499588425}}, {"type": "Feature", "geometry": {"type": "LineString", "coordinates": [[-121.90077640522638, 37.447074900039645], [-121.9007736051776, 37.44704290007799]]}, "properties": {"type": "Service", "diameter": "Not Available", "material": "Unknown", "up_elev": "Not Available", "down_elev": "Not Available", "vert_dat": "Not Available", "slope": "Not Available", "owner": "City", "owner_id": "Not Available", "install_da": "Not Available", "other": "Not Available", "source_dat": "Not Available", "load_date": "2022-06-22", "Shape_Leng": 4.4977136987}}, {"type": "Feature", "geometry": {"type": "LineString", "coordinates": [[-121.89272770509626, 37.44781169984562], [-121.89272560483509, 37.44780420005229]]}, "properties": {"type": "Service", "diameter": "Not Available", "material": "Unknown", "up_elev": "Not Available", "down_elev": "Not Available", "vert_dat": "Not Available", "slope": "Not Available", "owner": "City", "owner_id": "Not Available", "install_da": "Not Available", "other": "Not Available", "source_dat": "Not Available", "load_date": "2022-06-22", "Shape_Leng": 1.07727666101}}, {"type": "Feature", "geometry": {"type": "LineString", "coordinates": [[-121.8996482047728, 37.44704460031476], [-121.89961540458677, 37.44699500031265]]}, "properties": {"type": "Service", "diameter": "Not Available", "material": "Unknown", "up_elev": "Not Available", "down_elev": "Not Available", "vert_dat": "Not Available", "slope": "Not Available", "owner": "City", "owner_id": "Not Available", "install_da": "Not Available", "other": "Not Available", "source_dat": "Not Available", "load_date": "2022-06-22", "Shape_Leng": 7.85492481112}}, {"type": "Feature", "geometry": {"type": "LineString", "coordinates": [[-121.89854820513091, 37.44709039971525], [-121.89857400474591, 37.447192699775975]]}, "properties": {"type": "Service", "diameter": "Not Available", "material": "Unknown", "up_elev": "Not Available", "down_elev": "Not Available", "vert_dat": "Not Available", "slope": "Not Available", "owner": "City", "owner_id": "Not Available", "install_da": "Not Available", "other": "Not Available", "source_dat": "Not Available", "load_date": "2022-06-22", "Shape_Leng": 14.6287931407}}, {"type": "Feature", "geometry": {"type": "LineString", "coordinates": [[-121.89484650476308, 37.447568899716465], [-121.89488560483416, 37.447564299695294]]}, "properties": {"type": "Service", "diameter": "Not Available", "material": "Unknown", "up_elev": "Not Available", "down_elev": "Not Available", "vert_dat": "Not Available", "slope": "Not Available", "owner": "City", "owner_id": "Not Available", "install_da": "Not Available", "other": "Not Available", "source_dat": "Not Available", "load_date": "2022-06-22", "Shape_Leng": 4.40013088005}}, {"type": "Feature", "geometry": {"type": "LineString", "coordinates": [[-121.89482970447064, 37.4474925999482], [-121.8948630050182, 37.447492400257204]]}, "properties": {"type": "Service", "diameter": "Not Available", "material": "Unknown", "up_elev": "Not Available", "down_elev": "Not Available", "vert_dat": "Not Available", "slope": "Not Available", "owner": "City", "owner_id": "Not Available", "install_da": "Not Available", "other": "Not Available", "source_dat": "Not Available", "load_date": "2022-06-22", "Shape_Leng": 3.70710574662}}, {"type": "Feature", "geometry": {"type": "LineString", "coordinates": [[-121.89689240524635, 37.446961399924426], [-121.89679640498686, 37.4469807001981]]}, "properties": {"type": "Service", "diameter": "Not Available", "material": "Unknown", "up_elev": "Not Available", "down_elev": "Not Available", "vert_dat": "Not Available", "slope": "Not Available", "owner": "City", "owner_id": "Not Available", "install_da": "Not Available", "other": "Not Available", "source_dat": "Not Available", "load_date": "2022-06-22", "Shape_Leng": 11.0240226478}}, {"type": "Feature", "geometry": {"type": "LineString", "coordinates": [[-121.90082060503329, 37.44693800024375], [-121.9008154046861, 37.44693829978246]]}, "properties": {"type": "Service", "diameter": "Not Available", "material": "Unknown", "up_elev": "Not Available", "down_elev": "Not Available", "vert_dat": "Not Available", "slope": "Not Available", "owner": "City", "owner_id": "Not Available", "install_da": "Not Available", "other": "Not Available", "source_dat": "Not Available", "load_date": "2022-06-22", "Shape_Leng": 0.580421579313}}, {"type": "Feature", "geometry": {"type": "LineString", "coordinates": [[-121.89372320461938, 37.44728360016014], [-121.89371350461091, 37.44734780026845]]}, "properties": {"type": "Service", "diameter": "Not Available", "material": "Unknown", "up_elev": "Not Available", "down_elev": "Not Available", "vert_dat": "Not Available", "slope": "Not Available", "owner": "City", "owner_id": "Not Available", "install_da": "Not Available", "other": "Not Available", "source_dat": "Not Available", "load_date": "2022-06-22", "Shape_Leng": 9.06643103395}}, {"type": "Feature", "geometry": {"type": "LineString", "coordinates": [[-121.90049220521988, 37.446633900009246], [-121.90049150453399, 37.44662500010478]]}, "properties": {"type": "Service", "diameter": "Not Available", "material": "Unknown", "up_elev": "Not Available", "down_elev": "Not Available", "vert_dat": "Not Available", "slope": "Not Available", "owner": "City", "owner_id": "Not Available", "install_da": "Not Available", "other": "Not Available", "source_dat": "Not Available", "load_date": "2022-06-22", "Shape_Leng": 1.25033532071}}, {"type": "Feature", "geometry": {"type": "LineString", "coordinates": [[-121.89303820507922, 37.4468156998855], [-121.89303850511654, 37.44681889996329], [-121.89302660513398, 37.44681949975499], [-121.89302630509667, 37.4468156998855]]}, "properties": {"type": "Service", "diameter": "Not Available", "material": "Unknown", "up_elev": "Not Available", "down_elev": "Not Available", "vert_dat": "Not Available", "slope": "Not Available", "owner": "City", "owner_id": "Not Available", "install_da": "Not Available", "other": "Not Available", "source_dat": "Not Available", "load_date": "2022-06-22", "Shape_Leng": 2.31115413992}}, {"type": "Feature", "geometry": {"type": "LineString", "coordinates": [[-121.90049090445942, 37.44665940013027], [-121.90049220521988, 37.446633900009246]]}, "properties": {"type": "Service", "diameter": "Not Available", "material": "Unknown", "up_elev": "Not Available", "down_elev": "Not Available", "vert_dat": "Not Available", "slope": "Not Available", "owner": "City", "owner_id": "Not Available", "install_da": "Not Available", "other": "Not Available", "source_dat": "Not Available", "load_date": "2022-06-22", "Shape_Leng": 3.5784308384}}, {"type": "Feature", "geometry": {"type": "LineString", "coordinates": [[-121.89270360509377, 37.447446599676475], [-121.89281140472451, 37.447438900155355]]}, "properties": {"type": "Service", "diameter": "Not Available", "material": "Unknown", "up_elev": "Not Available", "down_elev": "Not Available", "vert_dat": "Not Available", "slope": "Not Available", "owner": "City", "owner_id": "Not Available", "install_da": "Not Available", "other": "Not Available", "source_dat": "Not Available", "load_date": "2022-06-22", "Shape_Leng": 12.0486653281}}, {"type": "Feature", "geometry": {"type": "LineString", "coordinates": [[-121.90137470476522, 37.44726930010076], [-121.90137350461598, 37.4472657997916]]}, "properties": {"type": "Service", "diameter": "Not Available", "material": "Unknown", "up_elev": "Not Available", "down_elev": "Not Available", "vert_dat": "Not Available", "slope": "Not Available", "owner": "City", "owner_id": "Not Available", "install_da": "Not Available", "other": "Not Available", "source_dat": "Not Available", "load_date": "2022-06-22", "Shape_Leng": 0.508658621748}}, {"type": "Feature", "geometry": {"type": "LineString", "coordinates": [[-121.89828850487723, 37.447242900148524], [-121.898287404441, 37.447238700203904]]}, "properties": {"type": "Service", "diameter": "Not Available", "material": "Unknown", "up_elev": "Not Available", "down_elev": "Not Available", "vert_dat": "Not Available", "slope": "Not Available", "owner": "City", "owner_id": "Not Available", "install_da": "Not Available", "other": "Not Available", "source_dat": "Not Available", "load_date": "2022-06-22", "Shape_Leng": 0.601505993286}}, {"type": "Feature", "geometry": {"type": "LineString", "coordinates": [[-121.8960829045977, 37.44690339994045], [-121.8960462048251, 37.446905500278824]]}, "properties": {"type": "Service", "diameter": "Not Available", "material": "Unknown", "up_elev": "Not Available", "down_elev": "Not Available", "vert_dat": "Not Available", "slope": "Not Available", "owner": "City", "owner_id": "Not Available", "install_da": "Not Available", "other": "Not Available", "source_dat": "Not Available", "load_date": "2022-06-22", "Shape_Leng": 4.09600090481}}, {"type": "Feature", "geometry": {"type": "LineString", "coordinates": [[-121.89570940486547, 37.44767370024722], [-121.89570610445513, 37.447650499766745]]}, "properties": {"type": "Service", "diameter": "Not Available", "material": "Unknown", "up_elev": "Not Available", "down_elev": "Not Available", "vert_dat": "Not Available", "slope": "Not Available", "owner": "City", "owner_id": "Not Available", "install_da": "Not Available", "other": "Not Available", "source_dat": "Not Available", "load_date": "2022-06-22", "Shape_Leng": 3.27378105132}}, {"type": "Feature", "geometry": {"type": "LineString", "coordinates": [[-121.89293510453577, 37.4474847998731], [-121.89292650496355, 37.44738459982353]]}, "properties": {"type": "Service", "diameter": "Not Available", "material": "Unknown", "up_elev": "Not Available", "down_elev": "Not Available", "vert_dat": "Not Available", "slope": "Not Available", "owner": "City", "owner_id": "Not Available", "install_da": "Not Available", "other": "Not Available", "source_dat": "Not Available", "load_date": "2022-06-22", "Shape_Leng": 14.0822758588}}, {"type": "Feature", "geometry": {"type": "LineString", "coordinates": [[-121.89768830450326, 37.44692230013078], [-121.89781790444933, 37.44692399965712]]}, "properties": {"type": "Service", "diameter": "Not Available", "material": "Unknown", "up_elev": "Not Available", "down_elev": "Not Available", "vert_dat": "Not Available", "slope": "Not Available", "owner": "City", "owner_id": "Not Available", "install_da": "Not Available", "other": "Not Available", "source_dat": "Not Available", "load_date": "2022-06-22", "Shape_Leng": 14.4289679438}}, {"type": "Feature", "geometry": {"type": "LineString", "coordinates": [[-121.89829500508658, 37.447268599753684], [-121.89828850487723, 37.447242900148524]]}, "properties": {"type": "Service", "diameter": "Not Available", "material": "Unknown", "up_elev": "Not Available", "down_elev": "Not Available", "vert_dat": "Not Available", "slope": "Not Available", "owner": "City", "owner_id": "Not Available", "install_da": "Not Available", "other": "Not Available", "source_dat": "Not Available", "load_date": "2022-06-22", "Shape_Leng": 3.67543320109}}, {"type": "Feature", "geometry": {"type": "LineString", "coordinates": [[-121.89309820445536, 37.446798300217715], [-121.89303318672077, 37.44664365495814]]}, "properties": {"type": "Service", "diameter": "2", "material": "Unknown", "up_elev": "Not Available", "down_elev": "Not Available", "vert_dat": "Not Available", "slope": "Not Available", "owner": "City", "owner_id": "Not Available", "install_da": "Not Available", "other": "Not Available", "source_dat": "Not Available", "load_date": "2022-06-22", "Shape_Leng": 93.5488451609}}, {"type": "Feature", "geometry": {"type": "LineString", "coordinates": [[-121.89938600450765, 37.44709449982221], [-121.89937820443603, 37.447063600315474]]}, "properties": {"type": "Service", "diameter": "Not Available", "material": "Unknown", "up_elev": "Not Available", "down_elev": "Not Available", "vert_dat": "Not Available", "slope": "Not Available", "owner": "City", "owner_id": "Not Available", "install_da": "Not Available", "other": "Not Available", "source_dat": "Not Available", "load_date": "2022-06-22", "Shape_Leng": 4.41875182528}}, {"type": "Feature", "geometry": {"type": "LineString", "coordinates": [[-121.89621320522963, 37.44758520019256], [-121.89620910442038, 37.447568899716465]]}, "properties": {"type": "Service", "diameter": "Not Available", "material": "Unknown", "up_elev": "Not Available", "down_elev": "Not Available", "vert_dat": "Not Available", "slope": "Not Available", "owner": "City", "owner_id": "Not Available", "install_da": "Not Available", "other": "Not Available", "source_dat": "Not Available", "load_date": "2022-06-22", "Shape_Leng": 2.33074229367}}, {"type": "Feature", "geometry": {"type": "LineString", "coordinates": [[-121.896769804973, 37.44747990031014], [-121.8967620049014, 37.44751000016767]]}, "properties": {"type": "Service", "diameter": "Not Available", "material": "Unknown", "up_elev": "Not Available", "down_elev": "Not Available", "vert_dat": "Not Available", "slope": "Not Available", "owner": "City", "owner_id": "Not Available", "install_da": "Not Available", "other": "Not Available", "source_dat": "Not Available", "load_date": "2022-06-22", "Shape_Leng": 4.30889372526}}, {"type": "Feature", "geometry": {"type": "LineString", "coordinates": [[-121.89311250473637, 37.44679880016318], [-121.89304707606065, 37.44664290524735]]}, "properties": {"type": "Service", "diameter": "6", "material": "Unknown", "up_elev": "Not Available", "down_elev": "Not Available", "vert_dat": "Not Available", "slope": "Not Available", "owner": "City", "owner_id": "Not Available", "install_da": "Not Available", "other": "Not Available", "source_dat": "Not Available", "load_date": "2022-06-22", "Shape_Leng": 98.6727225618}}, {"type": "Feature", "geometry": {"type": "LineString", "coordinates": [[-121.89285020475829, 37.447742500031275], [-121.8928453044484, 37.447742900125206]]}, "properties": {"type": "Service", "diameter": "Not Available", "material": "Unknown", "up_elev": "Not Available", "down_elev": "Not Available", "vert_dat": "Not Available", "slope": "Not Available", "owner": "City", "owner_id": "Not Available", "install_da": "Not Available", "other": "Not Available", "source_dat": "Not Available", "load_date": "2022-06-22", "Shape_Leng": 0.548377114198}}, {"type": "Feature", "geometry": {"type": "LineString", "coordinates": [[-121.89338200471155, 37.44733189983685], [-121.89339180443301, 37.447330400011275]]}, "properties": {"type": "Service", "diameter": "Not Available", "material": "Unknown", "up_elev": "Not Available", "down_elev": "Not Available", "vert_dat": "Not Available", "slope": "Not Available", "owner": "City", "owner_id": "Not Available", "install_da": "Not Available", "other": "Not Available", "source_dat": "Not Available", "load_date": "2022-06-22", "Shape_Leng": 1.11098555336}}, {"type": "Feature", "geometry": {"type": "LineString", "coordinates": [[-121.89270110508235, 37.44745719971057], [-121.89270360509377, 37.447446599676475]]}, "properties": {"type": "Service", "diameter": "Not Available", "material": "Unknown", "up_elev": "Not Available", "down_elev": "Not Available", "vert_dat": "Not Available", "slope": "Not Available", "owner": "City", "owner_id": "Not Available", "install_da": "Not Available", "other": "Not Available", "source_dat": "Not Available", "load_date": "2022-06-22", "Shape_Leng": 1.51213047631}}, {"type": "Feature", "geometry": {"type": "LineString", "coordinates": [[-121.89583390507563, 37.44765660031489], [-121.89582720454196, 37.44762940031031]]}, "properties": {"type": "Service", "diameter": "Not Available", "material": "Unknown", "up_elev": "Not Available", "down_elev": "Not Available", "vert_dat": "Not Available", "slope": "Not Available", "owner": "City", "owner_id": "Not Available", "install_da": "Not Available", "other": "Not Available", "source_dat": "Not Available", "load_date": "2022-06-22", "Shape_Leng": 3.88615490884}}, {"type": "Feature", "geometry": {"type": "LineString", "coordinates": [[-121.89302290497332, 37.44734939993937], [-121.89303100508225, 37.44735020013146]]}, "properties": {"type": "Service", "diameter": "Not Available", "material": "Unknown", "up_elev": "Not Available", "down_elev": "Not Available", "vert_dat": "Not Available", "slope": "Not Available", "owner": "City", "owner_id": "Not Available", "install_da": "Not Available", "other": "Not Available", "source_dat": "Not Available", "load_date": "2022-06-22", "Shape_Leng": 0.908653802086}}, {"type": "Feature", "geometry": {"type": "LineString", "coordinates": [[-121.89707240517139, 37.447327699897194], [-121.89709740438745, 37.4474279998686]]}, "properties": {"type": "Service", "diameter": "Not Available", "material": "Unknown", "up_elev": "Not Available", "down_elev": "Not Available", "vert_dat": "Not Available", "slope": "Not Available", "owner": "City", "owner_id": "Not Available", "install_da": "Not Available", "other": "Not Available", "source_dat": "Not Available", "load_date": "2022-06-22", "Shape_Leng": 14.3363938999}}, {"type": "Feature", "geometry": {"type": "LineString", "coordinates": [[-121.89272980445907, 37.44781920035135], [-121.89272770509626, 37.44781169984562]]}, "properties": {"type": "Service", "diameter": "Not Available", "material": "Unknown", "up_elev": "Not Available", "down_elev": "Not Available", "vert_dat": "Not Available", "slope": "Not Available", "owner": "City", "owner_id": "Not Available", "install_da": "Not Available", "other": "Not Available", "source_dat": "Not Available", "load_date": "2022-06-22", "Shape_Leng": 1.07735257528}}, {"type": "Feature", "geometry": {"type": "LineString", "coordinates": [[-121.90115980439303, 37.44706420010519], [-121.90115600451932, 37.44702129979304]]}, "properties": {"type": "Service", "diameter": "Not Available", "material": "Unknown", "up_elev": "Not Available", "down_elev": "Not Available", "vert_dat": "Not Available", "slope": "Not Available", "owner": "City", "owner_id": "Not Available", "install_da": "Not Available", "other": "Not Available", "source_dat": "Not Available", "load_date": "2022-06-22", "Shape_Leng": 6.03015448135}}, {"type": "Feature", "geometry": {"type": "LineString", "coordinates": [[-121.89310570448973, 37.44692790008059], [-121.89311720472195, 37.44692769967488]]}, "properties": {"type": "Service", "diameter": "Not Available", "material": "Unknown", "up_elev": "Not Available", "down_elev": "Not Available", "vert_dat": "Not Available", "slope": "Not Available", "owner": "City", "owner_id": "Not Available", "install_da": "Not Available", "other": "Not Available", "source_dat": "Not Available", "load_date": "2022-06-22", "Shape_Leng": 1.28050835691}}, {"type": "Feature", "geometry": {"type": "LineString", "coordinates": [[-121.89482710474623, 37.44740050024396], [-121.89486780471678, 37.44740299995087]]}, "properties": {"type": "Service", "diameter": "Not Available", "material": "Unknown", "up_elev": "Not Available", "down_elev": "Not Available", "vert_dat": "Not Available", "slope": "Not Available", "owner": "City", "owner_id": "Not Available", "install_da": "Not Available", "other": "Not Available", "source_dat": "Not Available", "load_date": "2022-06-22", "Shape_Leng": 4.54423731077}}, {"type": "Feature", "geometry": {"type": "LineString", "coordinates": [[-121.8979783049315, 37.447320299901065], [-121.89797060457289, 37.44728950033347]]}, "properties": {"type": "Service", "diameter": "Not Available", "material": "Unknown", "up_elev": "Not Available", "down_elev": "Not Available", "vert_dat": "Not Available", "slope": "Not Available", "owner": "City", "owner_id": "Not Available", "install_da": "Not Available", "other": "Not Available", "source_dat": "Not Available", "load_date": "2022-06-22", "Shape_Leng": 4.40285109806}}, {"type": "Feature", "geometry": {"type": "LineString", "coordinates": [[-121.89459720520377, 37.44784560010025], [-121.89459220518089, 37.447824300295466]]}, "properties": {"type": "Service", "diameter": "Not Available", "material": "Unknown", "up_elev": "Not Available", "down_elev": "Not Available", "vert_dat": "Not Available", "slope": "Not Available", "owner": "City", "owner_id": "Not Available", "install_da": "Not Available", "other": "Not Available", "source_dat": "Not Available", "load_date": "2022-06-22", "Shape_Leng": 3.03802289343}}, {"type": "Feature", "geometry": {"type": "LineString", "coordinates": [[-121.90035700517637, 37.446773800035174], [-121.90035090471733, 37.44677610007011]]}, "properties": {"type": "Service", "diameter": "Not Available", "material": "Unknown", "up_elev": "Not Available", "down_elev": "Not Available", "vert_dat": "Not Available", "slope": "Not Available", "owner": "City", "owner_id": "Not Available", "install_da": "Not Available", "other": "Not Available", "source_dat": "Not Available", "load_date": "2022-06-22", "Shape_Leng": 0.751786577292}}, {"type": "Feature", "geometry": {"type": "LineString", "coordinates": [[-121.89677710468301, 37.44727710019834], [-121.89689460522051, 37.44725730005875]]}, "properties": {"type": "Service", "diameter": "Not Available", "material": "Unknown", "up_elev": "Not Available", "down_elev": "Not Available", "vert_dat": "Not Available", "slope": "Not Available", "owner": "City", "owner_id": "Not Available", "install_da": "Not Available", "other": "Not Available", "source_dat": "Not Available", "load_date": "2022-06-22", "Shape_Leng": 13.371494222}}, {"type": "Feature", "geometry": {"type": "LineString", "coordinates": [[-121.89616760494918, 37.44746739964781], [-121.89619360488847, 37.447571400131054]]}, "properties": {"type": "Service", "diameter": "Not Available", "material": "Unknown", "up_elev": "Not Available", "down_elev": "Not Available", "vert_dat": "Not Available", "slope": "Not Available", "owner": "City", "owner_id": "Not Available", "install_da": "Not Available", "other": "Not Available", "source_dat": "Not Available", "load_date": "2022-06-22", "Shape_Leng": 14.8670506551}}, {"type": "Feature", "geometry": {"type": "LineString", "coordinates": [[-121.9010526048369, 37.44703099984586], [-121.90105230479959, 37.447027199987055]]}, "properties": {"type": "Service", "diameter": "Not Available", "material": "Unknown", "up_elev": "Not Available", "down_elev": "Not Available", "vert_dat": "Not Available", "slope": "Not Available", "owner": "City", "owner_id": "Not Available", "install_da": "Not Available", "other": "Not Available", "source_dat": "Not Available", "load_date": "2022-06-22", "Shape_Leng": 0.533845861844}}, {"type": "Feature", "geometry": {"type": "LineString", "coordinates": [[-121.89303820507922, 37.4468156998855], [-121.89303240465748, 37.44678739983766]]}, "properties": {"type": "Service", "diameter": "Not Available", "material": "Unknown", "up_elev": "Not Available", "down_elev": "Not Available", "vert_dat": "Not Available", "slope": "Not Available", "owner": "City", "owner_id": "Not Available", "install_da": "Not Available", "other": "Not Available", "source_dat": "Not Available", "load_date": "2022-06-22", "Shape_Leng": 4.02029179678}}, {"type": "Feature", "geometry": {"type": "LineString", "coordinates": [[-121.90137470476522, 37.44726930010076], [-121.9013351052308, 37.44727139971571]]}, "properties": {"type": "Service", "diameter": "Not Available", "material": "Unknown", "up_elev": "Not Available", "down_elev": "Not Available", "vert_dat": "Not Available", "slope": "Not Available", "owner": "City", "owner_id": "Not Available", "install_da": "Not Available", "other": "Not Available", "source_dat": "Not Available", "load_date": "2022-06-22", "Shape_Leng": 4.41801975995}}, {"type": "Feature", "geometry": {"type": "LineString", "coordinates": [[-121.90137000477964, 37.446993499767075], [-121.90135700436083, 37.44697779966581]]}, "properties": {"type": "Service", "diameter": "Not Available", "material": "Unknown", "up_elev": "Not Available", "down_elev": "Not Available", "vert_dat": "Not Available", "slope": "Not Available", "owner": "City", "owner_id": "Not Available", "install_da": "Not Available", "other": "Not Available", "source_dat": "Not Available", "load_date": "2022-06-22", "Shape_Leng": 2.63449232056}}, {"type": "Feature", "geometry": {"type": "LineString", "coordinates": [[-121.89663790444148, 37.44695069997379], [-121.8967691051854, 37.446966400080804]]}, "properties": {"type": "Service", "diameter": "Not Available", "material": "Unknown", "up_elev": "Not Available", "down_elev": "Not Available", "vert_dat": "Not Available", "slope": "Not Available", "owner": "City", "owner_id": "Not Available", "install_da": "Not Available", "other": "Not Available", "source_dat": "Not Available", "load_date": "2022-06-22", "Shape_Leng": 14.7701736276}}, {"type": "Feature", "geometry": {"type": "LineString", "coordinates": [[-121.89285200498206, 37.44735390012807], [-121.89285500445679, 37.44738850022302]]}, "properties": {"type": "Service", "diameter": "Not Available", "material": "Unknown", "up_elev": "Not Available", "down_elev": "Not Available", "vert_dat": "Not Available", "slope": "Not Available", "owner": "City", "owner_id": "Not Available", "install_da": "Not Available", "other": "Not Available", "source_dat": "Not Available", "load_date": "2022-06-22", "Shape_Leng": 4.86297660937}}, {"type": "Feature", "geometry": {"type": "LineString", "coordinates": [[-121.89921240507897, 37.44712329969706], [-121.89920440468306, 37.44709150016139]]}, "properties": {"type": "Service", "diameter": "Not Available", "material": "Unknown", "up_elev": "Not Available", "down_elev": "Not Available", "vert_dat": "Not Available", "slope": "Not Available", "owner": "City", "owner_id": "Not Available", "install_da": "Not Available", "other": "Not Available", "source_dat": "Not Available", "load_date": "2022-06-22", "Shape_Leng": 4.54687429216}}, {"type": "Feature", "geometry": {"type": "LineString", "coordinates": [[-121.89288110500738, 37.44774240018608], [-121.89285020475829, 37.447742500031275]]}, "properties": {"type": "Service", "diameter": "Not Available", "material": "Unknown", "up_elev": "Not Available", "down_elev": "Not Available", "vert_dat": "Not Available", "slope": "Not Available", "owner": "City", "owner_id": "Not Available", "install_da": "Not Available", "other": "Not Available", "source_dat": "Not Available", "load_date": "2022-06-22", "Shape_Leng": 3.43982849159}}, {"type": "Feature", "geometry": {"type": "LineString", "coordinates": [[-121.89340490456475, 37.447965600202885], [-121.89339690506714, 37.44801210009286]]}, "properties": {"type": "Service", "diameter": "Not Available", "material": "Unknown", "up_elev": "Not Available", "down_elev": "Not Available", "vert_dat": "Not Available", "slope": "Not Available", "owner": "City", "owner_id": "Not Available", "install_da": "Not Available", "other": "Not Available", "source_dat": "Not Available", "load_date": "2022-06-22", "Shape_Leng": 6.58063023763}}, {"type": "Feature", "geometry": {"type": "LineString", "coordinates": [[-121.89666330520451, 37.44712440014272], [-121.89681330499229, 37.446989600060256]]}, "properties": {"type": "Service", "diameter": "Not Available", "material": "Unknown", "up_elev": "Not Available", "down_elev": "Not Available", "vert_dat": "Not Available", "slope": "Not Available", "owner": "City", "owner_id": "Not Available", "install_da": "Not Available", "other": "Not Available", "source_dat": "Not Available", "load_date": "2022-06-22", "Shape_Leng": 25.2204568831}}, {"type": "Feature", "geometry": {"type": "LineString", "coordinates": [[-121.89291100453333, 37.44816099996167], [-121.89290110509886, 37.44816040018076]]}, "properties": {"type": "Service", "diameter": "Not Available", "material": "Unknown", "up_elev": "Not Available", "down_elev": "Not Available", "vert_dat": "Not Available", "slope": "Not Available", "owner": "City", "owner_id": "Not Available", "install_da": "Not Available", "other": "Not Available", "source_dat": "Not Available", "load_date": "2022-06-22", "Shape_Leng": 1.10520442}}, {"type": "Feature", "geometry": {"type": "LineString", "coordinates": [[-121.89324320511867, 37.44746980022018], [-121.8932531045531, 37.447468699779506]]}, "properties": {"type": "Service", "diameter": "Not Available", "material": "Unknown", "up_elev": "Not Available", "down_elev": "Not Available", "vert_dat": "Not Available", "slope": "Not Available", "owner": "City", "owner_id": "Not Available", "install_da": "Not Available", "other": "Not Available", "source_dat": "Not Available", "load_date": "2022-06-22", "Shape_Leng": 1.11274996797}}, {"type": "Feature", "geometry": {"type": "LineString", "coordinates": [[-121.89301570497635, 37.44678779993668], [-121.89302630509667, 37.4468156998855]]}, "properties": {"type": "Service", "diameter": "Not Available", "material": "Unknown", "up_elev": "Not Available", "down_elev": "Not Available", "vert_dat": "Not Available", "slope": "Not Available", "owner": "City", "owner_id": "Not Available", "install_da": "Not Available", "other": "Not Available", "source_dat": "Not Available", "load_date": "2022-06-22", "Shape_Leng": 4.08609153141}}, {"type": "Feature", "geometry": {"type": "LineString", "coordinates": [[-121.89577710460024, 37.44752840026416], [-121.89580320515084, 37.44763329998378]]}, "properties": {"type": "Service", "diameter": "Not Available", "material": "Unknown", "up_elev": "Not Available", "down_elev": "Not Available", "vert_dat": "Not Available", "slope": "Not Available", "owner": "City", "owner_id": "Not Available", "install_da": "Not Available", "other": "Not Available", "source_dat": "Not Available", "load_date": "2022-06-22", "Shape_Leng": 14.9929245305}}, {"type": "Feature", "geometry": {"type": "LineString", "coordinates": [[-121.89541290512615, 37.44772300026369], [-121.89540620459248, 37.447696199664215]]}, "properties": {"type": "Service", "diameter": "Not Available", "material": "Unknown", "up_elev": "Not Available", "down_elev": "Not Available", "vert_dat": "Not Available", "slope": "Not Available", "owner": "City", "owner_id": "Not Available", "install_da": "Not Available", "other": "Not Available", "source_dat": "Not Available", "load_date": "2022-06-22", "Shape_Leng": 3.83121119444}}, {"type": "Feature", "geometry": {"type": "LineString", "coordinates": [[-121.89437690505841, 37.447864199804265], [-121.89437820492063, 37.44784159987958]]}, "properties": {"type": "Service", "diameter": "Not Available", "material": "Unknown", "up_elev": "Not Available", "down_elev": "Not Available", "vert_dat": "Not Available", "slope": "Not Available", "owner": "City", "owner_id": "Not Available", "install_da": "Not Available", "other": "Not Available", "source_dat": "Not Available", "load_date": "2022-06-22", "Shape_Leng": 3.17220196201}}, {"type": "Feature", "geometry": {"type": "LineString", "coordinates": [[-121.89415610455144, 37.44675449970814], [-121.89396240441998, 37.44676749972201]]}, "properties": {"type": "Service", "diameter": "1", "material": "Unknown", "up_elev": "Not Available", "down_elev": "Not Available", "vert_dat": "Not Available", "slope": "Not Available", "owner": "City", "owner_id": "Not Available", "install_da": "Not Available", "other": "Not Available", "source_dat": "Not Available", "load_date": "2022-06-22", "Shape_Leng": 21.6395082782}}, {"type": "Feature", "geometry": {"type": "LineString", "coordinates": [[-121.8931109048369, 37.44679489973292], [-121.89309820445536, 37.446798300217715]]}, "properties": {"type": "Service", "diameter": "2", "material": "Unknown", "up_elev": "Not Available", "down_elev": "Not Available", "vert_dat": "Not Available", "slope": "Not Available", "owner": "City", "owner_id": "Not Available", "install_da": "Not Available", "other": "Not Available", "source_dat": "Not Available", "load_date": "2022-06-22", "Shape_Leng": 1.49203508179}}, {"type": "Feature", "geometry": {"type": "LineString", "coordinates": [[-121.89838480517402, 37.4472528997101], [-121.89837760517696, 37.44722419973095]]}, "properties": {"type": "Service", "diameter": "Not Available", "material": "Unknown", "up_elev": "Not Available", "down_elev": "Not Available", "vert_dat": "Not Available", "slope": "Not Available", "owner": "City", "owner_id": "Not Available", "install_da": "Not Available", "other": "Not Available", "source_dat": "Not Available", "load_date": "2022-06-22", "Shape_Leng": 4.10324114439}}, {"type": "Feature", "geometry": {"type": "LineString", "coordinates": [[-121.89598700494953, 37.44676939965803], [-121.89599440437252, 37.446773200243115]]}, "properties": {"type": "Service", "diameter": "Not Available", "material": "Unknown", "up_elev": "Not Available", "down_elev": "Not Available", "vert_dat": "Not Available", "slope": "Not Available", "owner": "City", "owner_id": "Not Available", "install_da": "Not Available", "other": "Not Available", "source_dat": "Not Available", "load_date": "2022-06-22", "Shape_Leng": 0.981052545661}}, {"type": "Feature", "geometry": {"type": "LineString", "coordinates": [[-121.89896340465859, 37.447025399903715], [-121.89898880452328, 37.44712609966454]]}, "properties": {"type": "Service", "diameter": "Not Available", "material": "Unknown", "up_elev": "Not Available", "down_elev": "Not Available", "vert_dat": "Not Available", "slope": "Not Available", "owner": "City", "owner_id": "Not Available", "install_da": "Not Available", "other": "Not Available", "source_dat": "Not Available", "load_date": "2022-06-22", "Shape_Leng": 14.4000237616}}, {"type": "Feature", "geometry": {"type": "LineString", "coordinates": [[-121.8975702047895, 37.447382299807295], [-121.89756310450545, 37.44735419966523]]}, "properties": {"type": "Service", "diameter": "Not Available", "material": "Unknown", "up_elev": "Not Available", "down_elev": "Not Available", "vert_dat": "Not Available", "slope": "Not Available", "owner": "City", "owner_id": "Not Available", "install_da": "Not Available", "other": "Not Available", "source_dat": "Not Available", "load_date": "2022-06-22", "Shape_Leng": 4.01859679018}}, {"type": "Feature", "geometry": {"type": "LineString", "coordinates": [[-121.90081800441052, 37.44693810009001], [-121.90082700463135, 37.447039899702034]]}, "properties": {"type": "Service", "diameter": "Not Available", "material": "Unknown", "up_elev": "Not Available", "down_elev": "Not Available", "vert_dat": "Not Available", "slope": "Not Available", "owner": "City", "owner_id": "Not Available", "install_da": "Not Available", "other": "Not Available", "source_dat": "Not Available", "load_date": "2022-06-22", "Shape_Leng": 14.309019005}}, {"type": "Feature", "geometry": {"type": "LineString", "coordinates": [[-121.89378280514354, 37.44798799968723], [-121.89375770441788, 37.44797660025613]]}, "properties": {"type": "Service", "diameter": "Not Available", "material": "Unknown", "up_elev": "Not Available", "down_elev": "Not Available", "vert_dat": "Not Available", "slope": "Not Available", "owner": "City", "owner_id": "Not Available", "install_da": "Not Available", "other": "Not Available", "source_dat": "Not Available", "load_date": "2022-06-22", "Shape_Leng": 3.2190738104}}, {"type": "Feature", "geometry": {"type": "LineString", "coordinates": [[-121.89518500523349, 37.44775670015501], [-121.89517890477444, 37.447732200286346]]}, "properties": {"type": "Service", "diameter": "Not Available", "material": "Unknown", "up_elev": "Not Available", "down_elev": "Not Available", "vert_dat": "Not Available", "slope": "Not Available", "owner": "City", "owner_id": "Not Available", "install_da": "Not Available", "other": "Not Available", "source_dat": "Not Available", "load_date": "2022-06-22", "Shape_Leng": 3.50177996193}}, {"type": "Feature", "geometry": {"type": "LineString", "coordinates": [[-121.90104990450112, 37.44705340032323], [-121.9010526048369, 37.44703099984586]]}, "properties": {"type": "Service", "diameter": "Not Available", "material": "Unknown", "up_elev": "Not Available", "down_elev": "Not Available", "vert_dat": "Not Available", "slope": "Not Available", "owner": "City", "owner_id": "Not Available", "install_da": "Not Available", "other": "Not Available", "source_dat": "Not Available", "load_date": "2022-06-22", "Shape_Leng": 3.15525168183}}, {"type": "Feature", "geometry": {"type": "LineString", "coordinates": [[-121.8955914048647, 37.44769210030344], [-121.89558540501687, 37.44766780010418]]}, "properties": {"type": "Service", "diameter": "Not Available", "material": "Unknown", "up_elev": "Not Available", "down_elev": "Not Available", "vert_dat": "Not Available", "slope": "Not Available", "owner": "City", "owner_id": "Not Available", "install_da": "Not Available", "other": "Not Available", "source_dat": "Not Available", "load_date": "2022-06-22", "Shape_Leng": 3.4721439658}}, {"type": "Feature", "geometry": {"type": "LineString", "coordinates": [[-121.90121750498037, 37.44689990032734], [-121.90121270438348, 37.44701809972388]]}, "properties": {"type": "Service", "diameter": "Not Available", "material": "Unknown", "up_elev": "Not Available", "down_elev": "Not Available", "vert_dat": "Not Available", "slope": "Not Available", "owner": "City", "owner_id": "Not Available", "install_da": "Not Available", "other": "Not Available", "source_dat": "Not Available", "load_date": "2022-06-22", "Shape_Leng": 16.5820134743}}, {"type": "Feature", "geometry": {"type": "LineString", "coordinates": [[-121.89323320507292, 37.4474708999476], [-121.89324320511867, 37.44746980022018]]}, "properties": {"type": "Service", "diameter": "Not Available", "material": "Unknown", "up_elev": "Not Available", "down_elev": "Not Available", "vert_dat": "Not Available", "slope": "Not Available", "owner": "City", "owner_id": "Not Available", "install_da": "Not Available", "other": "Not Available", "source_dat": "Not Available", "load_date": "2022-06-22", "Shape_Leng": 1.12382911401}}, {"type": "Feature", "geometry": {"type": "LineString", "coordinates": [[-121.90096730441076, 37.446929399914275], [-121.90097630463158, 37.44703139994353]]}, "properties": {"type": "Service", "diameter": "Not Available", "material": "Unknown", "up_elev": "Not Available", "down_elev": "Not Available", "vert_dat": "Not Available", "slope": "Not Available", "owner": "City", "owner_id": "Not Available", "install_da": "Not Available", "other": "Not Available", "source_dat": "Not Available", "load_date": "2022-06-22", "Shape_Leng": 14.3370501647}}, {"type": "Feature", "geometry": {"type": "LineString", "coordinates": [[-121.89290110509886, 37.44816040018076], [-121.89291990504115, 37.44802599991783]]}, "properties": {"type": "Service", "diameter": "Not Available", "material": "Unknown", "up_elev": "Not Available", "down_elev": "Not Available", "vert_dat": "Not Available", "slope": "Not Available", "owner": "City", "owner_id": "Not Available", "install_da": "Not Available", "other": "Not Available", "source_dat": "Not Available", "load_date": "2022-06-22", "Shape_Leng": 18.9611482794}}, {"type": "Feature", "geometry": {"type": "LineString", "coordinates": [[-121.89551080442412, 37.44757019984646], [-121.89553710440073, 37.44767539975644]]}, "properties": {"type": "Service", "diameter": "Not Available", "material": "Unknown", "up_elev": "Not Available", "down_elev": "Not Available", "vert_dat": "Not Available", "slope": "Not Available", "owner": "City", "owner_id": "Not Available", "install_da": "Not Available", "other": "Not Available", "source_dat": "Not Available", "load_date": "2022-06-22", "Shape_Leng": 15.038534765}}, {"type": "Feature", "geometry": {"type": "LineString", "coordinates": [[-121.89971990470548, 37.44690230020472], [-121.89964410486185, 37.44694650001276]]}, "properties": {"type": "Service", "diameter": "Not Available", "material": "Unknown", "up_elev": "Not Available", "down_elev": "Not Available", "vert_dat": "Not Available", "slope": "Not Available", "owner": "City", "owner_id": "Not Available", "install_da": "Not Available", "other": "Not Available", "source_dat": "Not Available", "load_date": "2022-06-22", "Shape_Leng": 10.4694245405}}, {"type": "Feature", "geometry": {"type": "LineString", "coordinates": [[-121.90038660466502, 37.44716380008188], [-121.90040750486843, 37.447063499756204]]}, "properties": {"type": "Service", "diameter": "Not Available", "material": "Unknown", "up_elev": "Not Available", "down_elev": "Not Available", "vert_dat": "Not Available", "slope": "Not Available", "owner": "City", "owner_id": "Not Available", "install_da": "Not Available", "other": "Not Available", "source_dat": "Not Available", "load_date": "2022-06-22", "Shape_Leng": 14.2548491891}}, {"type": "Feature", "geometry": {"type": "LineString", "coordinates": [[-121.89784690476165, 37.44689950022893], [-121.89781790444933, 37.44692399965712]]}, "properties": {"type": "Service", "diameter": "Not Available", "material": "Unknown", "up_elev": "Not Available", "down_elev": "Not Available", "vert_dat": "Not Available", "slope": "Not Available", "owner": "City", "owner_id": "Not Available", "install_da": "Not Available", "other": "Not Available", "source_dat": "Not Available", "load_date": "2022-06-22", "Shape_Leng": 4.71407678299}}, {"type": "Feature", "geometry": {"type": "LineString", "coordinates": [[-121.89738840464062, 37.44739970005243], [-121.89738420501665, 37.44738260005748]]}, "properties": {"type": "Service", "diameter": "Not Available", "material": "Unknown", "up_elev": "Not Available", "down_elev": "Not Available", "vert_dat": "Not Available", "slope": "Not Available", "owner": "City", "owner_id": "Not Available", "install_da": "Not Available", "other": "Not Available", "source_dat": "Not Available", "load_date": "2022-06-22", "Shape_Leng": 2.44285111292}}, {"type": "Feature", "geometry": {"type": "LineString", "coordinates": [[-121.89303180458285, 37.44681550019267], [-121.89303210462016, 37.44681920021577]]}, "properties": {"type": "Service", "diameter": "Not Available", "material": "Unknown", "up_elev": "Not Available", "down_elev": "Not Available", "vert_dat": "Not Available", "slope": "Not Available", "owner": "City", "owner_id": "Not Available", "install_da": "Not Available", "other": "Not Available", "source_dat": "Not Available", "load_date": "2022-06-22", "Shape_Leng": 0.519874021137}}, {"type": "Feature", "geometry": {"type": "LineString", "coordinates": [[-121.89898110506297, 37.4471578998986], [-121.89897370474168, 37.4471285002478]]}, "properties": {"type": "Service", "diameter": "Not Available", "material": "Unknown", "up_elev": "Not Available", "down_elev": "Not Available", "vert_dat": "Not Available", "slope": "Not Available", "owner": "City", "owner_id": "Not Available", "install_da": "Not Available", "other": "Not Available", "source_dat": "Not Available", "load_date": "2022-06-22", "Shape_Leng": 4.20380824025}}, {"type": "Feature", "geometry": {"type": "LineString", "coordinates": [[-121.89516760486643, 37.44762869996655], [-121.8951928044068, 37.44773000012599]]}, "properties": {"type": "Service", "diameter": "Not Available", "material": "Unknown", "up_elev": "Not Available", "down_elev": "Not Available", "vert_dat": "Not Available", "slope": "Not Available", "owner": "City", "owner_id": "Not Available", "install_da": "Not Available", "other": "Not Available", "source_dat": "Not Available", "load_date": "2022-06-22", "Shape_Leng": 14.4783549804}}, {"type": "Feature", "geometry": {"type": "LineString", "coordinates": [[-121.89599780449586, 37.447629699846274], [-121.8959913051848, 37.44760339986661]]}, "properties": {"type": "Service", "diameter": "Not Available", "material": "Unknown", "up_elev": "Not Available", "down_elev": "Not Available", "vert_dat": "Not Available", "slope": "Not Available", "owner": "City", "owner_id": "Not Available", "install_da": "Not Available", "other": "Not Available", "source_dat": "Not Available", "load_date": "2022-06-22", "Shape_Leng": 3.75800259586}}, {"type": "Feature", "geometry": {"type": "LineString", "coordinates": [[-121.89302560441074, 37.446788200035755], [-121.89303180458285, 37.44681550019267]]}, "properties": {"type": "Service", "diameter": "Not Available", "material": "Unknown", "up_elev": "Not Available", "down_elev": "Not Available", "vert_dat": "Not Available", "slope": "Not Available", "owner": "City", "owner_id": "Not Available", "install_da": "Not Available", "other": "Not Available", "source_dat": "Not Available", "load_date": "2022-06-22", "Shape_Leng": 3.88962651783}}, {"type": "Feature", "geometry": {"type": "LineString", "coordinates": [[-121.89501710471703, 37.44778259998713], [-121.8950111048692, 37.44775879975623]]}, "properties": {"type": "Service", "diameter": "Not Available", "material": "Unknown", "up_elev": "Not Available", "down_elev": "Not Available", "vert_dat": "Not Available", "slope": "Not Available", "owner": "City", "owner_id": "Not Available", "install_da": "Not Available", "other": "Not Available", "source_dat": "Not Available", "load_date": "2022-06-22", "Shape_Leng": 3.40337982829}}, {"type": "Feature", "geometry": {"type": "LineString", "coordinates": [[-121.89269890510819, 37.44754640026123], [-121.89282240459514, 37.44753770015623]]}, "properties": {"type": "Service", "diameter": "Not Available", "material": "Unknown", "up_elev": "Not Available", "down_elev": "Not Available", "vert_dat": "Not Available", "slope": "Not Available", "owner": "City", "owner_id": "Not Available", "install_da": "Not Available", "other": "Not Available", "source_dat": "Not Available", "load_date": "2022-06-22", "Shape_Leng": 13.8019169107}}, {"type": "Feature", "geometry": {"type": "LineString", "coordinates": [[-121.89395210523526, 37.447359400199936], [-121.89395430520938, 37.44734920024801]]}, "properties": {"type": "Service", "diameter": "Not Available", "material": "Unknown", "up_elev": "Not Available", "down_elev": "Not Available", "vert_dat": "Not Available", "slope": "Not Available", "owner": "City", "owner_id": "Not Available", "install_da": "Not Available", "other": "Not Available", "source_dat": "Not Available", "load_date": "2022-06-22", "Shape_Leng": 1.45101620846}}, {"type": "Feature", "geometry": {"type": "LineString", "coordinates": [[-121.8936905050447, 37.447522100014666], [-121.8937169047343, 37.447348199651266]]}, "properties": {"type": "Service", "diameter": "Not Available", "material": "Unknown", "up_elev": "Not Available", "down_elev": "Not Available", "vert_dat": "Not Available", "slope": "Not Available", "owner": "City", "owner_id": "Not Available", "install_da": "Not Available", "other": "Not Available", "source_dat": "Not Available", "load_date": "2022-06-22", "Shape_Leng": 24.5601582122}}, {"type": "Feature", "geometry": {"type": "LineString", "coordinates": [[-121.89963070469274, 37.44682160009572], [-121.89965740441959, 37.44692410021659]]}, "properties": {"type": "Service", "diameter": "Not Available", "material": "Unknown", "up_elev": "Not Available", "down_elev": "Not Available", "vert_dat": "Not Available", "slope": "Not Available", "owner": "City", "owner_id": "Not Available", "install_da": "Not Available", "other": "Not Available", "source_dat": "Not Available", "load_date": "2022-06-22", "Shape_Leng": 14.6762131128}}, {"type": "Feature", "geometry": {"type": "LineString", "coordinates": [[-121.89369780475477, 37.447525300062225], [-121.89368320443643, 37.44751889996687]]}, "properties": {"type": "Service", "diameter": "Not Available", "material": "Unknown", "up_elev": "Not Available", "down_elev": "Not Available", "vert_dat": "Not Available", "slope": "Not Available", "owner": "City", "owner_id": "Not Available", "install_da": "Not Available", "other": "Not Available", "source_dat": "Not Available", "load_date": "2022-06-22", "Shape_Leng": 1.85659011442}}, {"type": "Feature", "geometry": {"type": "LineString", "coordinates": [[-121.8960462048251, 37.446905500278824], [-121.89603760435458, 37.446905699971445], [-121.89603770496585, 37.4469092002975], [-121.89602900478233, 37.44690949983641], [-121.89602050492313, 37.446909800088456], [-121.89601940448688, 37.44689099974134]]}, "properties": {"type": "Service", "diameter": "Not Available", "material": "Unknown", "up_elev": "Not Available", "down_elev": "Not Available", "vert_dat": "Not Available", "slope": "Not Available", "owner": "City", "owner_id": "Not Available", "install_da": "Not Available", "other": "Not Available", "source_dat": "Not Available", "load_date": "2022-06-22", "Shape_Leng": 6.00422827567}}, {"type": "Feature", "geometry": {"type": "LineString", "coordinates": [[-121.89478110471543, 37.44782080001224], [-121.89477500515468, 37.44779630016457]]}, "properties": {"type": "Service", "diameter": "Not Available", "material": "Unknown", "up_elev": "Not Available", "down_elev": "Not Available", "vert_dat": "Not Available", "slope": "Not Available", "owner": "City", "owner_id": "Not Available", "install_da": "Not Available", "other": "Not Available", "source_dat": "Not Available", "load_date": "2022-06-22", "Shape_Leng": 3.50176057034}}, {"type": "Feature", "geometry": {"type": "LineString", "coordinates": [[-121.89861650494028, 37.44721899990009], [-121.89860850454436, 37.447187199691925]]}, "properties": {"type": "Service", "diameter": "Not Available", "material": "Unknown", "up_elev": "Not Available", "down_elev": "Not Available", "vert_dat": "Not Available", "slope": "Not Available", "owner": "City", "owner_id": "Not Available", "install_da": "Not Available", "other": "Not Available", "source_dat": "Not Available", "load_date": "2022-06-22", "Shape_Leng": 4.54697235647}}, {"type": "Feature", "geometry": {"type": "LineString", "coordinates": [[-121.90100880478025, 37.447062599715004], [-121.90100590501851, 37.44702980026582]]}, "properties": {"type": "Service", "diameter": "Not Available", "material": "Unknown", "up_elev": "Not Available", "down_elev": "Not Available", "vert_dat": "Not Available", "slope": "Not Available", "owner": "City", "owner_id": "Not Available", "install_da": "Not Available", "other": "Not Available", "source_dat": "Not Available", "load_date": "2022-06-22", "Shape_Leng": 4.61031461354}}, {"type": "Feature", "geometry": {"type": "LineString", "coordinates": [[-121.8948630050182, 37.447492400257204], [-121.89487220466505, 37.44749129981696]]}, "properties": {"type": "Service", "diameter": "Not Available", "material": "Unknown", "up_elev": "Not Available", "down_elev": "Not Available", "vert_dat": "Not Available", "slope": "Not Available", "owner": "City", "owner_id": "Not Available", "install_da": "Not Available", "other": "Not Available", "source_dat": "Not Available", "load_date": "2022-06-22", "Shape_Leng": 1.03565887013}}, {"type": "Feature", "geometry": {"type": "LineString", "coordinates": [[-121.89355070472863, 37.447976799945884], [-121.89352980452522, 37.44802929978868]]}, "properties": {"type": "Service", "diameter": "Not Available", "material": "Unknown", "up_elev": "Not Available", "down_elev": "Not Available", "vert_dat": "Not Available", "slope": "Not Available", "owner": "City", "owner_id": "Not Available", "install_da": "Not Available", "other": "Not Available", "source_dat": "Not Available", "load_date": "2022-06-22", "Shape_Leng": 7.72031589589}}, {"type": "Feature", "geometry": {"type": "LineString", "coordinates": [[-121.89410670439733, 37.44747360005644], [-121.89397330457766, 37.44744889969073]]}, "properties": {"type": "Service", "diameter": "Not Available", "material": "Unknown", "up_elev": "Not Available", "down_elev": "Not Available", "vert_dat": "Not Available", "slope": "Not Available", "owner": "City", "owner_id": "Not Available", "install_da": "Not Available", "other": "Not Available", "source_dat": "Not Available", "load_date": "2022-06-22", "Shape_Leng": 15.2485290962}}, {"type": "Feature", "geometry": {"type": "LineString", "coordinates": [[-121.89697410522479, 37.44747310011559], [-121.89696800476572, 37.447448500308376]]}, "properties": {"type": "Service", "diameter": "Not Available", "material": "Unknown", "up_elev": "Not Available", "down_elev": "Not Available", "vert_dat": "Not Available", "slope": "Not Available", "owner": "City", "owner_id": "Not Available", "install_da": "Not Available", "other": "Not Available", "source_dat": "Not Available", "load_date": "2022-06-22", "Shape_Leng": 3.51551523155}}, {"type": "Feature", "geometry": {"type": "LineString", "coordinates": [[-121.89302120446247, 37.44680770004694], [-121.89311200437479, 37.44681019977369]]}, "properties": {"type": "Service", "diameter": "Not Available", "material": "Unknown", "up_elev": "Not Available", "down_elev": "Not Available", "vert_dat": "Not Available", "slope": "Not Available", "owner": "City", "owner_id": "Not Available", "install_da": "Not Available", "other": "Not Available", "source_dat": "Not Available", "load_date": "2022-06-22", "Shape_Leng": 10.1138751781}}, {"type": "Feature", "geometry": {"type": "LineString", "coordinates": [[-121.89290110509886, 37.44816040018076], [-121.89289120476616, 37.44815969984196]]}, "properties": {"type": "Service", "diameter": "Not Available", "material": "Unknown", "up_elev": "Not Available", "down_elev": "Not Available", "vert_dat": "Not Available", "slope": "Not Available", "owner": "City", "owner_id": "Not Available", "install_da": "Not Available", "other": "Not Available", "source_dat": "Not Available", "load_date": "2022-06-22", "Shape_Leng": 1.10646628945}}, {"type": "Feature", "geometry": {"type": "LineString", "coordinates": [[-121.89728380480891, 37.44742849980984], [-121.89727560498699, 37.447403599737854]]}, "properties": {"type": "Service", "diameter": "Not Available", "material": "Unknown", "up_elev": "Not Available", "down_elev": "Not Available", "vert_dat": "Not Available", "slope": "Not Available", "owner": "City", "owner_id": "Not Available", "install_da": "Not Available", "other": "Not Available", "source_dat": "Not Available", "load_date": "2022-06-22", "Shape_Leng": 3.60875017503}}, {"type": "Feature", "geometry": {"type": "LineString", "coordinates": [[-121.90122320479078, 37.44690090021686], [-121.90121750498037, 37.44689990032734]]}, "properties": {"type": "Service", "diameter": "Not Available", "material": "Unknown", "up_elev": "Not Available", "down_elev": "Not Available", "vert_dat": "Not Available", "slope": "Not Available", "owner": "City", "owner_id": "Not Available", "install_da": "Not Available", "other": "Not Available", "source_dat": "Not Available", "load_date": "2022-06-22", "Shape_Leng": 0.649804808806}}, {"type": "Feature", "geometry": {"type": "LineString", "coordinates": [[-121.89488370489731, 37.447238700203904], [-121.89492240521808, 37.44725530028932]]}, "properties": {"type": "Service", "diameter": "Not Available", "material": "Unknown", "up_elev": "Not Available", "down_elev": "Not Available", "vert_dat": "Not Available", "slope": "Not Available", "owner": "City", "owner_id": "Not Available", "install_da": "Not Available", "other": "Not Available", "source_dat": "Not Available", "load_date": "2022-06-22", "Shape_Leng": 4.89667717398}}, {"type": "Feature", "geometry": {"type": "LineString", "coordinates": [[-121.90137590491437, 37.44727279969662], [-121.90137470476522, 37.44726930010076]]}, "properties": {"type": "Service", "diameter": "Not Available", "material": "Unknown", "up_elev": "Not Available", "down_elev": "Not Available", "vert_dat": "Not Available", "slope": "Not Available", "owner": "City", "owner_id": "Not Available", "install_da": "Not Available", "other": "Not Available", "source_dat": "Not Available", "load_date": "2022-06-22", "Shape_Leng": 0.508562146097}}, {"type": "Feature", "geometry": {"type": "LineString", "coordinates": [[-121.89872560443324, 37.447062400022816], [-121.89875140494652, 37.44716420017884]]}, "properties": {"type": "Service", "diameter": "Not Available", "material": "Unknown", "up_elev": "Not Available", "down_elev": "Not Available", "vert_dat": "Not Available", "slope": "Not Available", "owner": "City", "owner_id": "Not Available", "install_da": "Not Available", "other": "Not Available", "source_dat": "Not Available", "load_date": "2022-06-22", "Shape_Leng": 14.5600835954}}, {"type": "Feature", "geometry": {"type": "LineString", "coordinates": [[-121.89329360509765, 37.44809309987815], [-121.89329580507182, 37.44800729969605]]}, "properties": {"type": "Service", "diameter": "Not Available", "material": "Unknown", "up_elev": "Not Available", "down_elev": "Not Available", "vert_dat": "Not Available", "slope": "Not Available", "owner": "City", "owner_id": "Not Available", "install_da": "Not Available", "other": "Not Available", "source_dat": "Not Available", "load_date": "2022-06-22", "Shape_Leng": 12.0331923635}}, {"type": "Feature", "geometry": {"type": "LineString", "coordinates": [[-121.89513990441635, 37.44706109988402], [-121.89496580462607, 37.4471319998502]]}, "properties": {"type": "Service", "diameter": "Not Available", "material": "Unknown", "up_elev": "Not Available", "down_elev": "Not Available", "vert_dat": "Not Available", "slope": "Not Available", "owner": "City", "owner_id": "Not Available", "install_da": "Not Available", "other": "Not Available", "source_dat": "Not Available", "load_date": "2022-06-22", "Shape_Leng": 21.7816661004}}, {"type": "Feature", "geometry": {"type": "LineString", "coordinates": [[-121.89407390510972, 37.44780259967786], [-121.89409170522704, 37.4477758996652]]}, "properties": {"type": "Service", "diameter": "Not Available", "material": "Unknown", "up_elev": "Not Available", "down_elev": "Not Available", "vert_dat": "Not Available", "slope": "Not Available", "owner": "City", "owner_id": "Not Available", "install_da": "Not Available", "other": "Not Available", "source_dat": "Not Available", "load_date": "2022-06-22", "Shape_Leng": 4.2358447427}}, {"type": "Feature", "geometry": {"type": "LineString", "coordinates": [[-121.89963150509166, 37.44705279982018], [-121.89960680501461, 37.447009699809115]]}, "properties": {"type": "Service", "diameter": "Not Available", "material": "Unknown", "up_elev": "Not Available", "down_elev": "Not Available", "vert_dat": "Not Available", "slope": "Not Available", "owner": "City", "owner_id": "Not Available", "install_da": "Not Available", "other": "Not Available", "source_dat": "Not Available", "load_date": "2022-06-22", "Shape_Leng": 6.63941074853}}, {"type": "Feature", "geometry": {"type": "LineString", "coordinates": [[-121.89303100508225, 37.44735020013146], [-121.89303900457985, 37.44735089976459]]}, "properties": {"type": "Service", "diameter": "Not Available", "material": "Unknown", "up_elev": "Not Available", "down_elev": "Not Available", "vert_dat": "Not Available", "slope": "Not Available", "owner": "City", "owner_id": "Not Available", "install_da": "Not Available", "other": "Not Available", "source_dat": "Not Available", "load_date": "2022-06-22", "Shape_Leng": 0.895887191212}}, {"type": "Feature", "geometry": {"type": "LineString", "coordinates": [[-121.89570610445513, 37.447650499766745], [-121.89570570470481, 37.44764869969839]]}, "properties": {"type": "Service", "diameter": "Not Available", "material": "Unknown", "up_elev": "Not Available", "down_elev": "Not Available", "vert_dat": "Not Available", "slope": "Not Available", "owner": "City", "owner_id": "Not Available", "install_da": "Not Available", "other": "Not Available", "source_dat": "Not Available", "load_date": "2022-06-22", "Shape_Leng": 0.256292824269}}, {"type": "Feature", "geometry": {"type": "LineString", "coordinates": [[-121.90052600523076, 37.44715920003572], [-121.90051700500993, 37.447057300026714]]}, "properties": {"type": "Service", "diameter": "Not Available", "material": "Unknown", "up_elev": "Not Available", "down_elev": "Not Available", "vert_dat": "Not Available", "slope": "Not Available", "owner": "City", "owner_id": "Not Available", "install_da": "Not Available", "other": "Not Available", "source_dat": "Not Available", "load_date": "2022-06-22", "Shape_Leng": 14.3230844334}}, {"type": "Feature", "geometry": {"type": "LineString", "coordinates": [[-121.89270360509377, 37.447446599676475], [-121.89270600449393, 37.44743589979525]]}, "properties": {"type": "Service", "diameter": "Not Available", "material": "Unknown", "up_elev": "Not Available", "down_elev": "Not Available", "vert_dat": "Not Available", "slope": "Not Available", "owner": "City", "owner_id": "Not Available", "install_da": "Not Available", "other": "Not Available", "source_dat": "Not Available", "load_date": "2022-06-22", "Shape_Leng": 1.52389057786}}, {"type": "Feature", "geometry": {"type": "LineString", "coordinates": [[-121.8930164047639, 37.44681680033569], [-121.89302120446247, 37.44680770004694]]}, "properties": {"type": "Service", "diameter": "Not Available", "material": "Unknown", "up_elev": "Not Available", "down_elev": "Not Available", "vert_dat": "Not Available", "slope": "Not Available", "owner": "City", "owner_id": "Not Available", "install_da": "Not Available", "other": "Not Available", "source_dat": "Not Available", "load_date": "2022-06-22", "Shape_Leng": 1.38334828977}}, {"type": "Feature", "geometry": {"type": "LineString", "coordinates": [[-121.89510680509139, 37.44721920030503], [-121.89496640470068, 37.447162900041796]]}, "properties": {"type": "Service", "diameter": "Not Available", "material": "Unknown", "up_elev": "Not Available", "down_elev": "Not Available", "vert_dat": "Not Available", "slope": "Not Available", "owner": "City", "owner_id": "Not Available", "install_da": "Not Available", "other": "Not Available", "source_dat": "Not Available", "load_date": "2022-06-22", "Shape_Leng": 17.5098090283}}, {"type": "Feature", "geometry": {"type": "LineString", "coordinates": [[-121.8994943045, 37.44705070019914], [-121.89949290492474, 37.447045200104654]]}, "properties": {"type": "Service", "diameter": "Not Available", "material": "Unknown", "up_elev": "Not Available", "down_elev": "Not Available", "vert_dat": "Not Available", "slope": "Not Available", "owner": "City", "owner_id": "Not Available", "install_da": "Not Available", "other": "Not Available", "source_dat": "Not Available", "load_date": "2022-06-22", "Shape_Leng": 0.786780199204}}, {"type": "Feature", "geometry": {"type": "LineString", "coordinates": [[-121.89820470463762, 37.4472817002372], [-121.89819750464063, 37.44725310011497]]}, "properties": {"type": "Service", "diameter": "Not Available", "material": "Unknown", "up_elev": "Not Available", "down_elev": "Not Available", "vert_dat": "Not Available", "slope": "Not Available", "owner": "City", "owner_id": "Not Available", "install_da": "Not Available", "other": "Not Available", "source_dat": "Not Available", "load_date": "2022-06-22", "Shape_Leng": 4.08951174354}}, {"type": "Feature", "geometry": {"type": "LineString", "coordinates": [[-121.89786600474119, 37.447075700234606], [-121.8978302050805, 37.447077600162785]]}, "properties": {"type": "Service", "diameter": "Not Available", "material": "Unknown", "up_elev": "Not Available", "down_elev": "Not Available", "vert_dat": "Not Available", "slope": "Not Available", "owner": "City", "owner_id": "Not Available", "install_da": "Not Available", "other": "Not Available", "source_dat": "Not Available", "load_date": "2022-06-22", "Shape_Leng": 3.9940941388}}, {"type": "Feature", "geometry": {"type": "LineString", "coordinates": [[-121.8994240050408, 37.44687989968214], [-121.89962150504589, 37.44698469975164]]}, "properties": {"type": "Service", "diameter": "Not Available", "material": "Unknown", "up_elev": "Not Available", "down_elev": "Not Available", "vert_dat": "Not Available", "slope": "Not Available", "owner": "City", "owner_id": "Not Available", "install_da": "Not Available", "other": "Not Available", "source_dat": "Not Available", "load_date": "2022-06-22", "Shape_Leng": 26.4442408943}}, {"type": "Feature", "geometry": {"type": "LineString", "coordinates": [[-121.89596230487248, 37.4474948001156], [-121.89598950496101, 37.447603700115884]]}, "properties": {"type": "Service", "diameter": "Not Available", "material": "Unknown", "up_elev": "Not Available", "down_elev": "Not Available", "vert_dat": "Not Available", "slope": "Not Available", "owner": "City", "owner_id": "Not Available", "install_da": "Not Available", "other": "Not Available", "source_dat": "Not Available", "load_date": "2022-06-22", "Shape_Leng": 15.5669156376}}, {"type": "Feature", "geometry": {"type": "LineString", "coordinates": [[-121.89727560498699, 37.447403599737854], [-121.89727470487512, 37.44739989974371]]}, "properties": {"type": "Service", "diameter": "Not Available", "material": "Unknown", "up_elev": "Not Available", "down_elev": "Not Available", "vert_dat": "Not Available", "slope": "Not Available", "owner": "City", "owner_id": "Not Available", "install_da": "Not Available", "other": "Not Available", "source_dat": "Not Available", "load_date": "2022-06-22", "Shape_Leng": 0.528387620638}}, {"type": "Feature", "geometry": {"type": "LineString", "coordinates": [[-121.89356170459928, 37.44734569994253], [-121.89356210524787, 37.44734989988114]]}, "properties": {"type": "Service", "diameter": "Not Available", "material": "Unknown", "up_elev": "Not Available", "down_elev": "Not Available", "vert_dat": "Not Available", "slope": "Not Available", "owner": "City", "owner_id": "Not Available", "install_da": "Not Available", "other": "Not Available", "source_dat": "Not Available", "load_date": "2022-06-22", "Shape_Leng": 0.590586462667}}, {"type": "Feature", "geometry": {"type": "LineString", "coordinates": [[-121.89485890510731, 37.44707879974204], [-121.8949650051255, 37.44708719964903]]}, "properties": {"type": "Service", "diameter": "Not Available", "material": "Unknown", "up_elev": "Not Available", "down_elev": "Not Available", "vert_dat": "Not Available", "slope": "Not Available", "owner": "City", "owner_id": "Not Available", "install_da": "Not Available", "other": "Not Available", "source_dat": "Not Available", "load_date": "2022-06-22", "Shape_Leng": 11.8695801868}}, {"type": "Feature", "geometry": {"type": "LineString", "coordinates": [[-121.89272770509626, 37.44781169984562], [-121.89285200498206, 37.447802899926344]]}, "properties": {"type": "Service", "diameter": "Not Available", "material": "Unknown", "up_elev": "Not Available", "down_elev": "Not Available", "vert_dat": "Not Available", "slope": "Not Available", "owner": "City", "owner_id": "Not Available", "install_da": "Not Available", "other": "Not Available", "source_dat": "Not Available", "load_date": "2022-06-22", "Shape_Leng": 13.8919069317}}, {"type": "Feature", "geometry": {"type": "LineString", "coordinates": [[-121.89303130511954, 37.44811900030697], [-121.8930221045744, 37.44801990011297]]}, "properties": {"type": "Service", "diameter": "Not Available", "material": "Unknown", "up_elev": "Not Available", "down_elev": "Not Available", "vert_dat": "Not Available", "slope": "Not Available", "owner": "City", "owner_id": "Not Available", "install_da": "Not Available", "other": "Not Available", "source_dat": "Not Available", "load_date": "2022-06-22", "Shape_Leng": 13.9332941173}}, {"type": "Feature", "geometry": {"type": "LineString", "coordinates": [[-121.90055880451845, 37.446945900222076], [-121.90056840481391, 37.44705440021064]]}, "properties": {"type": "Service", "diameter": "Not Available", "material": "Unknown", "up_elev": "Not Available", "down_elev": "Not Available", "vert_dat": "Not Available", "slope": "Not Available", "owner": "City", "owner_id": "Not Available", "install_da": "Not Available", "other": "Not Available", "source_dat": "Not Available", "load_date": "2022-06-22", "Shape_Leng": 15.25089044}}, {"type": "Feature", "geometry": {"type": "LineString", "coordinates": [[-121.89355710522506, 37.44731970011336], [-121.89356170459928, 37.44734569994253]]}, "properties": {"type": "Service", "diameter": "Not Available", "material": "Unknown", "up_elev": "Not Available", "down_elev": "Not Available", "vert_dat": "Not Available", "slope": "Not Available", "owner": "City", "owner_id": "Not Available", "install_da": "Not Available", "other": "Not Available", "source_dat": "Not Available", "load_date": "2022-06-22", "Shape_Leng": 3.68137792188}}, {"type": "Feature", "geometry": {"type": "LineString", "coordinates": [[-121.8971644052329, 37.447446200294095], [-121.89715750437492, 37.447418500271745]]}, "properties": {"type": "Service", "diameter": "Not Available", "material": "Unknown", "up_elev": "Not Available", "down_elev": "Not Available", "vert_dat": "Not Available", "slope": "Not Available", "owner": "City", "owner_id": "Not Available", "install_da": "Not Available", "other": "Not Available", "source_dat": "Not Available", "load_date": "2022-06-22", "Shape_Leng": 3.95924073609}}, {"type": "Feature", "geometry": {"type": "LineString", "coordinates": [[-121.89413990523197, 37.44718979996514], [-121.89399980487852, 37.4471954997408]]}, "properties": {"type": "Service", "diameter": "Not Available", "material": "Unknown", "up_elev": "Not Available", "down_elev": "Not Available", "vert_dat": "Not Available", "slope": "Not Available", "owner": "City", "owner_id": "Not Available", "install_da": "Not Available", "other": "Not Available", "source_dat": "Not Available", "load_date": "2022-06-22", "Shape_Leng": 15.6163637726}}, {"type": "Feature", "geometry": {"type": "LineString", "coordinates": [[-121.89303100508225, 37.44735020013146], [-121.89303340448237, 37.44737880021659]]}, "properties": {"type": "Service", "diameter": "Not Available", "material": "Unknown", "up_elev": "Not Available", "down_elev": "Not Available", "vert_dat": "Not Available", "slope": "Not Available", "owner": "City", "owner_id": "Not Available", "install_da": "Not Available", "other": "Not Available", "source_dat": "Not Available", "load_date": "2022-06-22", "Shape_Leng": 4.01908527651}}, {"type": "Feature", "geometry": {"type": "LineString", "coordinates": [[-121.89616760494918, 37.44746739964781], [-121.89616380507555, 37.447453399873446]]}, "properties": {"type": "Service", "diameter": "Not Available", "material": "Unknown", "up_elev": "Not Available", "down_elev": "Not Available", "vert_dat": "Not Available", "slope": "Not Available", "owner": "City", "owner_id": "Not Available", "install_da": "Not Available", "other": "Not Available", "source_dat": "Not Available", "load_date": "2022-06-22", "Shape_Leng": 2.00805827299}}, {"type": "Feature", "geometry": {"type": "LineString", "coordinates": [[-121.89327760520413, 37.44795830011478], [-121.89327760520413, 37.44800719985122]]}, "properties": {"type": "Service", "diameter": "Not Available", "material": "Unknown", "up_elev": "Not Available", "down_elev": "Not Available", "vert_dat": "Not Available", "slope": "Not Available", "owner": "City", "owner_id": "Not Available", "install_da": "Not Available", "other": "Not Available", "source_dat": "Not Available", "load_date": "2022-06-22", "Shape_Leng": 6.85660000145}}, {"type": "Feature", "geometry": {"type": "LineString", "coordinates": [[-121.89782070449806, 37.44734069981152], [-121.89781420518699, 37.4473143997302]]}, "properties": {"type": "Service", "diameter": "Not Available", "material": "Unknown", "up_elev": "Not Available", "down_elev": "Not Available", "vert_dat": "Not Available", "slope": "Not Available", "owner": "City", "owner_id": "Not Available", "install_da": "Not Available", "other": "Not Available", "source_dat": "Not Available", "load_date": "2022-06-22", "Shape_Leng": 3.75800260317}}, {"type": "Feature", "geometry": {"type": "LineString", "coordinates": [[-121.89276010463354, 37.44807899966301], [-121.89275730458482, 37.44806860011963]]}, "properties": {"type": "Service", "diameter": "Not Available", "material": "Unknown", "up_elev": "Not Available", "down_elev": "Not Available", "vert_dat": "Not Available", "slope": "Not Available", "owner": "City", "owner_id": "Not Available", "install_da": "Not Available", "other": "Not Available", "source_dat": "Not Available", "load_date": "2022-06-22", "Shape_Leng": 1.49114188846}}, {"type": "Feature", "geometry": {"type": "LineString", "coordinates": [[-121.89831970516364, 37.44712749964817], [-121.89834540506563, 37.44722940027466]]}, "properties": {"type": "Service", "diameter": "Not Available", "material": "Unknown", "up_elev": "Not Available", "down_elev": "Not Available", "vert_dat": "Not Available", "slope": "Not Available", "owner": "City", "owner_id": "Not Available", "install_da": "Not Available", "other": "Not Available", "source_dat": "Not Available", "load_date": "2022-06-22", "Shape_Leng": 14.5717037551}}, {"type": "Feature", "geometry": {"type": "LineString", "coordinates": [[-121.9013635045702, 37.446985599793805], [-121.9013143047404, 37.447024099764334]]}, "properties": {"type": "Service", "diameter": "Not Available", "material": "Unknown", "up_elev": "Not Available", "down_elev": "Not Available", "vert_dat": "Not Available", "slope": "Not Available", "owner": "City", "owner_id": "Not Available", "install_da": "Not Available", "other": "Not Available", "source_dat": "Not Available", "load_date": "2022-06-22", "Shape_Leng": 7.69012850974}}, {"type": "Feature", "geometry": {"type": "LineString", "coordinates": [[-121.90121750498037, 37.44689990032734], [-121.90121190488286, 37.44689889972466]]}, "properties": {"type": "Service", "diameter": "Not Available", "material": "Unknown", "up_elev": "Not Available", "down_elev": "Not Available", "vert_dat": "Not Available", "slope": "Not Available", "owner": "City", "owner_id": "Not Available", "install_da": "Not Available", "other": "Not Available", "source_dat": "Not Available", "load_date": "2022-06-22", "Shape_Leng": 0.638992684284}}, {"type": "Feature", "geometry": {"type": "LineString", "coordinates": [[-121.89770750509416, 37.44713119965582], [-121.89783400495415, 37.44712480023996]]}, "properties": {"type": "Service", "diameter": "Not Available", "material": "Unknown", "up_elev": "Not Available", "down_elev": "Not Available", "vert_dat": "Not Available", "slope": "Not Available", "owner": "City", "owner_id": "Not Available", "install_da": "Not Available", "other": "Not Available", "source_dat": "Not Available", "load_date": "2022-06-22", "Shape_Leng": 14.110459061}}, {"type": "Feature", "geometry": {"type": "LineString", "coordinates": [[-121.89731170468498, 37.44728569977464], [-121.89733760491127, 37.4473899002018]]}, "properties": {"type": "Service", "diameter": "Not Available", "material": "Unknown", "up_elev": "Not Available", "down_elev": "Not Available", "vert_dat": "Not Available", "slope": "Not Available", "owner": "City", "owner_id": "Not Available", "install_da": "Not Available", "other": "Not Available", "source_dat": "Not Available", "load_date": "2022-06-22", "Shape_Leng": 14.8923629642}}, {"type": "Feature", "geometry": {"type": "LineString", "coordinates": [[-121.90077970473843, 37.4470744999421], [-121.900773104816, 37.447075300137136]]}, "properties": {"type": "Service", "diameter": "Not Available", "material": "Unknown", "up_elev": "Not Available", "down_elev": "Not Available", "vert_dat": "Not Available", "slope": "Not Available", "owner": "City", "owner_id": "Not Available", "install_da": "Not Available", "other": "Not Available", "source_dat": "Not Available", "load_date": "2022-06-22", "Shape_Leng": 0.743217955742}}, {"type": "Feature", "geometry": {"type": "LineString", "coordinates": [[-121.89598700494953, 37.44676939965803], [-121.89596870447053, 37.446770400262466]]}, "properties": {"type": "Service", "diameter": "Not Available", "material": "Unknown", "up_elev": "Not Available", "down_elev": "Not Available", "vert_dat": "Not Available", "slope": "Not Available", "owner": "City", "owner_id": "Not Available", "install_da": "Not Available", "other": "Not Available", "source_dat": "Not Available", "load_date": "2022-06-22", "Shape_Leng": 2.04202544795}}, {"type": "Feature", "geometry": {"type": "LineString", "coordinates": [[-121.89427750467557, 37.44785250010603], [-121.89428230437417, 37.44783249971548]]}, "properties": {"type": "Service", "diameter": "Not Available", "material": "Unknown", "up_elev": "Not Available", "down_elev": "Not Available", "vert_dat": "Not Available", "slope": "Not Available", "owner": "City", "owner_id": "Not Available", "install_da": "Not Available", "other": "Not Available", "source_dat": "Not Available", "load_date": "2022-06-22", "Shape_Leng": 2.85484427467}}, {"type": "Feature", "geometry": {"type": "LineString", "coordinates": [[-121.89275730458482, 37.44806860011963], [-121.8928763044105, 37.44802170017237]]}, "properties": {"type": "Service", "diameter": "Not Available", "material": "Unknown", "up_elev": "Not Available", "down_elev": "Not Available", "vert_dat": "Not Available", "slope": "Not Available", "owner": "City", "owner_id": "Not Available", "install_da": "Not Available", "other": "Not Available", "source_dat": "Not Available", "load_date": "2022-06-22", "Shape_Leng": 14.7895035579}}, {"type": "Feature", "geometry": {"type": "LineString", "coordinates": [[-121.89303250437044, 37.44681920021577], [-121.89303250437044, 37.446822000194565], [-121.89311140519845, 37.44682419966843]]}, "properties": {"type": "Service", "diameter": "Not Available", "material": "Unknown", "up_elev": "Not Available", "down_elev": "Not Available", "vert_dat": "Not Available", "slope": "Not Available", "owner": "City", "owner_id": "Not Available", "install_da": "Not Available", "other": "Not Available", "source_dat": "Not Available", "load_date": "2022-06-22", "Shape_Leng": 9.18121267708}}, {"type": "Feature", "geometry": {"type": "LineString", "coordinates": [[-121.89297900520366, 37.44797499988542], [-121.89298340515192, 37.448022200109584]]}, "properties": {"type": "Service", "diameter": "Not Available", "material": "Unknown", "up_elev": "Not Available", "down_elev": "Not Available", "vert_dat": "Not Available", "slope": "Not Available", "owner": "City", "owner_id": "Not Available", "install_da": "Not Available", "other": "Not Available", "source_dat": "Not Available", "load_date": "2022-06-22", "Shape_Leng": 6.63639954408}}, {"type": "Feature", "geometry": {"type": "LineString", "coordinates": [[-121.89410060483657, 37.447505999929085], [-121.89396450468112, 37.44747689995167]]}, "properties": {"type": "Service", "diameter": "Not Available", "material": "Unknown", "up_elev": "Not Available", "down_elev": "Not Available", "vert_dat": "Not Available", "slope": "Not Available", "owner": "City", "owner_id": "Not Available", "install_da": "Not Available", "other": "Not Available", "source_dat": "Not Available", "load_date": "2022-06-22", "Shape_Leng": 15.6904279264}}, {"type": "Feature", "geometry": {"type": "LineString", "coordinates": [[-121.89275730458482, 37.44806860011963], [-121.89275440482311, 37.44805810001691]]}, "properties": {"type": "Service", "diameter": "Not Available", "material": "Unknown", "up_elev": "Not Available", "down_elev": "Not Available", "vert_dat": "Not Available", "slope": "Not Available", "owner": "City", "owner_id": "Not Available", "install_da": "Not Available", "other": "Not Available", "source_dat": "Not Available", "load_date": "2022-06-22", "Shape_Leng": 1.50727141914}}, {"type": "Feature", "geometry": {"type": "LineString", "coordinates": [[-121.89395210523526, 37.447359400199936], [-121.89395040472441, 37.44737079972505]]}, "properties": {"type": "Service", "diameter": "Not Available", "material": "Unknown", "up_elev": "Not Available", "down_elev": "Not Available", "vert_dat": "Not Available", "slope": "Not Available", "owner": "City", "owner_id": "Not Available", "install_da": "Not Available", "other": "Not Available", "source_dat": "Not Available", "load_date": "2022-06-22", "Shape_Leng": 1.60957045938}}]}